<?xml version="1.0" encoding="UTF-8"?>
<kml xmlns="http://www.opengis.net/kml/2.2" xmlns:gx="http://www.google.com/kml/ext/2.2" xmlns:kml="http://www.opengis.net/kml/2.2" xmlns:atom="http://www.w3.org/2005/Atom">
<Folder>
	<name>Temporary Places</name>
	<open>1</open>
	<Document>
		<name>Ward no.1.kml</name>
		<StyleMap id="m_ylw-pushpin">
			<Pair>
				<key>normal</key>
				<styleUrl>#s_ylw-pushpin</styleUrl>
			</Pair>
			<Pair>
				<key>highlight</key>
				<styleUrl>#s_ylw-pushpin_hl</styleUrl>
			</Pair>
		</StyleMap>
		<Style id="s_ylw-pushpin">
			<IconStyle>
				<scale>1.1</scale>
				<Icon>
					<href>https://maps.google.com/mapfiles/kml/pushpin/ylw-pushpin.png</href>
				</Icon>
				<hotSpot x="20" y="2" xunits="pixels" yunits="pixels"/>
			</IconStyle>
			<LineStyle>
				<color>ffffff55</color>
				<width>3</width>
			</LineStyle>
			<PolyStyle>
				<fill>0</fill>
			</PolyStyle>
		</Style>
		<Style id="s_ylw-pushpin_hl">
			<IconStyle>
				<scale>1.3</scale>
				<Icon>
					<href>https://maps.google.com/mapfiles/kml/pushpin/ylw-pushpin.png</href>
				</Icon>
				<hotSpot x="20" y="2" xunits="pixels" yunits="pixels"/>
			</IconStyle>
			<LineStyle>
				<color>ffffff55</color>
				<width>3</width>
			</LineStyle>
			<PolyStyle>
				<fill>0</fill>
			</PolyStyle>
		</Style>
		<Placemark>
			<name>Ward no.1.kml</name>
			<styleUrl>#m_ylw-pushpin</styleUrl>
			<Polygon>
				<tessellate>1</tessellate>
				<outerBoundaryIs>
					<LinearRing>
						<coordinates>
							72.84670570100008,19.30758531900005,0 72.84670570100008,19.30758531900005,0 72.84664806200004,19.30790392000006,0 72.84670264800008,19.30831330100006,0 72.84677076000008,19.30869102000003,0 72.84979376900003,19.30826511300006,0 72.84983137200004,19.30880926400005,0 72.85022659900005,19.30877817800007,0 72.85081429700006,19.30856059200005,0 72.85115188300006,19.30839740100004,0 72.85146476600005,19.30828860900004,0 72.85195056000003,19.30809433200005,0 72.85232108100007,19.30791559600004,0 72.85311915200003,19.30776781300005,0 72.85313860200006,19.30777054200007,0 72.85313283900007,19.30782000000005,0 72.85305188800004,19.30845319400004,0 72.85298422900007,19.30972623000002,0 72.85297842600005,19.30973013500005,0 72.85282884300005,19.31225371000005,0 72.85277648200008,19.31356644100003,0 72.85284377700003,19.31498289800004,0 72.85306064900004,19.31653626200006,0 72.85306064500008,19.31687807200007,0 72.85297089300008,19.31806896600006,0 72.85288924700006,19.31849935100007,0 72.85288059604649,19.31854059598286,0 72.85155967800006,19.31849914500003,0 72.85022662400007,19.31860659300003,0 72.84929474200004,19.31869790000007,0 72.84706862200005,19.31891513600004,0 72.84518135700006,19.31901763900004,0 72.84334268000003,19.31892723900006,0 72.84202644300007,19.31867913100007,0 72.84102757000005,19.31831955200005,0 72.83965225400004,19.31768271000004,0 72.83785831700004,19.31667347600006,0 72.83453436900004,19.31499738900004,0 72.83345345400005,19.31444825500006,0 72.83304405600006,19.31409266500003,0 72.83337307100004,19.31365671100008,0 72.83343415300004,19.31328834100003,0 72.83326379500005,19.31272879900007,0 72.83300429000008,19.31181349700006,0 72.83298225800007,19.31139199600005,0 72.83320211900008,19.31081972400005,0 72.83370719500004,19.30999949100004,0 72.83409481000007,19.30896865900007,0 72.83467033400007,19.30805741900002,0 72.83496397300007,19.30720393300004,0 72.83511666900006,19.30619526900006,0 72.83521096400005,19.30504849800008,0 72.83544709800003,19.30398770400006,0 72.83557280600007,19.30336037000006,0 72.83553766400007,19.30280519400003,0 72.83546038300005,19.30220011900008,0 72.83549115300008,19.30195974500003,0 72.83553917700004,19.30156094200004,0 72.83566402800005,19.30120745700003,0 72.83607698500003,19.30050955700005,0 72.83623064200003,19.30018326500004,0 72.83623064400007,19.29984790900005,0 72.83617302500005,19.29954880500003,0 72.83619223300008,19.29919531600007,0 72.83650392500005,19.29924998700005,0 72.83710654500004,19.29931195900002,0 72.83806090000007,19.29928260100007,0 72.83882852700003,19.29920428400004,0 72.83948204800004,19.29909659000003,0 72.83999034000004,19.29895952400005,0 72.84031191200006,19.29897910300002,0 72.84074759200007,19.29902805300003,0 72.84112103300004,19.29902804800003,0 72.84146335400004,19.29903783500004,0 72.84182642500008,19.29914552300005,0 72.84362327200006,19.29980147500004,0 72.84437015900005,19.30009517600007,0 72.84548704000008,19.30046415000004,0 72.84699559400008,19.30095410600006,0 72.84728207400008,19.30108391600004,0 72.84756912700004,19.30121072800006,0 72.84782564200003,19.30126836800002,0 72.84803329800008,19.30138364800007,0 72.84821652600004,19.30164303800007,0 72.84837977000007,19.30199749800005,0 72.84804996500003,19.30226841400003,0 72.84759189800008,19.30281601600007,0 72.84676736200004,19.30382475700003,0 72.84648727700005,19.30413049400005,0 72.84668671000003,19.30459131200007,0 72.84693428300005,19.30490285300004,0 72.84708557600004,19.30501319000007,0 72.84722311700006,19.30507809300008,0 72.84743814200004,19.30494242000003,0 72.84758472600004,19.30502312100003,0 72.84775211100003,19.30516899300005,0 72.84796844300007,19.30559939800003,0 72.84803275700006,19.30584771000002,0 72.84804445000003,19.30600221300006,0 72.84794505400004,19.30620638200003,0 72.84771118200007,19.30636088800003,0 72.84731944100008,19.30655953700006,0 72.84713386700008,19.30659067000005,0 72.84663984100007,19.30674608300006,0 72.84629401700005,19.30688595200007,0 72.84649986200003,19.30703359800003,0 72.84667276900007,19.30731334600006,0 72.84670570100008,19.30758531900005,0 
						</coordinates>
					</LinearRing>
				</outerBoundaryIs>
			</Polygon>
		</Placemark>
	</Document>
	<Document>
		<name>Ward no.2.kml</name>
		<StyleMap id="m_ylw-pushpin0">
			<Pair>
				<key>normal</key>
				<styleUrl>#s_ylw-pushpin0</styleUrl>
			</Pair>
			<Pair>
				<key>highlight</key>
				<styleUrl>#s_ylw-pushpin_hl0</styleUrl>
			</Pair>
		</StyleMap>
		<Style id="s_ylw-pushpin0">
			<IconStyle>
				<scale>1.1</scale>
				<Icon>
					<href>https://maps.google.com/mapfiles/kml/pushpin/ylw-pushpin.png</href>
				</Icon>
				<hotSpot x="20" y="2" xunits="pixels" yunits="pixels"/>
			</IconStyle>
			<LineStyle>
				<color>ffffff55</color>
				<width>3</width>
			</LineStyle>
			<PolyStyle>
				<fill>0</fill>
			</PolyStyle>
		</Style>
		<Style id="s_ylw-pushpin_hl0">
			<IconStyle>
				<scale>1.3</scale>
				<Icon>
					<href>https://maps.google.com/mapfiles/kml/pushpin/ylw-pushpin.png</href>
				</Icon>
				<hotSpot x="20" y="2" xunits="pixels" yunits="pixels"/>
			</IconStyle>
			<LineStyle>
				<color>ffffff55</color>
				<width>3</width>
			</LineStyle>
			<PolyStyle>
				<fill>0</fill>
			</PolyStyle>
		</Style>
		<Placemark>
			<name>Ward no.2.kml</name>
			<styleUrl>#m_ylw-pushpin0</styleUrl>
			<Polygon>
				<tessellate>1</tessellate>
				<outerBoundaryIs>
					<LinearRing>
						<coordinates>
							72.85845323300003,19.31375215600008,0 72.85845323300003,19.31375215600008,0 72.85892270500005,19.31438591000006,0 72.85872533700007,19.31443049000006,0 72.85988691600005,19.31672942500006,0 72.85918949300003,19.31703392900005,0 72.85776978100006,19.31761247700007,0 72.85607578700007,19.31814534900008,0 72.85459150200006,19.31837371700004,0 72.85288131300007,19.31854118600006,0 72.85297089300008,19.31806896600006,0 72.85306064500008,19.31687807200007,0 72.85306064900004,19.31653626200006,0 72.85284377700003,19.31498289800004,0 72.85277648200008,19.31356644100003,0 72.85282884300005,19.31225371000005,0 72.85297842600005,19.30973013500005,0 72.85330757000008,19.30950862100008,0 72.85441008100008,19.30854421400005,0 72.85560088600005,19.30751557000008,0 72.85567018500006,19.30796152300007,0 72.85567018500006,19.30825882300007,0 72.85571428700007,19.30838963400004,0 72.85587179500004,19.30855017700003,0 72.85606710600007,19.30879396300003,0 72.85616160800004,19.30900207300004,0 72.85657743600007,19.30881180500006,0 72.85662783900005,19.30887126300007,0 72.85704996300007,19.30891883400005,0 72.85698066000003,19.30836585900005,0 72.85768643100005,19.30868988900005,0 72.85787875700004,19.30875039400007,0 72.85798771300006,19.30887140300007,0 72.85805177300006,19.30904082700005,0 72.85810941900007,19.30922842000007,0 72.85825685500004,19.30938576800003,0 72.85854523400008,19.30966459200005,0 72.85843623400007,19.30978950300005,0 72.85820266400003,19.31003197100006,0 72.85786009700007,19.31020096500004,0 72.85629769200006,19.31102248200006,0 72.85643802100003,19.31161981700006,0 72.85675335300004,19.31230189200005,0 72.85686588500005,19.31224122400005,0 72.85702441600006,19.31254242300002,0 72.85725406500006,19.31299165100006,0 72.85743582900005,19.31332001700002,0 72.85784830100005,19.31305225500006,0 72.85807292400006,19.31338202900002,0 72.85845323300003,19.31375215600008,0 
						</coordinates>
					</LinearRing>
				</outerBoundaryIs>
			</Polygon>
		</Placemark>
	</Document>
	<Document>
		<name>Ward no.3.kml</name>
		<StyleMap id="m_ylw-pushpin1">
			<Pair>
				<key>normal</key>
				<styleUrl>#s_ylw-pushpin1</styleUrl>
			</Pair>
			<Pair>
				<key>highlight</key>
				<styleUrl>#s_ylw-pushpin_hl1</styleUrl>
			</Pair>
		</StyleMap>
		<Style id="s_ylw-pushpin1">
			<IconStyle>
				<scale>1.1</scale>
				<Icon>
					<href>https://maps.google.com/mapfiles/kml/pushpin/ylw-pushpin.png</href>
				</Icon>
				<hotSpot x="20" y="2" xunits="pixels" yunits="pixels"/>
			</IconStyle>
			<LineStyle>
				<color>ffffff55</color>
				<width>3</width>
			</LineStyle>
			<PolyStyle>
				<fill>0</fill>
			</PolyStyle>
		</Style>
		<Style id="s_ylw-pushpin_hl1">
			<IconStyle>
				<scale>1.3</scale>
				<Icon>
					<href>https://maps.google.com/mapfiles/kml/pushpin/ylw-pushpin.png</href>
				</Icon>
				<hotSpot x="20" y="2" xunits="pixels" yunits="pixels"/>
			</IconStyle>
			<LineStyle>
				<color>ffffff55</color>
				<width>3</width>
			</LineStyle>
			<PolyStyle>
				<fill>0</fill>
			</PolyStyle>
		</Style>
		<Placemark>
			<name>Ward no.3.kml</name>
			<styleUrl>#m_ylw-pushpin1</styleUrl>
			<Polygon>
				<tessellate>1</tessellate>
				<outerBoundaryIs>
					<LinearRing>
						<coordinates>
							72.86394058700006,19.31206437300006,0 72.86394058700006,19.31206437300006,0 72.86517185500003,19.31417250300007,0 72.86349478000005,19.31509413900005,0 72.86201392300006,19.31581635400005,0 72.86028050200008,19.31661386600007,0 72.85988752000003,19.31673061900005,0 72.85872533700007,19.31443049000006,0 72.85892270500005,19.31438591000006,0 72.85845323300003,19.31375215600008,0 72.85807292400006,19.31338202900002,0 72.85784830100005,19.31305225500006,0 72.85743582900005,19.31332001700002,0 72.85725406500006,19.31299165100006,0 72.85702441600006,19.31254242300002,0 72.85686588500005,19.31224122400005,0 72.85675335300004,19.31230189200005,0 72.85643802100003,19.31161981700006,0 72.85629769200006,19.31102248200006,0 72.85786009700007,19.31020096500004,0 72.85820266400003,19.31003197100006,0 72.85843623400007,19.30978950300005,0 72.85854520700008,19.30966462200007,0 72.85869014200006,19.30952952900003,0 72.85883845900008,19.30941319900006,0 72.85957877000004,19.30907592800003,0 72.85997607900003,19.30907593100005,0 72.86027969500003,19.30904507200006,0 72.86056334500006,19.30893514200005,0 72.86090901300008,19.30871658600006,0 72.86110021200005,19.30859430600003,0 72.86156325400003,19.30842027300002,0 72.86176562800006,19.30889890300006,0 72.86226798100006,19.30997936400007,0 72.86248334200008,19.31011969300005,0 72.86274877900007,19.31012437900006,0 72.86290516300005,19.31016452000006,0 72.86294067400007,19.31032538900007,0 72.86303300500003,19.31060020800004,0 72.86312533600005,19.31074767400003,0 72.86394058700006,19.31206437300006,0 
						</coordinates>
					</LinearRing>
				</outerBoundaryIs>
			</Polygon>
		</Placemark>
	</Document>
	<Document>
		<name>Ward no.4.kml</name>
		<StyleMap id="m_ylw-pushpin2">
			<Pair>
				<key>normal</key>
				<styleUrl>#s_ylw-pushpin2</styleUrl>
			</Pair>
			<Pair>
				<key>highlight</key>
				<styleUrl>#s_ylw-pushpin_hl2</styleUrl>
			</Pair>
		</StyleMap>
		<Style id="s_ylw-pushpin2">
			<IconStyle>
				<scale>1.1</scale>
				<Icon>
					<href>https://maps.google.com/mapfiles/kml/pushpin/ylw-pushpin.png</href>
				</Icon>
				<hotSpot x="20" y="2" xunits="pixels" yunits="pixels"/>
			</IconStyle>
			<LineStyle>
				<color>ffffff55</color>
				<width>3</width>
			</LineStyle>
			<PolyStyle>
				<fill>0</fill>
			</PolyStyle>
		</Style>
		<Style id="s_ylw-pushpin_hl2">
			<IconStyle>
				<scale>1.3</scale>
				<Icon>
					<href>https://maps.google.com/mapfiles/kml/pushpin/ylw-pushpin.png</href>
				</Icon>
				<hotSpot x="20" y="2" xunits="pixels" yunits="pixels"/>
			</IconStyle>
			<LineStyle>
				<color>ffffff55</color>
				<width>3</width>
			</LineStyle>
			<PolyStyle>
				<fill>0</fill>
			</PolyStyle>
		</Style>
		<Placemark>
			<name>Ward no.4.kml</name>
			<styleUrl>#m_ylw-pushpin2</styleUrl>
			<Polygon>
				<tessellate>1</tessellate>
				<outerBoundaryIs>
					<LinearRing>
						<coordinates>
							72.86148023100003,19.30558950300008,0 72.86148042225044,19.30559001825657,0 72.86158695300003,19.30587981300005,0 72.86173134400008,19.30619974800004,0 72.86193851100006,19.30645120100007,0 72.86272952900003,19.30706735900003,0 72.86328833700003,19.30768461700006,0 72.86317533500005,19.30773201800002,0 72.86291795200003,19.30794531800007,0 72.86244712000007,19.30815862500003,0 72.86170014400005,19.30836882300002,0 72.86156325400003,19.30842027300002,0 72.86110021200005,19.30859430600003,0 72.86090901300008,19.30871658600006,0 72.86056334500006,19.30893514200005,0 72.86027969500003,19.30904507200006,0 72.85997607900003,19.30907593100005,0 72.85957877000004,19.30907592800003,0 72.85883845900008,19.30941319900006,0 72.85869014200006,19.30952952900003,0 72.85854523400008,19.30966459200005,0 72.85825685500004,19.30938576800003,0 72.85810941900007,19.30922842000007,0 72.85805177300006,19.30904082700005,0 72.85798771300006,19.30887140300007,0 72.85787875700004,19.30875039400007,0 72.85768643100005,19.30868988900005,0 72.85698066000003,19.30836585900005,0 72.85704996300007,19.30891883400005,0 72.85662783900005,19.30887126300007,0 72.85657743600007,19.30881180500006,0 72.85616160800004,19.30900207300004,0 72.85606710600007,19.30879396300003,0 72.85587179500004,19.30855017700003,0 72.85571428700007,19.30838963400004,0 72.85567018500006,19.30825882300007,0 72.85567018500006,19.30796152300007,0 72.85559953200004,19.30751674100003,0 72.85555063600003,19.30740714700005,0 72.85551701600008,19.30721710900008,0 72.85549012200005,19.30699818000005,0 72.85545852200005,19.30686160300007,0 72.85546107300007,19.30662556400006,0 72.85550245500008,19.30636582400007,0 72.85549479800005,19.30612255800003,0 72.85556370600005,19.30613460100005,0 72.85558336700007,19.30583302600007,0 72.85590077700004,19.30585001100008,0 72.85591098500004,19.30531289700002,0 72.85589929900004,19.30504493300003,0 72.85590695700006,19.30487151600005,0 72.85597901700004,19.30466245200006,0 72.85599432800007,19.30455165800004,0 72.85597646600007,19.30429634600006,0 72.85610406800004,19.30426744500005,0 72.85604702900008,19.30394934800006,0 72.85631499400006,19.30392044600006,0 72.85683306100003,19.30401678900006,0 72.85693514000008,19.30408423000006,0 72.85732050200005,19.30393008100003,0 72.85765591200004,19.30384558700007,0 72.85782434600003,19.30376128700004,0 72.85804382200007,19.30369143500008,0 72.85834226300005,19.30400649000006,0 72.85850338200004,19.30387614600005,0 72.85876425000004,19.30413682100004,0 72.85936807500008,19.30449363200006,0 72.85972590000006,19.30473062000004,0 72.86035816200007,19.30487874000005,0 72.86091060100006,19.30522830000007,0 72.86095224500008,19.30525470700007,0 72.86148023100003,19.30558950300008,0 
						</coordinates>
					</LinearRing>
				</outerBoundaryIs>
			</Polygon>
		</Placemark>
	</Document>
	<Document>
		<name>Ward no.5.kml</name>
		<StyleMap id="m_ylw-pushpin3">
			<Pair>
				<key>normal</key>
				<styleUrl>#s_ylw-pushpin3</styleUrl>
			</Pair>
			<Pair>
				<key>highlight</key>
				<styleUrl>#s_ylw-pushpin_hl3</styleUrl>
			</Pair>
		</StyleMap>
		<Style id="s_ylw-pushpin3">
			<IconStyle>
				<scale>1.1</scale>
				<Icon>
					<href>https://maps.google.com/mapfiles/kml/pushpin/ylw-pushpin.png</href>
				</Icon>
				<hotSpot x="20" y="2" xunits="pixels" yunits="pixels"/>
			</IconStyle>
			<LineStyle>
				<color>ffffff55</color>
				<width>3</width>
			</LineStyle>
			<PolyStyle>
				<fill>0</fill>
			</PolyStyle>
		</Style>
		<Style id="s_ylw-pushpin_hl3">
			<IconStyle>
				<scale>1.3</scale>
				<Icon>
					<href>https://maps.google.com/mapfiles/kml/pushpin/ylw-pushpin.png</href>
				</Icon>
				<hotSpot x="20" y="2" xunits="pixels" yunits="pixels"/>
			</IconStyle>
			<LineStyle>
				<color>ffffff55</color>
				<width>3</width>
			</LineStyle>
			<PolyStyle>
				<fill>0</fill>
			</PolyStyle>
		</Style>
		<Placemark>
			<name>Ward no.5.kml</name>
			<styleUrl>#m_ylw-pushpin3</styleUrl>
			<Polygon>
				<tessellate>1</tessellate>
				<outerBoundaryIs>
					<LinearRing>
						<coordinates>
							72.85739866900008,19.30141236200006,0 72.85739866900008,19.30141236200006,0 72.85745528500007,19.30150127800005,0 72.85752808300003,19.30169304100008,0 72.85764535700008,19.30209355000005,0 72.85776982700008,19.30249338300007,0 72.85784718100007,19.30264563200006,0 72.85791397800006,19.30283749700004,0 72.85809127700003,19.30330762000006,0 72.85825591100007,19.30364228200006,0 72.85850338200004,19.30387614600005,0 72.85834226300005,19.30400649000006,0 72.85804382200007,19.30369143500008,0 72.85782434600003,19.30376128700004,0 72.85765591200004,19.30384558700007,0 72.85732050200005,19.30393008100003,0 72.85693514000008,19.30408423000006,0 72.85683306100003,19.30401678900006,0 72.85631499400006,19.30392044600006,0 72.85604702900008,19.30394934800006,0 72.85610406800004,19.30426744500005,0 72.85597646600007,19.30429634600006,0 72.85599432800007,19.30455165800004,0 72.85597901700004,19.30466245200006,0 72.85590695700006,19.30487151600005,0 72.85589929900004,19.30504493300003,0 72.85591098500004,19.30531289700002,0 72.85590077700004,19.30585001100008,0 72.85558336700007,19.30583302600007,0 72.85556370600005,19.30613460100005,0 72.85549479800005,19.30612255800003,0 72.85550245500008,19.30636582400007,0 72.85546107300007,19.30662556400006,0 72.85545852200005,19.30686160300007,0 72.85549012200005,19.30699818000005,0 72.85551701600008,19.30721710900008,0 72.85555063600003,19.30740714700005,0 72.85559953200004,19.30751674100003,0 72.85441008100008,19.30854421400005,0 72.85330757000008,19.30950862100008,0 72.85298422900007,19.30972623000002,0 72.85305188800004,19.30845319400004,0 72.85313283900007,19.30782000000005,0 72.85320011100004,19.30724275300003,0 72.85334863400004,19.30570948500002,0 72.85341725600006,19.30502194100006,0 72.85351360200008,19.30393534700005,0 72.85364567100004,19.30253301000005,0 72.85375242600003,19.30140255700007,0 72.85385602900004,19.30029354900006,0 72.85398080000004,19.29903980400007,0 72.85477560000004,19.29909175400007,0 72.85497622700007,19.29929628400004,0 72.85549986300003,19.29981652300006,0 72.85644383700003,19.30061063200003,0 72.85699865000004,19.30107871000007,0 72.85739866900008,19.30141236200006,0 
						</coordinates>
					</LinearRing>
				</outerBoundaryIs>
			</Polygon>
		</Placemark>
	</Document>
	<Document>
		<name>Ward no.6.kml</name>
		<StyleMap id="m_ylw-pushpin4">
			<Pair>
				<key>normal</key>
				<styleUrl>#s_ylw-pushpin4</styleUrl>
			</Pair>
			<Pair>
				<key>highlight</key>
				<styleUrl>#s_ylw-pushpin_hl4</styleUrl>
			</Pair>
		</StyleMap>
		<Style id="s_ylw-pushpin4">
			<IconStyle>
				<scale>1.1</scale>
				<Icon>
					<href>https://maps.google.com/mapfiles/kml/pushpin/ylw-pushpin.png</href>
				</Icon>
				<hotSpot x="20" y="2" xunits="pixels" yunits="pixels"/>
			</IconStyle>
			<LineStyle>
				<color>ffffff55</color>
				<width>3</width>
			</LineStyle>
			<PolyStyle>
				<fill>0</fill>
			</PolyStyle>
		</Style>
		<Style id="s_ylw-pushpin_hl4">
			<IconStyle>
				<scale>1.3</scale>
				<Icon>
					<href>https://maps.google.com/mapfiles/kml/pushpin/ylw-pushpin.png</href>
				</Icon>
				<hotSpot x="20" y="2" xunits="pixels" yunits="pixels"/>
			</IconStyle>
			<LineStyle>
				<color>ffffff55</color>
				<width>3</width>
			</LineStyle>
			<PolyStyle>
				<fill>0</fill>
			</PolyStyle>
		</Style>
		<Placemark>
			<name>Ward no.6.kml</name>
			<styleUrl>#m_ylw-pushpin4</styleUrl>
			<Polygon>
				<tessellate>1</tessellate>
				<outerBoundaryIs>
					<LinearRing>
						<coordinates>
							72.85351360200008,19.30393534700005,0 72.85351360200008,19.30393534700005,0 72.85341725600006,19.30502194100006,0 72.85334863400004,19.30570948500002,0 72.85320011100004,19.30724275300003,0 72.85313860200006,19.30777054200007,0 72.85311915200003,19.30776781300005,0 72.85232108100007,19.30791559600004,0 72.85195056000003,19.30809433200005,0 72.85146476600005,19.30828860900004,0 72.85115188300006,19.30839740100004,0 72.85081429700006,19.30856059200005,0 72.85022659900005,19.30877817800007,0 72.84983137200004,19.30880926400005,0 72.84979385304925,19.30826509577452,0 72.84979818084091,19.30802763969553,0 72.84981342600008,19.30725378500006,0 72.84982434100004,19.30579887800008,0 72.84985161100008,19.30457596100007,0 72.84985161700007,19.30370328400005,0 72.84986803341945,19.30308410788713,0 72.85002061900008,19.30285278200006,0 72.85013510200008,19.30262640200004,0 72.85022044700008,19.30236173200007,0 72.85028586400006,19.30231542800004,0 72.85034583400005,19.30204788700007,0 72.85036218900007,19.30186090000007,0 72.85040035000003,19.30171684300007,0 72.85041670500004,19.30147502500006,0 72.85066202000007,19.30144930200004,0 72.85086372200004,19.30138756300005,0 72.85111994000005,19.30136184000003,0 72.85125077400005,19.30138756600007,0 72.85142521900008,19.30143387000004,0 72.85181771800006,19.30136184000003,0 72.85205238200007,19.30133553000007,0 72.85215595900007,19.30132009500005,0 72.85231424970847,19.3012534071929,0 72.85231626161756,19.30125313073546,0 72.85239037000008,19.30125321000003,0 72.85242852900006,19.30113487600005,0 72.85239037000008,19.30069755000005,0 72.85237281100007,19.30025583900004,0 72.85236190800003,19.29971561400004,0 72.85234517015719,19.29905906852192,0 72.85285252500006,19.29899061900005,0 72.85398080000004,19.29903980400007,0 72.85385602900004,19.30029354900006,0 72.85375242600003,19.30140255700007,0 72.85364567100004,19.30253301000005,0 72.85351360200008,19.30393534700005,0 
						</coordinates>
					</LinearRing>
				</outerBoundaryIs>
			</Polygon>
		</Placemark>
	</Document>
	<Document>
		<name>Ward no.7.kml</name>
		<StyleMap id="m_ylw-pushpin5">
			<Pair>
				<key>normal</key>
				<styleUrl>#s_ylw-pushpin5</styleUrl>
			</Pair>
			<Pair>
				<key>highlight</key>
				<styleUrl>#s_ylw-pushpin_hl5</styleUrl>
			</Pair>
		</StyleMap>
		<Style id="s_ylw-pushpin5">
			<IconStyle>
				<scale>1.1</scale>
				<Icon>
					<href>https://maps.google.com/mapfiles/kml/pushpin/ylw-pushpin.png</href>
				</Icon>
				<hotSpot x="20" y="2" xunits="pixels" yunits="pixels"/>
			</IconStyle>
			<LineStyle>
				<color>ffffff55</color>
				<width>3</width>
			</LineStyle>
			<PolyStyle>
				<fill>0</fill>
			</PolyStyle>
		</Style>
		<Style id="s_ylw-pushpin_hl5">
			<IconStyle>
				<scale>1.3</scale>
				<Icon>
					<href>https://maps.google.com/mapfiles/kml/pushpin/ylw-pushpin.png</href>
				</Icon>
				<hotSpot x="20" y="2" xunits="pixels" yunits="pixels"/>
			</IconStyle>
			<LineStyle>
				<color>ffffff55</color>
				<width>3</width>
			</LineStyle>
			<PolyStyle>
				<fill>0</fill>
			</PolyStyle>
		</Style>
		<Placemark>
			<name>Ward no.7.kml</name>
			<styleUrl>#m_ylw-pushpin5</styleUrl>
			<Polygon>
				<tessellate>1</tessellate>
				<outerBoundaryIs>
					<LinearRing>
						<coordinates>
							72.85239037000008,19.30125321000003,0 72.85239037000008,19.30125321000003,0 72.85231405000007,19.30125321000003,0 72.85215595900007,19.30132009500005,0 72.85205238200007,19.30133553000007,0 72.85181771800006,19.30136184000003,0 72.85142521900008,19.30143387000004,0 72.85125077400005,19.30138756600007,0 72.85111994000005,19.30136184000003,0 72.85086372200004,19.30138756300005,0 72.85066202000007,19.30144930200004,0 72.85041670500004,19.30147502500006,0 72.85040035000003,19.30171684300007,0 72.85036218900007,19.30186090000007,0 72.85034583400005,19.30204788700007,0 72.85028586400006,19.30231542800004,0 72.85022044700008,19.30236173200007,0 72.85013510200008,19.30262640200004,0 72.85002061900008,19.30285278200006,0 72.84986787699064,19.30308452180677,0 72.84986786948542,19.30308757000684,0 72.84985161700007,19.30370328400005,0 72.84985161100008,19.30457596100007,0 72.84982434100004,19.30579887800008,0 72.84981290091663,19.3072546692775,0 72.84979376900003,19.30826511300006,0 72.84677076000008,19.30869102000003,0 72.84670264800008,19.30831330100006,0 72.84664806200004,19.30790392000006,0 72.84670570100008,19.30758531900005,0 72.84667276900007,19.30731334600006,0 72.84649986200003,19.30703359800003,0 72.84629401700005,19.30688595200007,0 72.84663984100007,19.30674608300006,0 72.84713386700008,19.30659067000005,0 72.84731944100008,19.30655953700006,0 72.84771118200007,19.30636088800003,0 72.84794505400004,19.30620638200003,0 72.84804445000003,19.30600221300006,0 72.84803275700006,19.30584771000002,0 72.84796844300007,19.30559939800003,0 72.84775211100003,19.30516899300005,0 72.84758472600004,19.30502312100003,0 72.84743814200004,19.30494242000003,0 72.84722311700006,19.30507809300008,0 72.84708557600004,19.30501319000007,0 72.84693428300005,19.30490285300004,0 72.84668671000003,19.30459131200007,0 72.84648727700005,19.30413049400005,0 72.84676736200004,19.30382475700003,0 72.84759189800008,19.30281601600007,0 72.84804996500003,19.30226841400003,0 72.84837977000007,19.30199749800005,0 72.84821652600004,19.30164303800007,0 72.84803329800008,19.30138364800007,0 72.84782564200003,19.30126836800002,0 72.84756912700004,19.30121072800006,0 72.84728207400008,19.30108391600004,0 72.84699559400008,19.30095410600006,0 72.84659968300008,19.30082552000005,0 72.84666100500004,19.30073871500002,0 72.84721510700007,19.30014757700008,0 72.84765150800007,19.29999615500003,0 72.84859104500003,19.29979154000006,0 72.84958980200008,19.29952583300008,0 72.85016161200008,19.29935704600007,0 72.85058650600007,19.29932897800006,0 72.85108900500006,19.29926168500003,0 72.85185913900006,19.29914416900004,0 72.85234483513442,19.29905864341918,0 72.85234616656463,19.29910288713867,0 72.85236190800003,19.29971561400004,0 72.85237281100007,19.30025583900004,0 72.85239037000008,19.30069755000005,0 72.85242852900006,19.30113487600005,0 72.85239037000008,19.30125321000003,0 
						</coordinates>
					</LinearRing>
				</outerBoundaryIs>
			</Polygon>
		</Placemark>
	</Document>
	<Document>
		<name>Ward no.8.kml</name>
		<StyleMap id="m_ylw-pushpin6">
			<Pair>
				<key>normal</key>
				<styleUrl>#s_ylw-pushpin6</styleUrl>
			</Pair>
			<Pair>
				<key>highlight</key>
				<styleUrl>#s_ylw-pushpin_hl6</styleUrl>
			</Pair>
		</StyleMap>
		<Style id="s_ylw-pushpin6">
			<IconStyle>
				<scale>1.1</scale>
				<Icon>
					<href>https://maps.google.com/mapfiles/kml/pushpin/ylw-pushpin.png</href>
				</Icon>
				<hotSpot x="20" y="2" xunits="pixels" yunits="pixels"/>
			</IconStyle>
			<LineStyle>
				<color>ffffff55</color>
				<width>3</width>
			</LineStyle>
			<PolyStyle>
				<fill>0</fill>
			</PolyStyle>
		</Style>
		<Style id="s_ylw-pushpin_hl6">
			<IconStyle>
				<scale>1.3</scale>
				<Icon>
					<href>https://maps.google.com/mapfiles/kml/pushpin/ylw-pushpin.png</href>
				</Icon>
				<hotSpot x="20" y="2" xunits="pixels" yunits="pixels"/>
			</IconStyle>
			<LineStyle>
				<color>ffffff55</color>
				<width>3</width>
			</LineStyle>
			<PolyStyle>
				<fill>0</fill>
			</PolyStyle>
		</Style>
		<Placemark>
			<name>Ward no.8.kml</name>
			<styleUrl>#m_ylw-pushpin6</styleUrl>
			<Polygon>
				<tessellate>1</tessellate>
				<outerBoundaryIs>
					<LinearRing>
						<coordinates>
							72.85405287400005,19.29849505500005,0 72.85405287400005,19.29849505500005,0 72.85398080000004,19.29903980400007,0 72.85285252500006,19.29899061900005,0 72.85236579243225,19.29905612726274,0 72.85233464948577,19.29906034634252,0 72.85185913900006,19.29914416900004,0 72.85108900500006,19.29926168500003,0 72.85058650600007,19.29932897800006,0 72.85016161200008,19.29935704600007,0 72.84958980200008,19.29952583300008,0 72.84859104500003,19.29979154000006,0 72.84765150800007,19.29999615500003,0 72.84721510700007,19.30014757700008,0 72.84666100500004,19.30073871500002,0 72.84659968300008,19.30082552000005,0 72.84548704000008,19.30046415000004,0 72.84437015900005,19.30009517600007,0 72.84362327200006,19.29980147500004,0 72.84182642500008,19.29914552300005,0 72.84146335400004,19.29903783500004,0 72.84118720400005,19.29902994000003,0 72.84111694100005,19.29817810300005,0 72.84117351200007,19.29715164200007,0 72.84135719000005,19.29627182800004,0 72.84166798800004,19.29519206500004,0 72.84200701200007,19.29436558500004,0 72.84227538200008,19.29423229500003,0 72.84308046700005,19.29433898600007,0 72.84459173800008,19.29451235600004,0 72.84539679600005,19.29455237600007,0 72.84569339600006,19.29448573500002,0 72.84641370600008,19.29440577400004,0 72.84854636100005,19.29456577800005,0 72.85132871200005,19.29483238600005,0 72.85433220800007,19.29513612100004,0 72.85446773500007,19.29516236300003,0 72.85426529000006,19.29674677500003,0 72.85405287400005,19.29849505500005,0 
						</coordinates>
					</LinearRing>
				</outerBoundaryIs>
			</Polygon>
		</Placemark>
	</Document>
	<Document>
		<name>Ward no.9.kml</name>
		<StyleMap id="m_ylw-pushpin7">
			<Pair>
				<key>normal</key>
				<styleUrl>#s_ylw-pushpin7</styleUrl>
			</Pair>
			<Pair>
				<key>highlight</key>
				<styleUrl>#s_ylw-pushpin_hl7</styleUrl>
			</Pair>
		</StyleMap>
		<Style id="s_ylw-pushpin7">
			<IconStyle>
				<scale>1.1</scale>
				<Icon>
					<href>https://maps.google.com/mapfiles/kml/pushpin/ylw-pushpin.png</href>
				</Icon>
				<hotSpot x="20" y="2" xunits="pixels" yunits="pixels"/>
			</IconStyle>
			<LineStyle>
				<color>ffffff55</color>
				<width>3</width>
			</LineStyle>
			<PolyStyle>
				<fill>0</fill>
			</PolyStyle>
		</Style>
		<Style id="s_ylw-pushpin_hl7">
			<IconStyle>
				<scale>1.3</scale>
				<Icon>
					<href>https://maps.google.com/mapfiles/kml/pushpin/ylw-pushpin.png</href>
				</Icon>
				<hotSpot x="20" y="2" xunits="pixels" yunits="pixels"/>
			</IconStyle>
			<LineStyle>
				<color>ffffff55</color>
				<width>3</width>
			</LineStyle>
			<PolyStyle>
				<fill>0</fill>
			</PolyStyle>
		</Style>
		<Placemark>
			<name>Ward no.9.kml</name>
			<styleUrl>#m_ylw-pushpin7</styleUrl>
			<Polygon>
				<tessellate>1</tessellate>
				<outerBoundaryIs>
					<LinearRing>
						<coordinates>
							72.86246718000007,19.29155722300004,0 72.86246718000007,19.29155722300004,0 72.86043773300008,19.29360080200007,0 72.85732910000007,19.29662676900006,0 72.85475868800006,19.29909064800006,0 72.85398080000004,19.29903980400007,0 72.85405287400005,19.29849505500005,0 72.85426529000006,19.29674677500003,0 72.85463912300008,19.29382101700003,0 72.85552678100004,19.29390744500006,0 72.85555151700004,19.29376739300005,0 72.85574936900008,19.29374988900003,0 72.85569991700004,19.29344644300005,0 72.85626872700004,19.29353398300003,0 72.85652754700004,19.29272807900003,0 72.85707186800005,19.29103234300004,0 72.85755469700007,19.28938338500006,0 72.85782191800007,19.28799316400006,0 72.85809397500003,19.28704198800006,0 72.85816198600008,19.28684942000007,0 72.85862568900006,19.28592743000007,0 72.86004157900004,19.28705630000007,0 72.86042489000005,19.28730722600005,0 72.86070928000004,19.28740643300006,0 72.86101222000008,19.28755231900004,0 72.86121005800004,19.28768069900008,0 72.86147091600003,19.28790113800005,0 72.86234883900005,19.28824544500003,0 72.86245394300005,19.28844385300005,0 72.86248485200008,19.28863642200002,0 72.86248484900005,19.28894570100005,0 72.86250957900006,19.28921509500003,0 72.86274450600007,19.28999121100003,0 72.86285578700006,19.29039385700003,0 72.86295470800007,19.29053390700005,0 72.86330711300008,19.29073814800006,0 72.86246718000007,19.29155722300004,0 
						</coordinates>
					</LinearRing>
				</outerBoundaryIs>
			</Polygon>
		</Placemark>
	</Document>
	<Document>
		<name>Ward no.10.kml</name>
		<StyleMap id="m_ylw-pushpin8">
			<Pair>
				<key>normal</key>
				<styleUrl>#s_ylw-pushpin8</styleUrl>
			</Pair>
			<Pair>
				<key>highlight</key>
				<styleUrl>#s_ylw-pushpin_hl8</styleUrl>
			</Pair>
		</StyleMap>
		<Style id="s_ylw-pushpin8">
			<IconStyle>
				<scale>1.1</scale>
				<Icon>
					<href>https://maps.google.com/mapfiles/kml/pushpin/ylw-pushpin.png</href>
				</Icon>
				<hotSpot x="20" y="2" xunits="pixels" yunits="pixels"/>
			</IconStyle>
			<LineStyle>
				<color>ffffff55</color>
				<width>3</width>
			</LineStyle>
			<PolyStyle>
				<fill>0</fill>
			</PolyStyle>
		</Style>
		<Style id="s_ylw-pushpin_hl8">
			<IconStyle>
				<scale>1.3</scale>
				<Icon>
					<href>https://maps.google.com/mapfiles/kml/pushpin/ylw-pushpin.png</href>
				</Icon>
				<hotSpot x="20" y="2" xunits="pixels" yunits="pixels"/>
			</IconStyle>
			<LineStyle>
				<color>ffffff55</color>
				<width>3</width>
			</LineStyle>
			<PolyStyle>
				<fill>0</fill>
			</PolyStyle>
		</Style>
		<Placemark>
			<name>Ward no.10.kml</name>
			<styleUrl>#m_ylw-pushpin8</styleUrl>
			<Polygon>
				<tessellate>1</tessellate>
				<outerBoundaryIs>
					<LinearRing>
						<coordinates>
							72.86874398400005,19.30111235800007,0 72.86874398400005,19.30111235800007,0 72.86559174800004,19.30366444400005,0 72.86527396400004,19.30333100200005,0 72.86344674900005,19.30406768900008,0 72.86271940300003,19.30425186000002,0 72.86205266300004,19.30459119200003,0 72.86095224500008,19.30525470700007,0 72.86091060100006,19.30522830000007,0 72.86035816200007,19.30487874000005,0 72.85972590000006,19.30473062000004,0 72.85936807500008,19.30449363200006,0 72.85876425000004,19.30413682100004,0 72.85850338200004,19.30387614600005,0 72.85825591100007,19.30364228200006,0 72.85809127700003,19.30330762000006,0 72.85791397800006,19.30283749700004,0 72.85784718100007,19.30264563200006,0 72.85776982700008,19.30249338300007,0 72.85764535700008,19.30209355000005,0 72.85752808300003,19.30169304100008,0 72.85745528500007,19.30150127800005,0 72.85739866900008,19.30141236200006,0 72.85699865000004,19.30107871000007,0 72.85644383700003,19.30061063200003,0 72.85549986300003,19.29981652300006,0 72.85497622700007,19.29929628400004,0 72.85476684500003,19.29908282900004,0 72.85732910000007,19.29662676900006,0 72.85866455600006,19.29532682700005,0 72.86184337200007,19.29920678800005,0 72.86330482500006,19.29816684000002,0 72.86421096900006,19.29728539600006,0 72.86490564100006,19.29669737400008,0 72.86874398400005,19.30111235800007,0 
						</coordinates>
					</LinearRing>
				</outerBoundaryIs>
			</Polygon>
		</Placemark>
	</Document>
	<Document>
		<name>Ward no.11.kml</name>
		<StyleMap id="m_ylw-pushpin9">
			<Pair>
				<key>normal</key>
				<styleUrl>#s_ylw-pushpin9</styleUrl>
			</Pair>
			<Pair>
				<key>highlight</key>
				<styleUrl>#s_ylw-pushpin_hl9</styleUrl>
			</Pair>
		</StyleMap>
		<Style id="s_ylw-pushpin9">
			<IconStyle>
				<scale>1.1</scale>
				<Icon>
					<href>https://maps.google.com/mapfiles/kml/pushpin/ylw-pushpin.png</href>
				</Icon>
				<hotSpot x="20" y="2" xunits="pixels" yunits="pixels"/>
			</IconStyle>
			<LineStyle>
				<color>ffffff55</color>
				<width>3</width>
			</LineStyle>
			<PolyStyle>
				<fill>0</fill>
			</PolyStyle>
		</Style>
		<Style id="s_ylw-pushpin_hl9">
			<IconStyle>
				<scale>1.3</scale>
				<Icon>
					<href>https://maps.google.com/mapfiles/kml/pushpin/ylw-pushpin.png</href>
				</Icon>
				<hotSpot x="20" y="2" xunits="pixels" yunits="pixels"/>
			</IconStyle>
			<LineStyle>
				<color>ffffff55</color>
				<width>3</width>
			</LineStyle>
			<PolyStyle>
				<fill>0</fill>
			</PolyStyle>
		</Style>
		<Placemark>
			<name>Ward no.11.kml</name>
			<styleUrl>#m_ylw-pushpin9</styleUrl>
			<Polygon>
				<tessellate>1</tessellate>
				<outerBoundaryIs>
					<LinearRing>
						<coordinates>
							72.86559174800004,19.30366444400005,0 72.86559174800004,19.30366444400005,0 72.86870272900006,19.30114575800008,0 72.87163017900008,19.30420176100006,0 72.87484637800003,19.30793495000006,0 72.87266636300006,19.30950264800003,0 72.86881406700007,19.31200411500004,0 72.86717236300007,19.31308338500003,0 72.86516676900004,19.31416379900003,0 72.86394058700006,19.31206437300006,0 72.86312533600005,19.31074767400003,0 72.86303300500003,19.31060020800004,0 72.86294067400007,19.31032538900007,0 72.86290516300005,19.31016452000006,0 72.86274877900007,19.31012437900006,0 72.86248334200008,19.31011969300005,0 72.86226798100006,19.30997936400007,0 72.86176562800006,19.30889890300006,0 72.86156325400003,19.30842027300002,0 72.86170014400005,19.30836882300002,0 72.86244712000007,19.30815862500003,0 72.86291795200003,19.30794531800007,0 72.86317533500005,19.30773201800002,0 72.86328833700003,19.30768461700006,0 72.86272952900003,19.30706735900003,0 72.86193851100006,19.30645120100007,0 72.86173134400008,19.30619974800004,0 72.86158695300003,19.30587981300005,0 72.86148023100003,19.30558950300008,0 72.86095224500008,19.30525470700007,0 72.86205266300004,19.30459119200003,0 72.86271940300003,19.30425186000002,0 72.86344674900005,19.30406768900008,0 72.86527396400004,19.30333100200005,0 72.86559174800004,19.30366444400005,0 
						</coordinates>
					</LinearRing>
				</outerBoundaryIs>
			</Polygon>
		</Placemark>
	</Document>
	<Document>
		<name>Ward no.12.kml</name>
		<StyleMap id="m_ylw-pushpin10">
			<Pair>
				<key>normal</key>
				<styleUrl>#s_ylw-pushpin10</styleUrl>
			</Pair>
			<Pair>
				<key>highlight</key>
				<styleUrl>#s_ylw-pushpin_hl10</styleUrl>
			</Pair>
		</StyleMap>
		<Style id="s_ylw-pushpin10">
			<IconStyle>
				<scale>1.1</scale>
				<Icon>
					<href>https://maps.google.com/mapfiles/kml/pushpin/ylw-pushpin.png</href>
				</Icon>
				<hotSpot x="20" y="2" xunits="pixels" yunits="pixels"/>
			</IconStyle>
			<LineStyle>
				<color>ffffff55</color>
				<width>3</width>
			</LineStyle>
			<PolyStyle>
				<fill>0</fill>
			</PolyStyle>
		</Style>
		<Style id="s_ylw-pushpin_hl10">
			<IconStyle>
				<scale>1.3</scale>
				<Icon>
					<href>https://maps.google.com/mapfiles/kml/pushpin/ylw-pushpin.png</href>
				</Icon>
				<hotSpot x="20" y="2" xunits="pixels" yunits="pixels"/>
			</IconStyle>
			<LineStyle>
				<color>ffffff55</color>
				<width>3</width>
			</LineStyle>
			<PolyStyle>
				<fill>0</fill>
			</PolyStyle>
		</Style>
		<Placemark>
			<name>Ward no.12.kml</name>
			<styleUrl>#m_ylw-pushpin10</styleUrl>
			<Polygon>
				<tessellate>1</tessellate>
				<outerBoundaryIs>
					<LinearRing>
						<coordinates>
							72.86907118300007,19.29541121400007,0 72.86907118300007,19.29541121400007,0 72.86969977300004,19.29607569400002,0 72.87061088000007,19.29720252300007,0 72.87197529000008,19.29868284800006,0 72.87388725300008,19.30066840900002,0 72.87496807400004,19.30175403200008,0 72.87672768500005,19.30322899300006,0 72.87853474000008,19.30541333300005,0 72.87546527300003,19.30743040600004,0 72.87483624600003,19.30792319000005,0 72.87163017900008,19.30420176100006,0 72.86870272900006,19.30114575800008,0 72.86874398400005,19.30111235800007,0 72.86490564100006,19.29669737400008,0 72.86421096900006,19.29728539600006,0 72.86330482500006,19.29816684000002,0 72.86184337200007,19.29920678800005,0 72.85866455600006,19.29532682700005,0 72.86043773300008,19.29360080200007,0 72.86246718000007,19.29155722300004,0 72.86330711300008,19.29073814800006,0 72.86401876000008,19.28998163200004,0 72.86434677300008,19.29014236700004,0 72.86454909000008,19.29022128400004,0 72.86471446600007,19.29043979400006,0 72.86483843000008,19.29068743100004,0 72.86496373800003,19.29094472100007,0 72.86550889500006,19.29151039600004,0 72.86600939000004,19.29208366600005,0 72.86627818900007,19.29231423900006,0 72.86688166300007,19.29280118500003,0 72.86774500500007,19.29388765800007,0 72.86907118300007,19.29541121400007,0 
						</coordinates>
					</LinearRing>
				</outerBoundaryIs>
			</Polygon>
		</Placemark>
	</Document>
	<Document>
		<name>Ward no.13.kml</name>
		<StyleMap id="m_ylw-pushpin11">
			<Pair>
				<key>normal</key>
				<styleUrl>#s_ylw-pushpin11</styleUrl>
			</Pair>
			<Pair>
				<key>highlight</key>
				<styleUrl>#s_ylw-pushpin_hl11</styleUrl>
			</Pair>
		</StyleMap>
		<Style id="s_ylw-pushpin11">
			<IconStyle>
				<scale>1.1</scale>
				<Icon>
					<href>https://maps.google.com/mapfiles/kml/pushpin/ylw-pushpin.png</href>
				</Icon>
				<hotSpot x="20" y="2" xunits="pixels" yunits="pixels"/>
			</IconStyle>
			<LineStyle>
				<color>ffffff55</color>
				<width>3</width>
			</LineStyle>
			<PolyStyle>
				<fill>0</fill>
			</PolyStyle>
		</Style>
		<Style id="s_ylw-pushpin_hl11">
			<IconStyle>
				<scale>1.3</scale>
				<Icon>
					<href>https://maps.google.com/mapfiles/kml/pushpin/ylw-pushpin.png</href>
				</Icon>
				<hotSpot x="20" y="2" xunits="pixels" yunits="pixels"/>
			</IconStyle>
			<LineStyle>
				<color>ffffff55</color>
				<width>3</width>
			</LineStyle>
			<PolyStyle>
				<fill>0</fill>
			</PolyStyle>
		</Style>
		<Placemark>
			<name>Ward no.13.kml</name>
			<styleUrl>#m_ylw-pushpin11</styleUrl>
			<Polygon>
				<tessellate>1</tessellate>
				<outerBoundaryIs>
					<LinearRing>
						<coordinates>
							72.87787052700008,19.28648419900003,0 72.87787052700008,19.28648419900003,0 72.88061683000006,19.28408566200005,0 72.88217926900006,19.28291200800004,0 72.88452762000003,19.28106221300004,0 72.88363747500006,19.28021820200007,0 72.88272487100005,19.27922002500003,0 72.88209612000003,19.27900557900006,0 72.88174720000006,19.27911199200003,0 72.88041612000006,19.27751095300005,0 72.88166128900008,19.27643650000005,0 72.88178475300003,19.27621355000002,0 72.88185452900007,19.27593756100003,0 72.88203700300005,19.27407690100006,0 72.88241809900006,19.27312833100007,0 72.88252248600008,19.27285275100007,0 72.88255469000006,19.27258420000004,0 72.88269424200007,19.27212816800005,0 72.88413821300003,19.27320740000005,0 72.88702276700008,19.27502944700007,0 72.88924607400008,19.27644491400002,0 72.88968772800007,19.27684606000003,0 72.89028520300008,19.27749731900008,0 72.89067687200003,19.27805577900006,0 72.89096567400003,19.27885191400003,0 72.89121719000008,19.27987278800003,0 72.89138388300006,19.28076161500007,0 72.89162558100003,19.28187068600005,0 72.89171726200004,19.28227970800003,0 72.89208112900008,19.28408650200004,0 72.89222283600003,19.28503878200007,0 72.89217285700005,19.28558938900005,0 72.89213953300003,19.28598268000007,0 72.89213954600007,19.28628944700006,0 72.89222288900004,19.28653328600006,0 72.89239789900006,19.28672206000005,0 72.89254791000008,19.28684791000006,0 72.89278863400006,19.28694717200005,0 72.89308125800005,19.28695014700003,0 72.89349706600007,19.28692278600005,0 72.89398040900005,19.28682837600007,0 72.89435540900007,19.28669464000006,0 72.89479707000004,19.28643504800004,0 72.89528038600008,19.28611252700006,0 72.89568872300003,19.28597878800002,0 72.89612206000004,19.28593943600004,0 72.89678874400005,19.28595513100004,0 72.89740542900006,19.28596296000006,0 72.89809306300003,19.28582909900007,0 72.89920138800005,19.28546719200006,0 72.90048469700008,19.28507380500002,0 72.90202841300004,19.28460371300002,0 72.90246174300006,19.28454861400007,0 72.90302841500005,19.28460362200008,0 72.90359510700006,19.28481594500005,0 72.90422634600003,19.28516316000002,0 72.90457639300007,19.28561147400006,0 72.90477645000004,19.28604407200004,0 72.90498493800004,19.28731831400006,0 72.90343491100003,19.28747578800005,0 72.90265655000007,19.28758999200005,0 72.90189825200008,19.28812493500004,0 72.90083157600003,19.28836100300003,0 72.89883149700006,19.28873087200003,0 72.89753958400007,19.28926202800005,0 72.89614609200004,19.28992773000004,0 72.89581276100006,19.29023451300003,0 72.89527943200005,19.29067502500004,0 72.89444608200006,19.29114701700007,0 72.89369606200006,19.29190217900003,0 72.89284430300006,19.29261828900007,0 72.89183595600008,19.29361727700007,0 72.89116092100005,19.29413644500005,0 72.89079423900006,19.29455334800002,0 72.89078590100007,19.29456908200007,0 72.89027381700004,19.29494513200007,0 72.88988112800007,19.29564938000004,0 72.88952770600008,19.29653894700004,0 72.88884047800008,19.29740998700004,0 72.88740706500005,19.29883701300002,0 72.88428478200007,19.30109805700005,0 72.87912177300007,19.30495009400005,0 72.87853474000008,19.30541333300005,0 72.87850104200004,19.30537259800008,0 72.87672768500005,19.30322899300006,0 72.87496807400004,19.30175403200008,0 72.87388725300008,19.30066840900002,0 72.87197529000008,19.29868284800006,0 72.87061088000007,19.29720252300007,0 72.86969977300004,19.29607569400002,0 72.86907118300007,19.29541121400007,0 72.86895164100008,19.29527388000002,0 72.87228045400008,19.29272273300006,0 72.87126662500003,19.29153958600006,0 72.87327695800008,19.29003926400003,0 72.87589848000005,19.28797190400007,0 72.87787052700008,19.28648419900003,0 
						</coordinates>
					</LinearRing>
				</outerBoundaryIs>
			</Polygon>
		</Placemark>
	</Document>
	<Document>
		<name>Ward no.14.kml</name>
		<StyleMap id="m_ylw-pushpin12">
			<Pair>
				<key>normal</key>
				<styleUrl>#s_ylw-pushpin12</styleUrl>
			</Pair>
			<Pair>
				<key>highlight</key>
				<styleUrl>#s_ylw-pushpin_hl12</styleUrl>
			</Pair>
		</StyleMap>
		<Style id="s_ylw-pushpin12">
			<IconStyle>
				<scale>1.1</scale>
				<Icon>
					<href>https://maps.google.com/mapfiles/kml/pushpin/ylw-pushpin.png</href>
				</Icon>
				<hotSpot x="20" y="2" xunits="pixels" yunits="pixels"/>
			</IconStyle>
			<LineStyle>
				<color>ffffff55</color>
				<width>3</width>
			</LineStyle>
			<PolyStyle>
				<fill>0</fill>
			</PolyStyle>
		</Style>
		<Style id="s_ylw-pushpin_hl12">
			<IconStyle>
				<scale>1.3</scale>
				<Icon>
					<href>https://maps.google.com/mapfiles/kml/pushpin/ylw-pushpin.png</href>
				</Icon>
				<hotSpot x="20" y="2" xunits="pixels" yunits="pixels"/>
			</IconStyle>
			<LineStyle>
				<color>ffffff55</color>
				<width>3</width>
			</LineStyle>
			<PolyStyle>
				<fill>0</fill>
			</PolyStyle>
		</Style>
		<Placemark>
			<name>Ward no.14.kml</name>
			<styleUrl>#m_ylw-pushpin12</styleUrl>
			<Polygon>
				<tessellate>1</tessellate>
				<outerBoundaryIs>
					<LinearRing>
						<coordinates>
							72.90555246400004,19.24832242400004,0 72.90555246400004,19.24832242400004,0 72.90732315700006,19.24764764000003,0 72.90824429200006,19.24675601100006,0 72.90919362800008,19.24547203400004,0 72.91042921900004,19.24431472900005,0 72.91214396300006,19.24384902700007,0 72.91570510600008,19.24320837200003,0 72.91769553300003,19.24356364700003,0 72.92034355200008,19.24453982500006,0 72.92350975800008,19.24725644300003,0 72.92919457600004,19.24963293500002,0 72.93869473600006,19.25370683800003,0 72.93797567200005,19.25594875900003,0 72.93740073500004,19.25873411600003,0 72.93668265800005,19.26382931300003,0 72.93618014600008,19.26763385900006,0 72.93650839500003,19.26904622800004,0 72.93470485800003,19.27101169800005,0 72.93330633700003,19.27489412900007,0 72.93197364300005,19.27960148800003,0 72.93157081500004,19.28353714500003,0 72.93157784500005,19.28457779500008,0 72.93109545000004,19.28565011700005,0 72.92991099900007,19.28687587700006,0 72.92821537800006,19.28816567200005,0 72.92725153400005,19.28894285000007,0 72.92614631100008,19.28935719500004,0 72.92554585500005,19.28935722000006,0 72.92500882400003,19.28920921700006,0 72.92402936600007,19.28920925100005,0 72.92232660800005,19.28861788900002,0 72.91908110700007,19.28808658300005,0 72.91610766000008,19.28788085100007,0 72.91289850500004,19.28802305200003,0 72.91105214000004,19.28759630200005,0 72.90927171500005,19.28731272300007,0 72.90663090600003,19.28717102000007,0 72.90498142200005,19.28729682900007,0 72.90477645000004,19.28604407200004,0 72.90457639300007,19.28561147400006,0 72.90422634600003,19.28516316000002,0 72.90359510700006,19.28481594500005,0 72.90302841500005,19.28460362200008,0 72.90246174300006,19.28454861400007,0 72.90202841300004,19.28460371300002,0 72.90048469700008,19.28507380500002,0 72.89920138800005,19.28546719200006,0 72.89809306300003,19.28582909900007,0 72.89740542900006,19.28596296000006,0 72.89678874400005,19.28595513100004,0 72.89612206000004,19.28593943600004,0 72.89568872300003,19.28597878800002,0 72.89528038600008,19.28611252700006,0 72.89479707000004,19.28643504800004,0 72.89435540900007,19.28669464000006,0 72.89398040900005,19.28682837600007,0 72.89349706600007,19.28692278600005,0 72.89308125800005,19.28695014700003,0 72.89278863400006,19.28694717200005,0 72.89254791000008,19.28684791000006,0 72.89239789900006,19.28672206000005,0 72.89222288900004,19.28653328600006,0 72.89213954600007,19.28628944700006,0 72.89213953300003,19.28598268000007,0 72.89217285700005,19.28558938900005,0 72.89222283600003,19.28503878200007,0 72.89208112900008,19.28408650200004,0 72.89171726200004,19.28227970800003,0 72.89162558100003,19.28187068600005,0 72.89138388300006,19.28076161500007,0 72.89121719000008,19.27987278800003,0 72.89096567400003,19.27885191400003,0 72.89067687200003,19.27805577900006,0 72.89028520300008,19.27749731900008,0 72.88968772800007,19.27684606000003,0 72.88924607400008,19.27644491400002,0 72.88702276700008,19.27502944700007,0 72.88413821300003,19.27320740000005,0 72.88269424200007,19.27212816800005,0 72.88176322800007,19.27162289700004,0 72.88061404900003,19.27084319000005,0 72.87921349700008,19.26986007800002,0 72.87831572400006,19.26894476500007,0 72.87752569900005,19.26769045200007,0 72.87666385500006,19.26640223200008,0 72.87533515600006,19.26491058100004,0 72.87421742300006,19.26351935200006,0 72.87317610600007,19.26141749800007,0 72.87212233600007,19.25883609300007,0 72.87415677200005,19.25947159200007,0 72.87506581700006,19.25940064200006,0 72.87700267000008,19.25758178800004,0 72.87799576500004,19.25560783200007,0 72.88186150600006,19.25523972500002,0 72.88270915600003,19.25447652300005,0 72.88459598900005,19.25411450600006,0 72.88675342800008,19.25313696600006,0 72.88976834300007,19.25141249600006,0 72.89681831200005,19.25095854400007,0 72.90096991400003,19.24957326400005,0 72.90555246400004,19.24832242400004,0 
						</coordinates>
					</LinearRing>
				</outerBoundaryIs>
			</Polygon>
		</Placemark>
	</Document>
	<Document>
		<name>Ward no.15.kml</name>
		<StyleMap id="m_ylw-pushpin13">
			<Pair>
				<key>normal</key>
				<styleUrl>#s_ylw-pushpin13</styleUrl>
			</Pair>
			<Pair>
				<key>highlight</key>
				<styleUrl>#s_ylw-pushpin_hl13</styleUrl>
			</Pair>
		</StyleMap>
		<Style id="s_ylw-pushpin13">
			<IconStyle>
				<scale>1.1</scale>
				<Icon>
					<href>https://maps.google.com/mapfiles/kml/pushpin/ylw-pushpin.png</href>
				</Icon>
				<hotSpot x="20" y="2" xunits="pixels" yunits="pixels"/>
			</IconStyle>
			<LineStyle>
				<color>ffffff55</color>
				<width>3</width>
			</LineStyle>
			<PolyStyle>
				<fill>0</fill>
			</PolyStyle>
		</Style>
		<Style id="s_ylw-pushpin_hl13">
			<IconStyle>
				<scale>1.3</scale>
				<Icon>
					<href>https://maps.google.com/mapfiles/kml/pushpin/ylw-pushpin.png</href>
				</Icon>
				<hotSpot x="20" y="2" xunits="pixels" yunits="pixels"/>
			</IconStyle>
			<LineStyle>
				<color>ffffff55</color>
				<width>3</width>
			</LineStyle>
			<PolyStyle>
				<fill>0</fill>
			</PolyStyle>
		</Style>
		<Placemark>
			<name>Ward no.15.kml</name>
			<styleUrl>#m_ylw-pushpin13</styleUrl>
			<Polygon>
				<tessellate>1</tessellate>
				<outerBoundaryIs>
					<LinearRing>
						<coordinates>
							72.88185452900007,19.27593756100003,0 72.88185452900007,19.27593756100003,0 72.88178475300003,19.27621355000002,0 72.88166128900008,19.27643650000005,0 72.88041612000006,19.27751095300005,0 72.87849077700008,19.27890994900002,0 72.87635633000008,19.28046893800007,0 72.87599164200003,19.28004182600006,0 72.87487558300006,19.27868517000007,0 72.87429003400007,19.27806594100002,0 72.87399726300004,19.27777423900005,0 72.87392136100004,19.27768212200004,0 72.87366653200007,19.27758902100004,0 72.87342255700008,19.27754808300006,0 72.87321653000004,19.27751226200007,0 72.87321653400005,19.27718984700005,0 72.87342255700008,19.27720519700006,0 72.87367813800006,19.27709772600002,0 72.87402512700004,19.27689813200004,0 72.87491981900007,19.27631898700002,0 72.87617152800004,19.27547034900005,0 72.87671910700004,19.27511209500005,0 72.87695223000003,19.27495344100004,0 72.87652570000006,19.27430319400003,0 72.87635762700006,19.27402684300006,0 72.87626545900008,19.27384772600004,0 72.87626545600006,19.27377096100003,0 72.87627087600004,19.27367884300003,0 72.87629798000006,19.27342807800005,0 72.87634134200005,19.27313125300003,0 72.87634675800007,19.27284978300003,0 72.87629794300005,19.27203096300008,0 72.87617863500003,19.27053090200008,0 72.87577724800008,19.27076888900007,0 72.87552786200007,19.27093265800005,0 72.87534895300007,19.27099919000005,0 72.87518631000006,19.27099919100004,0 72.87496402800008,19.27096848700006,0 72.87464416000006,19.27087637100004,0 72.87436766400003,19.27080984300005,0 72.87415622800006,19.27078937400006,0 72.87389600100005,19.27079961100003,0 72.87355987400008,19.27078426000003,0 72.87315326800007,19.27072285100007,0 72.87283882600008,19.27066655900006,0 72.87263823200004,19.27060514800007,0 72.87249185300004,19.27048744200005,0 72.87241595800003,19.27035950100003,0 72.87235118100006,19.27010096600003,0 72.87230674500006,19.26990758000005,0 72.87230676500008,19.26962719800002,0 72.87255201100004,19.26962086600003,0 72.87250694400007,19.26925832400008,0 72.87253560300007,19.26900149200003,0 72.87258981400004,19.26860231600006,0 72.87262234400004,19.26839249300002,0 72.87234233000004,19.26843362300008,0 72.87210921300004,19.26843874100007,0 72.87177850900008,19.26832103500004,0 72.87176766700003,19.26831080000005,0 72.87155081500003,19.26818285800005,0 72.87152370700005,19.26817774100004,0 72.87131227800006,19.26809585800004,0 72.87109000000004,19.26804468100005,0 72.87100326200004,19.26790650400005,0 72.87096531300006,19.26774273900003,0 72.87095447400003,19.26754315100004,0 72.87091110500006,19.26741009200003,0 72.87083520600004,19.26732309100004,0 72.87074304500004,19.26711326700007,0 72.87062919900006,19.26660150000004,0 72.87055872300004,19.26640702800006,0 72.87050993100007,19.26628932100004,0 72.87063471200008,19.26617433100006,0 72.87072687600005,19.26601568400002,0 72.87072145700006,19.26588262600006,0 72.87066696600004,19.26577159300007,0 72.87065085100005,19.26557375200002,0 72.87066697900008,19.26545200400005,0 72.87082014100008,19.26529982100004,0 72.87098136100008,19.26518568400007,0 72.87106197300005,19.26506393800003,0 72.87105391800003,19.26493458200002,0 72.87100556300004,19.26462260400007,0 72.87094914800008,19.26419648900003,0 72.87102976300008,19.26386929600005,0 72.87111843200006,19.26382364300002,0 72.87157788900004,19.26380082500003,0 72.87186001100008,19.26370952000008,0 72.87211795100006,19.26358017000007,0 72.87231140700004,19.26335189900004,0 72.87252098200008,19.26308558400007,0 72.87270637400007,19.26289535800004,0 72.87301266900005,19.26276600800003,0 72.87372362200006,19.26252263300006,0 72.87421742300006,19.26351935200006,0 72.87533515600006,19.26491058100004,0 72.87666385500006,19.26640223200008,0 72.87752569900005,19.26769045200007,0 72.87831572400006,19.26894476500007,0 72.87921349700008,19.26986007800002,0 72.88061404900003,19.27084319000005,0 72.88176322800007,19.27162289700004,0 72.88269424200007,19.27212816800005,0 72.88255469000006,19.27258420000004,0 72.88252248600008,19.27285275100007,0 72.88241809900006,19.27312833100007,0 72.88203700300005,19.27407690100006,0 72.88185452900007,19.27593756100003,0 
						</coordinates>
					</LinearRing>
				</outerBoundaryIs>
			</Polygon>
		</Placemark>
	</Document>
	<Document>
		<name>Ward no.16.kml</name>
		<StyleMap id="m_ylw-pushpin14">
			<Pair>
				<key>normal</key>
				<styleUrl>#s_ylw-pushpin14</styleUrl>
			</Pair>
			<Pair>
				<key>highlight</key>
				<styleUrl>#s_ylw-pushpin_hl14</styleUrl>
			</Pair>
		</StyleMap>
		<Style id="s_ylw-pushpin14">
			<IconStyle>
				<scale>1.1</scale>
				<Icon>
					<href>https://maps.google.com/mapfiles/kml/pushpin/ylw-pushpin.png</href>
				</Icon>
				<hotSpot x="20" y="2" xunits="pixels" yunits="pixels"/>
			</IconStyle>
			<LineStyle>
				<color>ffffff55</color>
				<width>3</width>
			</LineStyle>
			<PolyStyle>
				<fill>0</fill>
			</PolyStyle>
		</Style>
		<Style id="s_ylw-pushpin_hl14">
			<IconStyle>
				<scale>1.3</scale>
				<Icon>
					<href>https://maps.google.com/mapfiles/kml/pushpin/ylw-pushpin.png</href>
				</Icon>
				<hotSpot x="20" y="2" xunits="pixels" yunits="pixels"/>
			</IconStyle>
			<LineStyle>
				<color>ffffff55</color>
				<width>3</width>
			</LineStyle>
			<PolyStyle>
				<fill>0</fill>
			</PolyStyle>
		</Style>
		<Placemark>
			<name>Ward no.16.kml</name>
			<styleUrl>#m_ylw-pushpin14</styleUrl>
			<Polygon>
				<tessellate>1</tessellate>
				<outerBoundaryIs>
					<LinearRing>
						<coordinates>
							72.87235118100006,19.27010096600003,0 72.87235118100006,19.27010096600003,0 72.87241595800003,19.27035950100003,0 72.87249185300004,19.27048744200005,0 72.87263823200004,19.27060514800007,0 72.87283882600008,19.27066655900006,0 72.87315326800007,19.27072285100007,0 72.87355987400008,19.27078426000003,0 72.87389600100005,19.27079961100003,0 72.87415622800006,19.27078937400006,0 72.87436766400003,19.27080984300005,0 72.87464416000006,19.27087637100004,0 72.87496402800008,19.27096848700006,0 72.87518631000006,19.27099919100004,0 72.87534895300007,19.27099919000005,0 72.87552786200007,19.27093265800005,0 72.87577724800008,19.27076888900007,0 72.87617863500003,19.27053090200008,0 72.87629794300005,19.27203096300008,0 72.87634675800007,19.27284978300003,0 72.87634134200005,19.27313125300003,0 72.87629798000006,19.27342807800005,0 72.87627087600004,19.27367884300003,0 72.87626545600006,19.27377096100003,0 72.87626545900008,19.27384772600004,0 72.87635762700006,19.27402684300006,0 72.87652570000006,19.27430319400003,0 72.87695223000003,19.27495344100004,0 72.87671910700004,19.27511209500005,0 72.87617152800004,19.27547034900005,0 72.87491981900007,19.27631898700002,0 72.87402512700004,19.27689813200004,0 72.87367813800006,19.27709772600002,0 72.87342255700008,19.27720519700006,0 72.87321653400005,19.27718984700005,0 72.87054870800006,19.27660832300006,0 72.87039406800005,19.27578857700007,0 72.86969220600008,19.27416029800003,0 72.86885330700005,19.27288870800004,0 72.86749717400005,19.27133900000007,0 72.86573644900005,19.27272015600005,0 72.86552321600004,19.27243851200006,0 72.86503549500003,19.27201177500007,0 72.86436932400005,19.27169732000004,0 72.86352937800007,19.27127418900005,0 72.86269739200003,19.27091309900004,0 72.86268115700005,19.27089747500003,0 72.86204575300007,19.27055528600005,0 72.86165716200003,19.27053137800004,0 72.86112258300005,19.27059396100003,0 72.86068792200007,19.27074146300004,0 72.86029064400003,19.27093640100003,0 72.86006628500007,19.27115997800007,0 72.85952138100004,19.27170730000006,0 72.85930135700005,19.27207114000004,0 72.85917460200005,19.27235022400004,0 72.85869803300005,19.27267907800007,0 72.85795984900005,19.27313316900006,0 72.85747877700004,19.27336804400005,0 72.85720506300004,19.27349331100004,0 72.85699770600007,19.27350113800003,0 72.85677849758935,19.27349000020709,0 72.85677534885596,19.2734895945396,0 72.85672327860166,19.27350928815719,0 72.85673538100008,19.27341358000007,0 72.85717196200005,19.26962360700003,0 72.85737934600007,19.26790645600005,0 72.85800543900007,19.26820579600007,0 72.85833389800007,19.26837118800006,0 72.85884055600008,19.26842645700003,0 72.85916718100003,19.26831599200005,0 72.85971547800006,19.26804102600005,0 72.86041716600005,19.26807393200005,0 72.86113014000006,19.26827188100003,0 72.86152246900008,19.26847071700007,0 72.86169660600007,19.26882641100008,0 72.86181353000006,19.26908382800008,0 72.86216281300005,19.26907260300004,0 72.86251152000006,19.26901652900006,0 72.86262583500007,19.26884873100005,0 72.86270275500004,19.26851501600004,0 72.86288436900003,19.26828289400004,0 72.86316904200004,19.26807391700004,0 72.86341908400004,19.26792056100004,0 72.86371470000006,19.26778953400003,0 72.86400552000003,19.26758720600003,0 72.86418430900005,19.26737716600007,0 72.86449493200007,19.26744201500003,0 72.86481988300005,19.26757200400004,0 72.86508015800007,19.26749612200007,0 72.86520012600005,19.26735555100004,0 72.86523534800006,19.26710794900004,0 72.86519061800004,19.26658507300004,0 72.86491929500005,19.26601602600005,0 72.86489639300004,19.26600555900006,0 72.86463623200007,19.26565115400007,0 72.86457072500008,19.26538208700003,0 72.86463324400006,19.26495096500003,0 72.86490129900005,19.26427636500006,0 72.86520470900007,19.26382888800003,0 72.86572320300007,19.26311694000003,0 72.86666961100008,19.26202079800004,0 72.86720941900006,19.26128877700006,0 72.86749896200007,19.26116164200005,0 72.86803764600006,19.26083109000007,0 72.86832718600004,19.26067216800004,0 72.86903421300008,19.26083743100003,0 72.86934396000004,19.26090099100003,0 72.86945843200004,19.26082470800003,0 72.86979581300005,19.26059277400003,0 72.86995338400004,19.26054814600008,0 72.87026313400008,19.26088504200004,0 72.87057961400006,19.26099945400006,0 72.87080182200003,19.26097402200003,0 72.87101056300008,19.26098673000007,0 72.87146171500007,19.26111385000007,0 72.87177145800007,19.26113926800002,0 72.87207447100008,19.26112018800006,0 72.87208793800005,19.26112018800006,0 72.87220240700003,19.26113289700004,0 72.87247848600003,19.26119009800004,0 72.87261315300003,19.26099939300008,0 72.87276128600007,19.26077054800004,0 72.87287008200008,19.26066783300007,0 72.87317610600007,19.26141749800007,0 72.87372362200006,19.26252263300006,0 72.87301266900005,19.26276600800003,0 72.87270637400007,19.26289535800004,0 72.87252098200008,19.26308558400007,0 72.87231140700004,19.26335189900004,0 72.87211795100006,19.26358017000007,0 72.87186001100008,19.26370952000008,0 72.87157788900004,19.26380082500003,0 72.87111843200006,19.26382364300002,0 72.87102976300008,19.26386929600005,0 72.87094914800008,19.26419648900003,0 72.87100556300004,19.26462260400007,0 72.87105391800003,19.26493458200002,0 72.87106197300005,19.26506393800003,0 72.87098136100008,19.26518568400007,0 72.87082014100008,19.26529982100004,0 72.87066697900008,19.26545200400005,0 72.87065085100005,19.26557375200002,0 72.87066696600004,19.26577159300007,0 72.87072145700006,19.26588262600006,0 72.87072687600005,19.26601568400002,0 72.87063471200008,19.26617433100006,0 72.87050993100007,19.26628932100004,0 72.87055872300004,19.26640702800006,0 72.87062919900006,19.26660150000004,0 72.87074304500004,19.26711326700007,0 72.87083520600004,19.26732309100004,0 72.87091110500006,19.26741009200003,0 72.87095447400003,19.26754315100004,0 72.87096531300006,19.26774273900003,0 72.87100326200004,19.26790650400005,0 72.87109000000004,19.26804468100005,0 72.87131227800006,19.26809585800004,0 72.87152370700005,19.26817774100004,0 72.87155081500003,19.26818285800005,0 72.87176766700003,19.26831080000005,0 72.87177850900008,19.26832103500004,0 72.87210921300004,19.26843874100007,0 72.87234233000004,19.26843362300008,0 72.87262234400004,19.26839249300002,0 72.87258981400004,19.26860231600006,0 72.87253560300007,19.26900149200003,0 72.87250694400007,19.26925832400008,0 72.87255201100004,19.26962086600003,0 72.87230676500008,19.26962719800002,0 72.87230674500006,19.26990758000005,0 72.87235118100006,19.27010096600003,0 
						</coordinates>
					</LinearRing>
				</outerBoundaryIs>
			</Polygon>
		</Placemark>
	</Document>
	<Document>
		<name>Ward no.17.kml</name>
		<StyleMap id="m_ylw-pushpin15">
			<Pair>
				<key>normal</key>
				<styleUrl>#s_ylw-pushpin15</styleUrl>
			</Pair>
			<Pair>
				<key>highlight</key>
				<styleUrl>#s_ylw-pushpin_hl15</styleUrl>
			</Pair>
		</StyleMap>
		<Style id="s_ylw-pushpin15">
			<IconStyle>
				<scale>1.1</scale>
				<Icon>
					<href>https://maps.google.com/mapfiles/kml/pushpin/ylw-pushpin.png</href>
				</Icon>
				<hotSpot x="20" y="2" xunits="pixels" yunits="pixels"/>
			</IconStyle>
			<LineStyle>
				<color>ffffff55</color>
				<width>3</width>
			</LineStyle>
			<PolyStyle>
				<fill>0</fill>
			</PolyStyle>
		</Style>
		<Style id="s_ylw-pushpin_hl15">
			<IconStyle>
				<scale>1.3</scale>
				<Icon>
					<href>https://maps.google.com/mapfiles/kml/pushpin/ylw-pushpin.png</href>
				</Icon>
				<hotSpot x="20" y="2" xunits="pixels" yunits="pixels"/>
			</IconStyle>
			<LineStyle>
				<color>ffffff55</color>
				<width>3</width>
			</LineStyle>
			<PolyStyle>
				<fill>0</fill>
			</PolyStyle>
		</Style>
		<Placemark>
			<name>Ward no.17.kml</name>
			<styleUrl>#m_ylw-pushpin15</styleUrl>
			<Polygon>
				<tessellate>1</tessellate>
				<outerBoundaryIs>
					<LinearRing>
						<coordinates>
							72.86923577400006,19.28139496200004,0 72.86923577400006,19.28139496200004,0 72.86792931700006,19.28000105800004,0 72.86674625400008,19.27867367200002,0 72.86636087500005,19.27895442200003,0 72.86581316900003,19.27945215900007,0 72.86534756600008,19.27892829100006,0 72.86531377800003,19.27882617000006,0 72.86429484300004,19.27776312000003,0 72.86455997600007,19.27759946100002,0 72.86458026300005,19.27758669800005,0 72.86542111300008,19.27713180800004,0 72.86609057200008,19.27681271800003,0 72.86645572400005,19.27657022200003,0 72.86693759200006,19.27612985700006,0 72.86698355300007,19.27599815100007,0 72.86709272200005,19.27540341300005,0 72.86778472200007,19.27534176000006,0 72.86836142300007,19.27492790200006,0 72.86914538400003,19.27438580300003,0 72.86962014900007,19.27405107800007,0 72.86969220600008,19.27416029800003,0 72.87039406800005,19.27578857700007,0 72.87054870800006,19.27660832300006,0 72.87321653400005,19.27718984700005,0 72.87321653000004,19.27751226200007,0 72.87342255700008,19.27754808300006,0 72.87366653200007,19.27758902100004,0 72.87392136100004,19.27768212200004,0 72.87399726300004,19.27777423900005,0 72.87429003400007,19.27806594100002,0 72.87487558300006,19.27868517000007,0 72.87599164200003,19.28004182600006,0 72.87635633000008,19.28046893800007,0 72.87361286100008,19.28248171300004,0 72.87118455200005,19.28428465900004,0 72.87040693800003,19.28309254900006,0 72.86923577400006,19.28139496200004,0 
						</coordinates>
					</LinearRing>
				</outerBoundaryIs>
			</Polygon>
		</Placemark>
	</Document>
	<Document>
		<name>Ward no.18.kml</name>
		<StyleMap id="m_ylw-pushpin16">
			<Pair>
				<key>normal</key>
				<styleUrl>#s_ylw-pushpin16</styleUrl>
			</Pair>
			<Pair>
				<key>highlight</key>
				<styleUrl>#s_ylw-pushpin_hl16</styleUrl>
			</Pair>
		</StyleMap>
		<Style id="s_ylw-pushpin16">
			<IconStyle>
				<scale>1.1</scale>
				<Icon>
					<href>https://maps.google.com/mapfiles/kml/pushpin/ylw-pushpin.png</href>
				</Icon>
				<hotSpot x="20" y="2" xunits="pixels" yunits="pixels"/>
			</IconStyle>
			<LineStyle>
				<color>ffffff55</color>
				<width>3</width>
			</LineStyle>
			<PolyStyle>
				<fill>0</fill>
			</PolyStyle>
		</Style>
		<Style id="s_ylw-pushpin_hl16">
			<IconStyle>
				<scale>1.3</scale>
				<Icon>
					<href>https://maps.google.com/mapfiles/kml/pushpin/ylw-pushpin.png</href>
				</Icon>
				<hotSpot x="20" y="2" xunits="pixels" yunits="pixels"/>
			</IconStyle>
			<LineStyle>
				<color>ffffff55</color>
				<width>3</width>
			</LineStyle>
			<PolyStyle>
				<fill>0</fill>
			</PolyStyle>
		</Style>
		<Placemark>
			<name>Ward no.18.kml</name>
			<styleUrl>#m_ylw-pushpin16</styleUrl>
			<Polygon>
				<tessellate>1</tessellate>
				<outerBoundaryIs>
					<LinearRing>
						<coordinates>
							72.87787052700008,19.28648419900003,0 72.87787052700008,19.28648419900003,0 72.87589848000005,19.28797190400007,0 72.87327695800008,19.29003926400003,0 72.87126662500003,19.29153958600006,0 72.87228045400008,19.29272273300006,0 72.86895164100008,19.29527388000002,0 72.86774500500007,19.29388765800007,0 72.86688166300007,19.29280118500003,0 72.86627818900007,19.29231423900006,0 72.86600939000004,19.29208366600005,0 72.86550889500006,19.29151039600004,0 72.86496373800003,19.29094472100007,0 72.86483843000008,19.29068743100004,0 72.86471446600007,19.29043979400006,0 72.86454909000008,19.29022128400004,0 72.86434677300008,19.29014236700004,0 72.86401876000008,19.28998163200004,0 72.86542476900007,19.28863966900008,0 72.86596441700004,19.28815479500003,0 72.86708944400004,19.28727938900005,0 72.86899264200008,19.28589372400006,0 72.87118455200005,19.28428465900004,0 72.87361286100008,19.28248171300004,0 72.87635633000008,19.28046893800007,0 72.87849077700008,19.27890994900002,0 72.88041612000006,19.27751095300005,0 72.88174720000006,19.27911199200003,0 72.88209612000003,19.27900557900006,0 72.88272487100005,19.27922002500003,0 72.88363747500006,19.28021820200007,0 72.88452762000003,19.28106221300004,0 72.88217926900006,19.28291200800004,0 72.88061683000006,19.28408566200005,0 72.87787052700008,19.28648419900003,0 
						</coordinates>
					</LinearRing>
				</outerBoundaryIs>
			</Polygon>
		</Placemark>
	</Document>
	<Document>
		<name>Ward no.19.kml</name>
		<StyleMap id="m_ylw-pushpin17">
			<Pair>
				<key>normal</key>
				<styleUrl>#s_ylw-pushpin17</styleUrl>
			</Pair>
			<Pair>
				<key>highlight</key>
				<styleUrl>#s_ylw-pushpin_hl17</styleUrl>
			</Pair>
		</StyleMap>
		<Style id="s_ylw-pushpin17">
			<IconStyle>
				<scale>1.1</scale>
				<Icon>
					<href>https://maps.google.com/mapfiles/kml/pushpin/ylw-pushpin.png</href>
				</Icon>
				<hotSpot x="20" y="2" xunits="pixels" yunits="pixels"/>
			</IconStyle>
			<LineStyle>
				<color>ffffff55</color>
				<width>3</width>
			</LineStyle>
			<PolyStyle>
				<fill>0</fill>
			</PolyStyle>
		</Style>
		<Style id="s_ylw-pushpin_hl17">
			<IconStyle>
				<scale>1.3</scale>
				<Icon>
					<href>https://maps.google.com/mapfiles/kml/pushpin/ylw-pushpin.png</href>
				</Icon>
				<hotSpot x="20" y="2" xunits="pixels" yunits="pixels"/>
			</IconStyle>
			<LineStyle>
				<color>ffffff55</color>
				<width>3</width>
			</LineStyle>
			<PolyStyle>
				<fill>0</fill>
			</PolyStyle>
		</Style>
		<Placemark>
			<name>Ward no.19.kml</name>
			<styleUrl>#m_ylw-pushpin17</styleUrl>
			<Polygon>
				<tessellate>1</tessellate>
				<outerBoundaryIs>
					<LinearRing>
						<coordinates>
							72.86899264200008,19.28589372400006,0 72.86899264200008,19.28589372400006,0 72.86708944400004,19.28727938900005,0 72.86596441700004,19.28815479500003,0 72.86542476900007,19.28863966900008,0 72.86401876000008,19.28998163200004,0 72.86330711300008,19.29073814800006,0 72.86295470800007,19.29053390700005,0 72.86285578700006,19.29039385700003,0 72.86274450600007,19.28999121100003,0 72.86250957900006,19.28921509500003,0 72.86248484900005,19.28894570100005,0 72.86248485200008,19.28863642200002,0 72.86245394300005,19.28844385300005,0 72.86234883900005,19.28824544500003,0 72.86147091600003,19.28790113800005,0 72.86121005800004,19.28768069900008,0 72.86101222000008,19.28755231900004,0 72.86070928000004,19.28740643300006,0 72.86042489000005,19.28730722600005,0 72.86018137800005,19.28714781800005,0 72.86149658900007,19.28555819400003,0 72.86347970200006,19.28340339100004,0 72.86399316400008,19.28347435700005,0 72.86436220400003,19.28189789500004,0 72.86469240100007,19.28051127500004,0 72.86581316900003,19.27945215900007,0 72.86636087500005,19.27895442200003,0 72.86674625400008,19.27867367200002,0 72.86792931700006,19.28000105800004,0 72.86923577400006,19.28139496200004,0 72.87040693800003,19.28309254900006,0 72.87119261300006,19.28429701800007,0 72.86899264200008,19.28589372400006,0 
						</coordinates>
					</LinearRing>
				</outerBoundaryIs>
			</Polygon>
		</Placemark>
	</Document>
	<Document>
		<name>Ward no.20.kml</name>
		<StyleMap id="m_ylw-pushpin18">
			<Pair>
				<key>normal</key>
				<styleUrl>#s_ylw-pushpin18</styleUrl>
			</Pair>
			<Pair>
				<key>highlight</key>
				<styleUrl>#s_ylw-pushpin_hl18</styleUrl>
			</Pair>
		</StyleMap>
		<Style id="s_ylw-pushpin18">
			<IconStyle>
				<scale>1.1</scale>
				<Icon>
					<href>https://maps.google.com/mapfiles/kml/pushpin/ylw-pushpin.png</href>
				</Icon>
				<hotSpot x="20" y="2" xunits="pixels" yunits="pixels"/>
			</IconStyle>
			<LineStyle>
				<color>ffffff55</color>
				<width>3</width>
			</LineStyle>
			<PolyStyle>
				<fill>0</fill>
			</PolyStyle>
		</Style>
		<Style id="s_ylw-pushpin_hl18">
			<IconStyle>
				<scale>1.3</scale>
				<Icon>
					<href>https://maps.google.com/mapfiles/kml/pushpin/ylw-pushpin.png</href>
				</Icon>
				<hotSpot x="20" y="2" xunits="pixels" yunits="pixels"/>
			</IconStyle>
			<LineStyle>
				<color>ffffff55</color>
				<width>3</width>
			</LineStyle>
			<PolyStyle>
				<fill>0</fill>
			</PolyStyle>
		</Style>
		<Placemark>
			<name>Ward no.20.kml</name>
			<styleUrl>#m_ylw-pushpin18</styleUrl>
			<Polygon>
				<tessellate>1</tessellate>
				<outerBoundaryIs>
					<LinearRing>
						<coordinates>
							72.86469240100007,19.28051127500004,0 72.86469240100007,19.28051127500004,0 72.86436220400003,19.28189789500004,0 72.86399316400008,19.28347435700005,0 72.86347970200006,19.28340339100004,0 72.86343519600007,19.28340278200005,0 72.86121116900006,19.28344611700004,0 72.86087994800005,19.28339752000005,0 72.86016104400005,19.28308310000006,0 72.85844083700005,19.28232666200006,0 72.85817436300005,19.28220715900005,0 72.85825597200005,19.28143963600007,0 72.85894330300005,19.28144003300002,0 72.85957476800007,19.28152410300004,0 72.85981792700005,19.28072161500006,0 72.85996413200007,19.28007861900005,0 72.86018875200006,19.27958302700006,0 72.85894397300007,19.27890549700004,0 72.85815811400005,19.27855867500006,0 72.85849864700003,19.27760549600004,0 72.85913805000007,19.27650878600002,0 72.85970343500003,19.27583662100005,0 72.86039971400004,19.27512630500007,0 72.86084489700005,19.27469104700003,0 72.86136362800005,19.27436067100007,0 72.86152551800006,19.27429192500006,0 72.86288538200006,19.27603407500004,0 72.86429484300004,19.27776312000003,0 72.86531377800003,19.27882617000006,0 72.86534756600008,19.27892829100006,0 72.86581316900003,19.27945215900007,0 72.86469240100007,19.28051127500004,0 
						</coordinates>
					</LinearRing>
				</outerBoundaryIs>
			</Polygon>
		</Placemark>
	</Document>
	<Document>
		<name>Ward no.21.kml</name>
		<StyleMap id="m_ylw-pushpin19">
			<Pair>
				<key>normal</key>
				<styleUrl>#s_ylw-pushpin19</styleUrl>
			</Pair>
			<Pair>
				<key>highlight</key>
				<styleUrl>#s_ylw-pushpin_hl19</styleUrl>
			</Pair>
		</StyleMap>
		<Style id="s_ylw-pushpin19">
			<IconStyle>
				<scale>1.1</scale>
				<Icon>
					<href>https://maps.google.com/mapfiles/kml/pushpin/ylw-pushpin.png</href>
				</Icon>
				<hotSpot x="20" y="2" xunits="pixels" yunits="pixels"/>
			</IconStyle>
			<LineStyle>
				<color>ffffff55</color>
				<width>3</width>
			</LineStyle>
			<PolyStyle>
				<fill>0</fill>
			</PolyStyle>
		</Style>
		<Style id="s_ylw-pushpin_hl19">
			<IconStyle>
				<scale>1.3</scale>
				<Icon>
					<href>https://maps.google.com/mapfiles/kml/pushpin/ylw-pushpin.png</href>
				</Icon>
				<hotSpot x="20" y="2" xunits="pixels" yunits="pixels"/>
			</IconStyle>
			<LineStyle>
				<color>ffffff55</color>
				<width>3</width>
			</LineStyle>
			<PolyStyle>
				<fill>0</fill>
			</PolyStyle>
		</Style>
		<Placemark>
			<name>Ward no.21.kml</name>
			<styleUrl>#m_ylw-pushpin19</styleUrl>
			<Polygon>
				<tessellate>1</tessellate>
				<outerBoundaryIs>
					<LinearRing>
						<coordinates>
							72.86573644900005,19.27272015600005,0 72.86573644900005,19.27272015600005,0 72.86749717400005,19.27133900000007,0 72.86885330700005,19.27288870800004,0 72.86962014900007,19.27405107800007,0 72.86914538400003,19.27438580300003,0 72.86836142300007,19.27492790200006,0 72.86778472200007,19.27534176000006,0 72.86709272200005,19.27540341300005,0 72.86698355300007,19.27599815100007,0 72.86693759200006,19.27612985700006,0 72.86645572400005,19.27657022200003,0 72.86609057200008,19.27681271800003,0 72.86542111300008,19.27713180800004,0 72.86458026300005,19.27758669800005,0 72.86455997600007,19.27759946100002,0 72.86429484300004,19.27776312000003,0 72.86288538200006,19.27603407500004,0 72.86152551800006,19.27429192500006,0 72.86136362800005,19.27436067100007,0 72.86084489700005,19.27469104700003,0 72.86039971400004,19.27512630500007,0 72.85970343500003,19.27583662100005,0 72.85913805000007,19.27650878600002,0 72.85849864700003,19.27760549600004,0 72.85815811400005,19.27855867500006,0 72.85894397300007,19.27890549700004,0 72.86018875200006,19.27958302700006,0 72.85996413200007,19.28007861900005,0 72.85981792700005,19.28072161500006,0 72.85957476800007,19.28152410300004,0 72.85894330300005,19.28144003300002,0 72.85825597200005,19.28143963600007,0 72.85751408900006,19.28134388800004,0 72.85587330900006,19.28115536300004,0 72.85618059500007,19.27813436600007,0 72.85648787000008,19.27541292600006,0 72.85672354800005,19.27350916400007,0 72.85677486400004,19.27348976600007,0 72.85699770600007,19.27350113800003,0 72.85720506300004,19.27349331100004,0 72.85747877700004,19.27336804400005,0 72.85795984900005,19.27313316900006,0 72.85869803300005,19.27267907800007,0 72.85917460200005,19.27235022400004,0 72.85930135700005,19.27207114000004,0 72.85952138100004,19.27170730000006,0 72.86006628500007,19.27115997800007,0 72.86029064400003,19.27093640100003,0 72.86068792200007,19.27074146300004,0 72.86112258300005,19.27059396100003,0 72.86165149900006,19.27053204100002,0 72.86166795100007,19.27053204200007,0 72.86204575300007,19.27055528600005,0 72.86268115700005,19.27089747500003,0 72.86269739200003,19.27091309900004,0 72.86352937800007,19.27127418900005,0 72.86436932400005,19.27169732000004,0 72.86503549500003,19.27201177500007,0 72.86552321600004,19.27243851200006,0 72.86573644900005,19.27272015600005,0 
						</coordinates>
					</LinearRing>
				</outerBoundaryIs>
			</Polygon>
		</Placemark>
	</Document>
	<Document>
		<name>Ward no.22.kml</name>
		<StyleMap id="m_ylw-pushpin20">
			<Pair>
				<key>normal</key>
				<styleUrl>#s_ylw-pushpin20</styleUrl>
			</Pair>
			<Pair>
				<key>highlight</key>
				<styleUrl>#s_ylw-pushpin_hl20</styleUrl>
			</Pair>
		</StyleMap>
		<Style id="s_ylw-pushpin20">
			<IconStyle>
				<scale>1.1</scale>
				<Icon>
					<href>https://maps.google.com/mapfiles/kml/pushpin/ylw-pushpin.png</href>
				</Icon>
				<hotSpot x="20" y="2" xunits="pixels" yunits="pixels"/>
			</IconStyle>
			<LineStyle>
				<color>ffffff55</color>
				<width>3</width>
			</LineStyle>
			<PolyStyle>
				<fill>0</fill>
			</PolyStyle>
		</Style>
		<Style id="s_ylw-pushpin_hl20">
			<IconStyle>
				<scale>1.3</scale>
				<Icon>
					<href>https://maps.google.com/mapfiles/kml/pushpin/ylw-pushpin.png</href>
				</Icon>
				<hotSpot x="20" y="2" xunits="pixels" yunits="pixels"/>
			</IconStyle>
			<LineStyle>
				<color>ffffff55</color>
				<width>3</width>
			</LineStyle>
			<PolyStyle>
				<fill>0</fill>
			</PolyStyle>
		</Style>
		<Placemark>
			<name>Ward no.22.kml</name>
			<styleUrl>#m_ylw-pushpin20</styleUrl>
			<Polygon>
				<tessellate>1</tessellate>
				<outerBoundaryIs>
					<LinearRing>
						<coordinates>
							72.86149658900007,19.28555819400003,0 72.86149658900007,19.28555819400003,0 72.86018137800005,19.28714781800005,0 72.86004157900004,19.28705630000007,0 72.85862568900006,19.28592743000007,0 72.85816198600008,19.28684942000007,0 72.85809397500003,19.28704198800006,0 72.85782191800007,19.28799316400006,0 72.85755469700007,19.28938338500006,0 72.85707186800005,19.29103234300004,0 72.85652754700004,19.29272807900003,0 72.85626872700004,19.29353398300003,0 72.85569991700004,19.29344644300005,0 72.85574936900008,19.29374988900003,0 72.85555151700004,19.29376739300005,0 72.85552678100004,19.29390744500006,0 72.85463912300008,19.29382101700003,0 72.85521303600007,19.28840331800006,0 72.85550050400008,19.28535519000008,0 72.85576274900006,19.28259476900007,0 72.85587330900006,19.28115536300004,0 72.85751408900006,19.28134388800004,0 72.85825597200005,19.28143963600007,0 72.85817436300005,19.28220715900005,0 72.85844083700005,19.28232666200006,0 72.86016104400005,19.28308310000006,0 72.86087994800005,19.28339752000005,0 72.86121116900006,19.28344611700004,0 72.86343519600007,19.28340278200005,0 72.86347970200006,19.28340339100004,0 72.86149658900007,19.28555819400003,0 
						</coordinates>
					</LinearRing>
				</outerBoundaryIs>
			</Polygon>
		</Placemark>
	</Document>
	<Document>
		<name>Ward no.23.kml</name>
		<StyleMap id="m_ylw-pushpin21">
			<Pair>
				<key>normal</key>
				<styleUrl>#s_ylw-pushpin21</styleUrl>
			</Pair>
			<Pair>
				<key>highlight</key>
				<styleUrl>#s_ylw-pushpin_hl21</styleUrl>
			</Pair>
		</StyleMap>
		<Style id="s_ylw-pushpin21">
			<IconStyle>
				<scale>1.1</scale>
				<Icon>
					<href>https://maps.google.com/mapfiles/kml/pushpin/ylw-pushpin.png</href>
				</Icon>
				<hotSpot x="20" y="2" xunits="pixels" yunits="pixels"/>
			</IconStyle>
			<LineStyle>
				<color>ffffff55</color>
				<width>3</width>
			</LineStyle>
			<PolyStyle>
				<fill>0</fill>
			</PolyStyle>
		</Style>
		<Style id="s_ylw-pushpin_hl21">
			<IconStyle>
				<scale>1.3</scale>
				<Icon>
					<href>https://maps.google.com/mapfiles/kml/pushpin/ylw-pushpin.png</href>
				</Icon>
				<hotSpot x="20" y="2" xunits="pixels" yunits="pixels"/>
			</IconStyle>
			<LineStyle>
				<color>ffffff55</color>
				<width>3</width>
			</LineStyle>
			<PolyStyle>
				<fill>0</fill>
			</PolyStyle>
		</Style>
		<Placemark>
			<name>Ward no.23.kml</name>
			<styleUrl>#m_ylw-pushpin21</styleUrl>
			<Polygon>
				<tessellate>1</tessellate>
				<outerBoundaryIs>
					<LinearRing>
						<coordinates>
							72.85521303600007,19.28840331800006,0 72.85521303600007,19.28840331800006,0 72.85463912300008,19.29382101700003,0 72.85446773500007,19.29516236300003,0 72.85433220800007,19.29513612100004,0 72.85132871200005,19.29483238600005,0 72.84854636100005,19.29456577800005,0 72.84641370600008,19.29440577400004,0 72.84569339600006,19.29448573500002,0 72.84539679600005,19.29455237600007,0 72.84459173800008,19.29451235600004,0 72.84308046700005,19.29433898600007,0 72.84227538200008,19.29423229500003,0 72.84200701200007,19.29436558500004,0 72.84166798800004,19.29519206500004,0 72.84135719000005,19.29627182800004,0 72.84117351200007,19.29715164200007,0 72.84111694100005,19.29817810300005,0 72.84118720400005,19.29902994000003,0 72.84112103300004,19.29902804800003,0 72.84074759200007,19.29902805300003,0 72.84031191200006,19.29897910300002,0 72.83999034000004,19.29895952400005,0 72.83948204800004,19.29909659000003,0 72.83882852700003,19.29920428400004,0 72.83806090000007,19.29928260100007,0 72.83710654500004,19.29931195900002,0 72.83650392500005,19.29924998700005,0 72.83619223300008,19.29919531600007,0 72.83617302500005,19.29954880500003,0 72.83623064400007,19.29984790900005,0 72.83623064200003,19.30018326500004,0 72.83607698500003,19.30050955700005,0 72.83566402800005,19.30120745700003,0 72.83553917700004,19.30156094200004,0 72.83549115300008,19.30195974500003,0 72.83546038300005,19.30220011900008,0 72.83553766400007,19.30280519400003,0 72.83557280600007,19.30336037000006,0 72.83544709800003,19.30398770400006,0 72.83521096400005,19.30504849800008,0 72.83511666900006,19.30619526900006,0 72.83496397300007,19.30720393300004,0 72.83467033400007,19.30805741900002,0 72.83409481000007,19.30896865900007,0 72.83370719500004,19.30999949100004,0 72.83320211900008,19.31081972400005,0 72.83298225800007,19.31139199600005,0 72.83300429000008,19.31181349700006,0 72.83326379500005,19.31272879900007,0 72.83343415300004,19.31328834100003,0 72.83337307100004,19.31365671100008,0 72.83304405600006,19.31409266500003,0 72.83205942200004,19.31382164600006,0 72.82898805600007,19.31241070800007,0 72.82529276600008,19.31020153900005,0 72.82313700100008,19.30840128400007,0 72.81816424000004,19.30536567800004,0 72.81727217700006,19.30551455100004,0 72.81607025300008,19.30511768300005,0 72.81623581100007,19.30417638800003,0 72.81435573100003,19.30378057700005,0 72.81258609700006,19.30303927200003,0 72.80956090000006,19.30344325000004,0 72.80939668200006,19.30303917800006,0 72.80882130000003,19.29918153500006,0 72.80920592300004,19.29838324700006,0 72.80948796600006,19.29777851700004,0 72.80951375600006,19.29695612600005,0 72.80933447000007,19.29642401300003,0 72.80864258000008,19.29625469300004,0 72.80772013700005,19.29577095100007,0 72.80697714700005,19.29514212000004,0 72.80679078600008,19.29468019700005,0 72.80683282500007,19.29404559800003,0 72.80714099500005,19.29348049300006,0 72.80748908500004,19.29312335800006,0 72.80818109800003,19.29286862600003,0 72.80898011900007,19.29261589900005,0 72.80968947600007,19.29233743100008,0 72.81043604100006,19.29192426800006,0 72.81132246400006,19.29059820900005,0 72.81172593300005,19.29006519000006,0 72.81213650100005,19.28957931000002,0 72.81246134400004,19.28924257300002,0 72.81333299800008,19.28868099200002,0 72.81424166300008,19.28813728000006,0 72.81484459200004,19.28743913800002,0 72.81512516000004,19.28698097100005,0 72.81521442600007,19.28639522900005,0 72.81515879100004,19.28528838500006,0 72.81522415300003,19.28496246800006,0 72.81532563700006,19.28461915700007,0 72.81559098800005,19.28364328500004,0 72.81599418500008,19.28272472500004,0 72.81613321800006,19.28230481500003,0 72.81631515200007,19.28150206800007,0 72.81619839100006,19.28045862700003,0 72.81621290600003,19.27954254800005,0 72.81635800700008,19.27885153300002,0 72.81658828700006,19.27836154300007,0 72.81661609300005,19.27832217700006,0 72.81740852300004,19.27766607500007,0 72.81795070400005,19.27746924800005,0 72.81878481600006,19.27703622300004,0 72.81945209800006,19.27683939300005,0 72.81949380300006,19.27681314900008,0 72.82143186300004,19.27585233500002,0 72.82247445600007,19.27509123400006,0 72.82370233800003,19.27132503900003,0 72.82411488700006,19.27079303100004,0 72.82479153700007,19.27030919600003,0 72.82523638400005,19.27030918200006,0 72.82566733900006,19.27057161100004,0 72.82586194900006,19.27038789300008,0 72.82597315400005,19.27026978900005,0 72.82644579900006,19.27034850400003,0 72.82684893500004,19.27038785400003,0 72.82716865800006,19.27034847400006,0 72.82797489800004,19.27002038400008,0 72.82882284400006,19.26986287500006,0 72.82989320500008,19.26978408100007,0 72.83004611200005,19.26978407200005,0 72.83015732000007,19.26977094300003,0 72.83103307200008,19.26974464100005,0 72.83140838100007,19.26954778400005,0 72.83170027800003,19.26925907600003,0 72.83217111500005,19.26883913200004,0 72.83294974700004,19.26832729400007,0 72.83340847600005,19.26827477400008,0 72.83410352300007,19.26826160000007,0 72.83471519300008,19.26856336300006,0 72.83510447400005,19.26911446200006,0 72.83531305400004,19.26977054900004,0 72.83556331100004,19.27016418800002,0 72.83621669900003,19.27059715500008,0 72.83703690600004,19.27108259100004,0 72.83780036000007,19.27126622300005,0 72.83827299200004,19.27121368500008,0 72.83862048300006,19.27093808300003,0 72.83916253000007,19.27019006700004,0 72.83953776100003,19.26946831100003,0 72.83962670400007,19.26890903700007,0 72.83995135800006,19.26769591500005,0 72.84200785700006,19.26793531700002,0 72.84440939000007,19.26696605700005,0 72.84589447600007,19.26739572200006,0 72.84688057200003,19.26823326300007,0 72.84794910600004,19.27114860600005,0 72.84859155400005,19.27151141300004,0 72.85058586800005,19.27094673900007,0 72.85171050300005,19.27084111300007,0 72.85227940300007,19.27027923900005,0 72.85281903100008,19.27010412600004,0 72.85315934600004,19.27066525700008,0 72.85366868900007,19.27204287100005,0 72.85435716700005,19.27311219000006,0 72.85518421400008,19.27375784100008,0 72.85606565900008,19.27375783600007,0 72.85672354800005,19.27350916400007,0 72.85648787000008,19.27541292600006,0 72.85618059500007,19.27813436600007,0 72.85587330900006,19.28115536300004,0 72.85576274900006,19.28259476900007,0 72.85550050400008,19.28535519000008,0 72.85521303600007,19.28840331800006,0 
						</coordinates>
					</LinearRing>
				</outerBoundaryIs>
			</Polygon>
		</Placemark>
	</Document>
	<Document>
		<name>Ward no.24.kml</name>
		<StyleMap id="m_ylw-pushpin22">
			<Pair>
				<key>normal</key>
				<styleUrl>#s_ylw-pushpin22</styleUrl>
			</Pair>
			<Pair>
				<key>highlight</key>
				<styleUrl>#s_ylw-pushpin_hl22</styleUrl>
			</Pair>
		</StyleMap>
		<Style id="s_ylw-pushpin22">
			<IconStyle>
				<scale>1.1</scale>
				<Icon>
					<href>https://maps.google.com/mapfiles/kml/pushpin/ylw-pushpin.png</href>
				</Icon>
				<hotSpot x="20" y="2" xunits="pixels" yunits="pixels"/>
			</IconStyle>
			<LineStyle>
				<color>ffffff55</color>
				<width>3</width>
			</LineStyle>
			<PolyStyle>
				<fill>0</fill>
			</PolyStyle>
		</Style>
		<Style id="s_ylw-pushpin_hl22">
			<IconStyle>
				<scale>1.3</scale>
				<Icon>
					<href>https://maps.google.com/mapfiles/kml/pushpin/ylw-pushpin.png</href>
				</Icon>
				<hotSpot x="20" y="2" xunits="pixels" yunits="pixels"/>
			</IconStyle>
			<LineStyle>
				<color>ffffff55</color>
				<width>3</width>
			</LineStyle>
			<PolyStyle>
				<fill>0</fill>
			</PolyStyle>
		</Style>
		<Placemark>
			<name>Ward no.24.kml</name>
			<styleUrl>#m_ylw-pushpin22</styleUrl>
			<Polygon>
				<tessellate>1</tessellate>
				<outerBoundaryIs>
					<LinearRing>
						<coordinates>
							72.82370233800003,19.27132503900003,0 72.82370233800003,19.27132503900003,0 72.82247445600007,19.27509123400006,0 72.82143186300004,19.27585233500002,0 72.81942436600008,19.27684757300005,0 72.81878481600006,19.27703622300004,0 72.81795070400005,19.27746924800005,0 72.81740852300004,19.27766607500007,0 72.81660086100004,19.27833478900004,0 72.81635800700008,19.27885153300002,0 72.81621290600003,19.27954254800005,0 72.81619839100006,19.28045862700003,0 72.81631515200007,19.28150206800007,0 72.81613321800006,19.28230481500003,0 72.81599418500008,19.28272472500004,0 72.81559098800005,19.28364328500004,0 72.81532563700006,19.28461915700007,0 72.81522415300003,19.28496246800006,0 72.81515879100004,19.28528838500006,0 72.81521442600007,19.28639522900005,0 72.81512516000004,19.28698097100005,0 72.81484459200004,19.28743913800002,0 72.81424166300008,19.28813728000006,0 72.81333299800008,19.28868099200002,0 72.81246134400004,19.28924257300002,0 72.81213650100005,19.28957931000002,0 72.81172593300005,19.29006519000006,0 72.81132246400006,19.29059820900005,0 72.81043604100006,19.29192426800006,0 72.80968947600007,19.29233743100008,0 72.80898011900007,19.29261589900005,0 72.80818109800003,19.29286862600003,0 72.80748908500004,19.29312335800006,0 72.80714099500005,19.29348049300006,0 72.80683282500007,19.29404559800003,0 72.80679078600008,19.29468019700005,0 72.80697714700005,19.29514212000004,0 72.80772013700005,19.29577095100007,0 72.80864258000008,19.29625469300004,0 72.80933447000007,19.29642401300003,0 72.80951375600006,19.29695612600005,0 72.80948796600006,19.29777851700004,0 72.80920592300004,19.29838324700006,0 72.80882130000003,19.29918153500006,0 72.80939668200006,19.30303917800006,0 72.80956136700007,19.30344316000003,0 72.80586760000006,19.30416343800005,0 72.80229064400004,19.30423485100005,0 72.79907915600006,19.30559398200006,0 72.79642725300005,19.30677720300002,0 72.79466896500003,19.30853919500004,0 72.79393061100006,19.31005429900006,0 72.79279246000004,19.31019883400006,0 72.79162219300008,19.30994593300005,0 72.79049271800005,19.30954876200008,0 72.78973937200004,19.30933224700004,0 72.78872867500007,19.30871928100004,0 72.78738876000006,19.30760337200007,0 72.78628431400006,19.30632793800004,0 72.78591422300008,19.30497478000007,0 72.78550412500005,19.30422753400006,0 72.78483035700003,19.30365844700003,0 72.78434971000007,19.30209476100003,0 72.78439720400007,19.30010721600007,0 72.78422637300008,19.29677733400007,0 72.78426400200004,19.29203524100006,0 72.78419884500005,19.29009044000003,0 72.78361212200008,19.28768960500003,0 72.78335578700006,19.28663171000005,0 72.78367889400005,19.28535526500008,0 72.78354045200007,19.28320257200005,0 72.78352785900006,19.28146047400003,0 72.78308459700008,19.28033044200004,0 72.78237733200007,19.27962456200004,0 72.78170448900005,19.27948334100006,0 72.78086377800008,19.27959171900005,0 72.77992238300004,19.27984109300007,0 72.77917179200006,19.27948466800007,0 72.77864826200005,19.27887902200007,0 72.77894959500003,19.27877220800008,0 72.77921517100003,19.27827374700007,0 72.77948297000006,19.27727734300004,0 72.77986181500006,19.27660164400004,0 72.78035437900007,19.27564201000007,0 72.78047404400007,19.27400853400007,0 72.78096910300007,19.27227069200006,0 72.78142311000005,19.27127864000005,0 72.78127664500005,19.27039340500005,0 72.78120464800008,19.26965024900005,0 72.78195688200003,19.26890760200007,0 72.78285575600006,19.26897844400003,0 72.78337945600003,19.26922606300008,0 72.78360602300006,19.26866032800007,0 72.78387058200008,19.26788281100005,0 72.78424812000003,19.26682325800004,0 72.78443608100008,19.26654085800004,0 72.78533413400004,19.26664687700003,0 72.78571167200005,19.26527081600005,0 72.78399568000003,19.26480942600006,0 72.78552543900008,19.26403424300003,0 72.78702291100007,19.26376066500006,0 72.78813392400008,19.26335028300002,0 72.78982850800008,19.26177413200003,0 72.79066574700005,19.26139410400003,0 72.79215624200003,19.26153787100003,0 72.79430183500006,19.26242733900006,0 72.79703900500004,19.26209290700007,0 72.79932726500004,19.26219050900005,0 72.80027722700004,19.26209927800005,0 72.80048319000008,19.26138138000005,0 72.80102635800006,19.26083267200005,0 72.80062177300005,19.26009259800003,0 72.80123151300006,19.25849264700003,0 72.80193872700005,19.25868397800002,0 72.80213961900006,19.25776073400004,0 72.80501137500005,19.25548592900003,0 72.81288792400005,19.24823500800005,0 72.81801687800004,19.24767756200004,0 72.82450592600003,19.24719311400003,0 72.82847479900005,19.24796235400004,0 72.83780254700008,19.25035044900005,0 72.83908414700005,19.25465917700006,0 72.83547563500008,19.25873675200006,0 72.83525499900003,19.26136680100007,0 72.83609717000007,19.26365497300003,0 72.84032815600006,19.26773977900007,0 72.83995135800006,19.26769591500005,0 72.83962670400007,19.26890903700007,0 72.83953776100003,19.26946831100003,0 72.83916253000007,19.27019006700004,0 72.83862048300006,19.27093808300003,0 72.83827299200004,19.27121368500008,0 72.83780036000007,19.27126622300005,0 72.83703690600004,19.27108259100004,0 72.83621669900003,19.27059715500008,0 72.83556331100004,19.27016418800002,0 72.83531305400004,19.26977054900004,0 72.83510447400005,19.26911446200006,0 72.83471519300008,19.26856336300006,0 72.83410352300007,19.26826160000007,0 72.83340847600005,19.26827477400008,0 72.83294974700004,19.26832729400007,0 72.83217111500005,19.26883913200004,0 72.83170027800003,19.26925907600003,0 72.83140838100007,19.26954778400005,0 72.83103307200008,19.26974464100005,0 72.83001265400003,19.26977528800006,0 72.82882284400006,19.26986287500006,0 72.82797489800004,19.27002038400008,0 72.82716865800006,19.27034847400006,0 72.82684893500004,19.27038785400003,0 72.82644579900006,19.27034850400003,0 72.82597315400005,19.27026978900005,0 72.82586194900006,19.27038789300008,0 72.82566733900006,19.27057161100004,0 72.82523638400005,19.27030918200006,0 72.82479153700007,19.27030919600003,0 72.82411488700006,19.27079303100004,0 72.82370233800003,19.27132503900003,0 
						</coordinates>
					</LinearRing>
				</outerBoundaryIs>
			</Polygon>
		</Placemark>
	</Document>
</Folder>
</kml>
