<?xml version="1.0" encoding="UTF-8"?>
<kml xmlns="http://www.opengis.net/kml/2.2" xmlns:gx="http://www.google.com/kml/ext/2.2" xmlns:kml="http://www.opengis.net/kml/2.2" xmlns:atom="http://www.w3.org/2005/Atom">
<Folder>
	<name>Temporary Places</name>
	<open>1</open>
	<Document>
		<name>Ward 7.kml</name>
		<StyleMap id="m_ylw-pushpin">
			<Pair>
				<key>normal</key>
				<styleUrl>#s_ylw-pushpin</styleUrl>
			</Pair>
			<Pair>
				<key>highlight</key>
				<styleUrl>#s_ylw-pushpin_hl</styleUrl>
			</Pair>
		</StyleMap>
		<Style id="s_ylw-pushpin">
			<IconStyle>
				<scale>1.1</scale>
				<Icon>
					<href>http://maps.google.com/mapfiles/kml/pushpin/ylw-pushpin.png</href>
				</Icon>
				<hotSpot x="20" y="2" xunits="pixels" yunits="pixels"/>
			</IconStyle>
			<LineStyle>
				<color>ffffff55</color>
				<width>3</width>
			</LineStyle>
			<PolyStyle>
				<fill>0</fill>
			</PolyStyle>
		</Style>
		<Style id="s_ylw-pushpin_hl">
			<IconStyle>
				<scale>1.3</scale>
				<Icon>
					<href>http://maps.google.com/mapfiles/kml/pushpin/ylw-pushpin.png</href>
				</Icon>
				<hotSpot x="20" y="2" xunits="pixels" yunits="pixels"/>
			</IconStyle>
			<LineStyle>
				<color>ffffff55</color>
				<width>3</width>
			</LineStyle>
			<PolyStyle>
				<fill>0</fill>
			</PolyStyle>
		</Style>
		<Placemark>
			<name>Ward 7.kml</name>
			<styleUrl>#m_ylw-pushpin</styleUrl>
			<Polygon>
				<tessellate>1</tessellate>
				<outerBoundaryIs>
					<LinearRing>
						<coordinates>
							76.77955746900005,19.27653391041143,0 76.77955258900005,19.27653589941142,0 76.77913450500006,19.27576780941144,0 76.77884774100005,19.27526807541143,0 76.77884482500008,19.27526299441145,0 76.77787700800008,19.27546525841144,0 76.77705835500007,19.27561992541144,0 76.77632279200003,19.27576804841146,0 76.77631340200008,19.27576993841144,0 76.77615157500003,19.27565591941147,0 76.77608870800003,19.27561829441148,0 76.77549177700007,19.27526104241146,0 76.77552814700005,19.27547091141145,0 76.77561424600003,19.27596772841144,0 76.77550361000004,19.27600208041144,0 76.77543027500008,19.27570017641143,0 76.77539394400003,19.27549392441144,0 76.77525681800006,19.27442632341147,0 76.77515849900004,19.27366085341152,0 76.77481440700006,19.27179059741154,0 76.77481472900007,19.27179055241156,0 76.77498881100007,19.27176628441155,0 76.77409524600006,19.27033058041158,0 76.77412008600004,19.26978836641159,0 76.77415698800007,19.26817300741166,0 76.77441650300005,19.26802185241163,0 76.77469441600005,19.26789595141165,0 76.77500729100007,19.26770757541167,0 76.77531600100008,19.26765562741165,0 76.77651387700007,19.26748329641166,0 76.77672734200007,19.26778562441164,0 76.77715270300007,19.26847116341164,0 76.77714165100008,19.26847452441162,0 76.77731744000005,19.26873666541162,0 76.77785364700003,19.26924646241162,0 76.77903626500006,19.27043906941158,0 76.77987892900006,19.27128169341154,0 76.78137782000005,19.27260068941152,0 76.78181832100006,19.2730111414115,0 76.78212764700004,19.2732993664115,0 76.78384258400007,19.27472348141149,0 76.78320115500003,19.27503800741143,0 76.78278963800005,19.27521649341146,0 76.78238920300004,19.27539018141142,0 76.78165709000007,19.27570774541141,0 76.78111878600004,19.27594124141143,0 76.78110898500006,19.27594492841143,0 76.78043755900006,19.27619752241145,0 76.78033054800005,19.27623903441144,0 76.77955746900005,19.27653391041143,0 
						</coordinates>
					</LinearRing>
				</outerBoundaryIs>
			</Polygon>
		</Placemark>
	</Document>
	<Document>
		<name>Ward 8.kml</name>
		<StyleMap id="m_ylw-pushpin0">
			<Pair>
				<key>normal</key>
				<styleUrl>#s_ylw-pushpin0</styleUrl>
			</Pair>
			<Pair>
				<key>highlight</key>
				<styleUrl>#s_ylw-pushpin_hl0</styleUrl>
			</Pair>
		</StyleMap>
		<Style id="s_ylw-pushpin0">
			<IconStyle>
				<scale>1.1</scale>
				<Icon>
					<href>http://maps.google.com/mapfiles/kml/pushpin/ylw-pushpin.png</href>
				</Icon>
				<hotSpot x="20" y="2" xunits="pixels" yunits="pixels"/>
			</IconStyle>
			<LineStyle>
				<color>ffffff55</color>
				<width>3</width>
			</LineStyle>
			<PolyStyle>
				<fill>0</fill>
			</PolyStyle>
		</Style>
		<Style id="s_ylw-pushpin_hl0">
			<IconStyle>
				<scale>1.3</scale>
				<Icon>
					<href>http://maps.google.com/mapfiles/kml/pushpin/ylw-pushpin.png</href>
				</Icon>
				<hotSpot x="20" y="2" xunits="pixels" yunits="pixels"/>
			</IconStyle>
			<LineStyle>
				<color>ffffff55</color>
				<width>3</width>
			</LineStyle>
			<PolyStyle>
				<fill>0</fill>
			</PolyStyle>
		</Style>
		<Placemark>
			<name>Ward 8.kml</name>
			<styleUrl>#m_ylw-pushpin0</styleUrl>
			<Polygon>
				<tessellate>1</tessellate>
				<outerBoundaryIs>
					<LinearRing>
						<coordinates>
							76.77078659100005,19.27202593041152,0 76.77088610900006,19.26963253441157,0 76.76939600600008,19.26989568141155,0 76.76925106100003,19.26948066541161,0 76.76929162000005,19.26921123441162,0 76.76902871900006,19.26893347741164,0 76.76890217600004,19.2685491964116,0 76.76890217200008,19.26854916241162,0 76.76891147900005,19.26823013041163,0 76.76900641700007,19.26815337841165,0 76.76913356000006,19.26807086041166,0 76.76913403500004,19.26805020741162,0 76.76915269300008,19.26803512241165,0 76.76914978400004,19.26742176541165,0 76.76895422700005,19.26746211341167,0 76.76868907200003,19.26750500841165,0 76.76853995100004,19.2664819274117,0 76.76902104200008,19.26642090841166,0 76.76964428300005,19.2663418594117,0 76.77059955700008,19.26625892341168,0 76.77053875800004,19.26593632441168,0 76.77055032600003,19.26560736141167,0 76.77054649700005,19.26557179141171,0 76.77048994200004,19.26530084341168,0 76.76991977400007,19.26390776841177,0 76.76971432700003,19.26345940941176,0 76.76928395600004,19.26290824241175,0 76.76863790300007,19.26213540841179,0 76.76847850300004,19.26190536441182,0 76.76934020100003,19.26186194241178,0 76.76935658300005,19.26145003941181,0 76.76935663300003,19.26144877341178,0 76.76943041000004,19.26145053941181,0 76.77004183900004,19.26146518041182,0 76.77004207600004,19.26152585141179,0 76.77101324700004,19.26170229441182,0 76.77077179600008,19.26330501141175,0 76.77151598200004,19.26361109441175,0 76.77193201700004,19.26374525241172,0 76.77200350400005,19.26376830541173,0 76.77283447500008,19.26406790041173,0 76.77468938200008,19.26407396741174,0 76.77528242300008,19.26386595141176,0 76.77516448700004,19.26521500941175,0 76.77544216000007,19.26522724541171,0 76.77566827800007,19.26522365541171,0 76.77576238300003,19.26520785141171,0 76.77614840600006,19.26513632841169,0 76.77632253300004,19.26512601141172,0 76.77660459000003,19.2650993094117,0 76.77709122200008,19.26502616241174,0 76.77706690900004,19.26473178041168,0 76.77737885400006,19.26450895241176,0 76.77751638900008,19.26447214741171,0 76.77763697600005,19.26570967741171,0 76.77743580600008,19.2657639774117,0 76.77743665500003,19.2657686324117,0 76.77758292600004,19.26657102841165,0 76.77694551800005,19.26686145441164,0 76.77710295600008,19.26729600141163,0 76.77651387700007,19.26748329641166,0 76.77531600100008,19.26765562741165,0 76.77500729100007,19.26770757541167,0 76.77469441600005,19.26789595141165,0 76.77441650300005,19.26802185241163,0 76.77415698800007,19.26817300741166,0 76.77412008600004,19.26978836641159,0 76.77409524600006,19.27033058041158,0 76.77498881100007,19.27176628441155,0 76.77481024900004,19.27178820641153,0 76.77252094500005,19.27192021941152,0 76.77078659100005,19.27202593041152,0 
						</coordinates>
					</LinearRing>
				</outerBoundaryIs>
			</Polygon>
		</Placemark>
	</Document>
	<Document>
		<name>Ward 9.kml</name>
		<StyleMap id="m_ylw-pushpin1">
			<Pair>
				<key>normal</key>
				<styleUrl>#s_ylw-pushpin1</styleUrl>
			</Pair>
			<Pair>
				<key>highlight</key>
				<styleUrl>#s_ylw-pushpin_hl1</styleUrl>
			</Pair>
		</StyleMap>
		<Style id="s_ylw-pushpin1">
			<IconStyle>
				<scale>1.1</scale>
				<Icon>
					<href>http://maps.google.com/mapfiles/kml/pushpin/ylw-pushpin.png</href>
				</Icon>
				<hotSpot x="20" y="2" xunits="pixels" yunits="pixels"/>
			</IconStyle>
			<LineStyle>
				<color>ffffff55</color>
				<width>3</width>
			</LineStyle>
			<PolyStyle>
				<fill>0</fill>
			</PolyStyle>
		</Style>
		<Style id="s_ylw-pushpin_hl1">
			<IconStyle>
				<scale>1.3</scale>
				<Icon>
					<href>http://maps.google.com/mapfiles/kml/pushpin/ylw-pushpin.png</href>
				</Icon>
				<hotSpot x="20" y="2" xunits="pixels" yunits="pixels"/>
			</IconStyle>
			<LineStyle>
				<color>ffffff55</color>
				<width>3</width>
			</LineStyle>
			<PolyStyle>
				<fill>0</fill>
			</PolyStyle>
		</Style>
		<Placemark>
			<name>Ward 9.kml</name>
			<styleUrl>#m_ylw-pushpin1</styleUrl>
			<Polygon>
				<tessellate>1</tessellate>
				<outerBoundaryIs>
					<LinearRing>
						<coordinates>
							76.76096260600008,19.27747559141138,0 76.76140865200006,19.27437095441148,0 76.76152704100008,19.27354691841151,0 76.76172800100005,19.27222017541155,0 76.76195718600007,19.27070708741157,0 76.76266000500004,19.26903420141162,0 76.76396026600008,19.26902093041162,0 76.76508322300003,19.26902485941162,0 76.76639559300008,19.26901748841164,0 76.76683149000007,19.26901503941162,0 76.76746254900007,19.26901572041164,0 76.76784530000003,19.26901613441163,0 76.76809496000004,19.26896360141161,0 76.76864892400005,19.26879446541159,0 76.76880883900003,19.26873405841162,0 76.76883306000008,19.26878595441162,0 76.76883815300005,19.2687955994116,0 76.76894331800008,19.26887890641162,0 76.76900616400007,19.2689190654116,0 76.76902871900006,19.26893347741164,0 76.76928949600006,19.26921784541162,0 76.76924235200005,19.26943926641161,0 76.76939787000003,19.26991307941158,0 76.77087583900004,19.26964965941157,0 76.77078659100005,19.27202593041152,0 76.77072543600008,19.27359392641148,0 76.77072539000005,19.27359768241149,0 76.77093232900006,19.27519228641143,0 76.77044097100008,19.27526499441144,0 76.77040693200007,19.27540105641147,0 76.76885334300005,19.27553181441142,0 76.76892632500005,19.2763790794114,0 76.76900792000004,19.27732634341142,0 76.76736506500004,19.2775216644114,0 76.76733815300008,19.27752489041138,0 76.76738302800004,19.27781978341137,0 76.76646472200008,19.27801108641136,0 76.76646079100004,19.27801190541141,0 76.76642984500006,19.2780106964114,0 76.76553380500008,19.27797569141137,0 76.76286216700004,19.2776666774114,0 76.76096260600008,19.27747559141138,0 
						</coordinates>
					</LinearRing>
				</outerBoundaryIs>
			</Polygon>
		</Placemark>
	</Document>
	<Document>
		<name>Ward 10.kml</name>
		<StyleMap id="m_ylw-pushpin2">
			<Pair>
				<key>normal</key>
				<styleUrl>#s_ylw-pushpin2</styleUrl>
			</Pair>
			<Pair>
				<key>highlight</key>
				<styleUrl>#s_ylw-pushpin_hl2</styleUrl>
			</Pair>
		</StyleMap>
		<Style id="s_ylw-pushpin2">
			<IconStyle>
				<scale>1.1</scale>
				<Icon>
					<href>http://maps.google.com/mapfiles/kml/pushpin/ylw-pushpin.png</href>
				</Icon>
				<hotSpot x="20" y="2" xunits="pixels" yunits="pixels"/>
			</IconStyle>
			<LineStyle>
				<color>ffffff55</color>
				<width>3</width>
			</LineStyle>
			<PolyStyle>
				<fill>0</fill>
			</PolyStyle>
		</Style>
		<Style id="s_ylw-pushpin_hl2">
			<IconStyle>
				<scale>1.3</scale>
				<Icon>
					<href>http://maps.google.com/mapfiles/kml/pushpin/ylw-pushpin.png</href>
				</Icon>
				<hotSpot x="20" y="2" xunits="pixels" yunits="pixels"/>
			</IconStyle>
			<LineStyle>
				<color>ffffff55</color>
				<width>3</width>
			</LineStyle>
			<PolyStyle>
				<fill>0</fill>
			</PolyStyle>
		</Style>
		<Placemark>
			<name>Ward 10.kml</name>
			<styleUrl>#m_ylw-pushpin2</styleUrl>
			<Polygon>
				<tessellate>1</tessellate>
				<outerBoundaryIs>
					<LinearRing>
						<coordinates>
							76.76140865200006,19.27437095441148,0 76.76096260600008,19.27747559141138,0 76.75899570900003,19.28061577941133,0 76.75660491100007,19.28475977741118,0 76.75591222400004,19.28555680141116,0 76.75532686700006,19.28623032741116,0 76.75168719800007,19.29045526641103,0 76.74986136000007,19.29637205041091,0 76.74752881100005,19.29607164741093,0 76.73793673700004,19.29388227641095,0 76.73740428600007,19.29048798241106,0 76.74070755100007,19.28746443241111,0 76.74024310200008,19.28475240341123,0 76.73962554700006,19.2815192084113,0 76.73961904400005,19.2814851574113,0 76.74168529900004,19.28122535841132,0 76.74337757300003,19.28115178341129,0 76.74689168400005,19.28038335841131,0 76.74856846400007,19.28137044641127,0 76.74890854300008,19.2811138394113,0 76.75082438300007,19.28042698241131,0 76.75083395900003,19.28042354941129,0 76.75257209300008,19.27944932241134,0 76.75158603700004,19.27668194441144,0 76.75139420500005,19.2766271164114,0 76.75105294100007,19.27571427941144,0 76.75146279100005,19.27554649741144,0 76.75142040600008,19.27541503941144,0 76.75134788300005,19.27519010241145,0 76.75118202200008,19.27524255741146,0 76.75064110200003,19.27350257441151,0 76.75064228200006,19.27350206841152,0 76.75443307200004,19.27187525841155,0 76.75505290000007,19.27167952141155,0 76.75614765200004,19.27146117341152,0 76.75819420400006,19.27110777441159,0 76.75823349600006,19.27110395541155,0 76.76195718600007,19.27070708741157,0 76.76172800100005,19.27222017541155,0 76.76152704100008,19.27354691841151,0 76.76140865200006,19.27437095441148,0 
						</coordinates>
					</LinearRing>
				</outerBoundaryIs>
			</Polygon>
		</Placemark>
	</Document>
	<Document>
		<name>Ward 11.kml</name>
		<StyleMap id="m_ylw-pushpin3">
			<Pair>
				<key>normal</key>
				<styleUrl>#s_ylw-pushpin3</styleUrl>
			</Pair>
			<Pair>
				<key>highlight</key>
				<styleUrl>#s_ylw-pushpin_hl3</styleUrl>
			</Pair>
		</StyleMap>
		<Style id="s_ylw-pushpin3">
			<IconStyle>
				<scale>1.1</scale>
				<Icon>
					<href>http://maps.google.com/mapfiles/kml/pushpin/ylw-pushpin.png</href>
				</Icon>
				<hotSpot x="20" y="2" xunits="pixels" yunits="pixels"/>
			</IconStyle>
			<LineStyle>
				<color>ffffff55</color>
				<width>3</width>
			</LineStyle>
			<PolyStyle>
				<fill>0</fill>
			</PolyStyle>
		</Style>
		<Style id="s_ylw-pushpin_hl3">
			<IconStyle>
				<scale>1.3</scale>
				<Icon>
					<href>http://maps.google.com/mapfiles/kml/pushpin/ylw-pushpin.png</href>
				</Icon>
				<hotSpot x="20" y="2" xunits="pixels" yunits="pixels"/>
			</IconStyle>
			<LineStyle>
				<color>ffffff55</color>
				<width>3</width>
			</LineStyle>
			<PolyStyle>
				<fill>0</fill>
			</PolyStyle>
		</Style>
		<Placemark>
			<name>Ward 11.kml</name>
			<styleUrl>#m_ylw-pushpin3</styleUrl>
			<Polygon>
				<tessellate>1</tessellate>
				<outerBoundaryIs>
					<LinearRing>
						<coordinates>
							76.73961904400005,19.2814851574113,0 76.73890363600003,19.27877202441134,0 76.73828672300004,19.27627643641142,0 76.73824380900004,19.27549059641144,0 76.73819330500004,19.27454341941147,0 76.73813607300008,19.2739638134115,0 76.73810104900008,19.27334195241151,0 76.73760109100004,19.2726984194115,0 76.74929307800005,19.26723993641166,0 76.75131604600006,19.26630473041169,0 76.75132929500006,19.26661153341167,0 76.75133580800008,19.2666129824117,0 76.75133582000007,19.26661318041165,0 76.75148551200004,19.26664628841166,0 76.75166040400006,19.26668496941166,0 76.75166138000003,19.26668541541165,0 76.75175529700005,19.26672819141169,0 76.75177588800005,19.26673883241166,0 76.75223193500005,19.26697979241169,0 76.75224098900003,19.26738843141168,0 76.75208843300004,19.26785096841164,0 76.75236883100007,19.26788936041167,0 76.75247248600004,19.26791359141166,0 76.75251321200005,19.26792311141165,0 76.75382085000007,19.27058151541158,0 76.75445307200005,19.27186679441154,0 76.75443307200004,19.27187525841155,0 76.75064228200006,19.27350206841152,0 76.75118202200008,19.27524255741146,0 76.75134788300005,19.27519010241145,0 76.75142040600008,19.27541503941144,0 76.75146279100005,19.27554649741144,0 76.75105294100007,19.27571427941144,0 76.75139420500005,19.2766271164114,0 76.75158603700004,19.27668194441144,0 76.75257209300008,19.27944932241134,0 76.75083395900003,19.28042354941129,0 76.75082438300007,19.28042698241131,0 76.74890854300008,19.2811138394113,0 76.74856846400007,19.28137044641127,0 76.74689168400005,19.28038335841131,0 76.74337757300003,19.28115178341129,0 76.74168529900004,19.28122535841132,0 76.73961904400005,19.2814851574113,0 
						</coordinates>
					</LinearRing>
				</outerBoundaryIs>
			</Polygon>
		</Placemark>
	</Document>
	<Document>
		<name>Ward 12.kml</name>
		<StyleMap id="m_ylw-pushpin4">
			<Pair>
				<key>normal</key>
				<styleUrl>#s_ylw-pushpin4</styleUrl>
			</Pair>
			<Pair>
				<key>highlight</key>
				<styleUrl>#s_ylw-pushpin_hl4</styleUrl>
			</Pair>
		</StyleMap>
		<Style id="s_ylw-pushpin4">
			<IconStyle>
				<scale>1.1</scale>
				<Icon>
					<href>http://maps.google.com/mapfiles/kml/pushpin/ylw-pushpin.png</href>
				</Icon>
				<hotSpot x="20" y="2" xunits="pixels" yunits="pixels"/>
			</IconStyle>
			<LineStyle>
				<color>ffffff55</color>
				<width>3</width>
			</LineStyle>
			<PolyStyle>
				<fill>0</fill>
			</PolyStyle>
		</Style>
		<Style id="s_ylw-pushpin_hl4">
			<IconStyle>
				<scale>1.3</scale>
				<Icon>
					<href>http://maps.google.com/mapfiles/kml/pushpin/ylw-pushpin.png</href>
				</Icon>
				<hotSpot x="20" y="2" xunits="pixels" yunits="pixels"/>
			</IconStyle>
			<LineStyle>
				<color>ffffff55</color>
				<width>3</width>
			</LineStyle>
			<PolyStyle>
				<fill>0</fill>
			</PolyStyle>
		</Style>
		<Placemark>
			<name>Ward 12.kml</name>
			<styleUrl>#m_ylw-pushpin4</styleUrl>
			<Polygon>
				<tessellate>1</tessellate>
				<outerBoundaryIs>
					<LinearRing>
						<coordinates>
							76.73760109100004,19.2726984194115,0 76.73557497500008,19.26901326941163,0 76.73399575500008,19.26614715641167,0 76.73819769000005,19.26422802141174,0 76.74275019400005,19.25914687641184,0 76.74733449900003,19.25434397241201,0 76.74945567600008,19.25277615241205,0 76.75106596200004,19.25277802341204,0 76.75197199400003,19.25336726041202,0 76.75266062400004,19.253032428412,0 76.75383206300006,19.25115091041204,0 76.75386481100008,19.25117100741205,0 76.75829307600003,19.25388850841199,0 76.75888724200007,19.25424747041199,0 76.76177505900006,19.25600127241194,0 76.76219022200007,19.2576167564119,0 76.76204771200008,19.25769532841191,0 76.76204566000007,19.25769108741191,0 76.76196387300007,19.2575220274119,0 76.76195496600008,19.2575036174119,0 76.76068373700008,19.25838967741191,0 76.76059715200006,19.25845162541189,0 76.76085487900008,19.25911571541187,0 76.76191638600005,19.26171230741178,0 76.76100357100006,19.26201638441178,0 76.75983988300004,19.26245208741176,0 76.75857402600008,19.26292604341176,0 76.75856578000008,19.26292991041179,0 76.75833035500006,19.26301727741178,0 76.75574158200004,19.26423200941174,0 76.75370494100008,19.26520035141169,0 76.75335626400005,19.2653661324117,0 76.75334701000008,19.26537039041169,0 76.75131604600006,19.26630473041169,0 76.74929307800005,19.26723993641166,0 76.73760109100004,19.2726984194115,0 
						</coordinates>
					</LinearRing>
				</outerBoundaryIs>
			</Polygon>
		</Placemark>
	</Document>
	<Document>
		<name>Ward 13.kml</name>
		<StyleMap id="m_ylw-pushpin5">
			<Pair>
				<key>normal</key>
				<styleUrl>#s_ylw-pushpin5</styleUrl>
			</Pair>
			<Pair>
				<key>highlight</key>
				<styleUrl>#s_ylw-pushpin_hl5</styleUrl>
			</Pair>
		</StyleMap>
		<Style id="s_ylw-pushpin5">
			<IconStyle>
				<scale>1.1</scale>
				<Icon>
					<href>http://maps.google.com/mapfiles/kml/pushpin/ylw-pushpin.png</href>
				</Icon>
				<hotSpot x="20" y="2" xunits="pixels" yunits="pixels"/>
			</IconStyle>
			<LineStyle>
				<color>ffffff55</color>
				<width>3</width>
			</LineStyle>
			<PolyStyle>
				<fill>0</fill>
			</PolyStyle>
		</Style>
		<Style id="s_ylw-pushpin_hl5">
			<IconStyle>
				<scale>1.3</scale>
				<Icon>
					<href>http://maps.google.com/mapfiles/kml/pushpin/ylw-pushpin.png</href>
				</Icon>
				<hotSpot x="20" y="2" xunits="pixels" yunits="pixels"/>
			</IconStyle>
			<LineStyle>
				<color>ffffff55</color>
				<width>3</width>
			</LineStyle>
			<PolyStyle>
				<fill>0</fill>
			</PolyStyle>
		</Style>
		<Placemark>
			<name>Ward 13.kml</name>
			<styleUrl>#m_ylw-pushpin5</styleUrl>
			<Polygon>
				<tessellate>1</tessellate>
				<outerBoundaryIs>
					<LinearRing>
						<coordinates>
							76.76462926700003,19.26070757741183,0 76.76470309200005,19.26095392641183,0 76.76379247800008,19.26208741341181,0 76.76347335200006,19.26426943741173,0 76.76322095400008,19.2661072284117,0 76.76292056600005,19.26829443041165,0 76.76266000500004,19.26903420141162,0 76.76195718600007,19.27070708741157,0 76.75823349600006,19.27110395541155,0 76.75819420400006,19.27110777441159,0 76.75614765200004,19.27146117341152,0 76.75505290000007,19.27167952141155,0 76.75443307200004,19.27187525841155,0 76.75445307200005,19.27186679441154,0 76.75382085000007,19.27058151541158,0 76.75251321200005,19.26792311141165,0 76.75247248600004,19.26791359141166,0 76.75236883100007,19.26788936041167,0 76.75208843300004,19.26785096841164,0 76.75224098900003,19.26738843141168,0 76.75223193500005,19.26697979241169,0 76.75177588800005,19.26673883241166,0 76.75175529700005,19.26672819141169,0 76.75166138000003,19.26668541541165,0 76.75166040400006,19.26668496941166,0 76.75148551200004,19.26664628841166,0 76.75133582000007,19.26661318041165,0 76.75133580800008,19.2666129824117,0 76.75132929500006,19.26661153341167,0 76.75131604600006,19.26630473041169,0 76.75334701000008,19.26537039041169,0 76.75335626400005,19.2653661324117,0 76.75370494100008,19.26520035141169,0 76.75574158200004,19.26423200941174,0 76.75833035500006,19.26301727741178,0 76.75856578000008,19.26292991041179,0 76.75857402600008,19.26292604341176,0 76.75983988300004,19.26245208741176,0 76.76100357100006,19.26201638441178,0 76.76191638600005,19.26171230741178,0 76.76462926700003,19.26070757741183,0 
						</coordinates>
					</LinearRing>
				</outerBoundaryIs>
			</Polygon>
		</Placemark>
	</Document>
	<Document>
		<name>Ward 14.kml</name>
		<StyleMap id="m_ylw-pushpin6">
			<Pair>
				<key>normal</key>
				<styleUrl>#s_ylw-pushpin6</styleUrl>
			</Pair>
			<Pair>
				<key>highlight</key>
				<styleUrl>#s_ylw-pushpin_hl6</styleUrl>
			</Pair>
		</StyleMap>
		<Style id="s_ylw-pushpin6">
			<IconStyle>
				<scale>1.1</scale>
				<Icon>
					<href>http://maps.google.com/mapfiles/kml/pushpin/ylw-pushpin.png</href>
				</Icon>
				<hotSpot x="20" y="2" xunits="pixels" yunits="pixels"/>
			</IconStyle>
			<LineStyle>
				<color>ffffff55</color>
				<width>3</width>
			</LineStyle>
			<PolyStyle>
				<fill>0</fill>
			</PolyStyle>
		</Style>
		<Style id="s_ylw-pushpin_hl6">
			<IconStyle>
				<scale>1.3</scale>
				<Icon>
					<href>http://maps.google.com/mapfiles/kml/pushpin/ylw-pushpin.png</href>
				</Icon>
				<hotSpot x="20" y="2" xunits="pixels" yunits="pixels"/>
			</IconStyle>
			<LineStyle>
				<color>ffffff55</color>
				<width>3</width>
			</LineStyle>
			<PolyStyle>
				<fill>0</fill>
			</PolyStyle>
		</Style>
		<Placemark>
			<name>Ward 14.kml</name>
			<styleUrl>#m_ylw-pushpin6</styleUrl>
			<Polygon>
				<tessellate>1</tessellate>
				<outerBoundaryIs>
					<LinearRing>
						<coordinates>
							76.76470309200005,19.26095392641183,0 76.76701521000007,19.26016963341182,0 76.76761721500003,19.26089865441183,0 76.76847850300004,19.26190536441182,0 76.76863790300007,19.26213540841179,0 76.76928395600004,19.26290824241175,0 76.76971432700003,19.26345940941176,0 76.76991977400007,19.26390776841177,0 76.77048994200004,19.26530084341168,0 76.77054649700005,19.26557179141171,0 76.77055032600003,19.26560736141167,0 76.77053875800004,19.26593632441168,0 76.77059955700008,19.26625892341168,0 76.76964428300005,19.2663418594117,0 76.76902104200008,19.26642090841166,0 76.76853995100004,19.2664819274117,0 76.76868907200003,19.26750500841165,0 76.76895422700005,19.26746211341167,0 76.76914978400004,19.26742176541165,0 76.76915269300008,19.26803512241165,0 76.76913403500004,19.26805020741162,0 76.76913356000006,19.26807086041166,0 76.76900641700007,19.26815337841165,0 76.76891147900005,19.26823013041163,0 76.76890217200008,19.26854916241162,0 76.76890217600004,19.2685491964116,0 76.76902871900006,19.26893347741164,0 76.76900616400007,19.2689190654116,0 76.76894331800008,19.26887890641162,0 76.76883815300005,19.2687955994116,0 76.76883306000008,19.26878595441162,0 76.76880883900003,19.26873405841162,0 76.76864892400005,19.26879446541159,0 76.76809496000004,19.26896360141161,0 76.76784530000003,19.26901613441163,0 76.76746254900007,19.26901572041164,0 76.76683149000007,19.26901503941162,0 76.76639559300008,19.26901748841164,0 76.76508322300003,19.26902485941162,0 76.76396026600008,19.26902093041162,0 76.76266000500004,19.26903420141162,0 76.76292056600005,19.26829443041165,0 76.76322095400008,19.2661072284117,0 76.76347335200006,19.26426943741173,0 76.76379247800008,19.26208741341181,0 76.76470309200005,19.26095392641183,0 
						</coordinates>
					</LinearRing>
				</outerBoundaryIs>
			</Polygon>
		</Placemark>
	</Document>
	<Document>
		<name>Ward 15.kml</name>
		<StyleMap id="m_ylw-pushpin7">
			<Pair>
				<key>normal</key>
				<styleUrl>#s_ylw-pushpin7</styleUrl>
			</Pair>
			<Pair>
				<key>highlight</key>
				<styleUrl>#s_ylw-pushpin_hl7</styleUrl>
			</Pair>
		</StyleMap>
		<Style id="s_ylw-pushpin7">
			<IconStyle>
				<scale>1.1</scale>
				<Icon>
					<href>http://maps.google.com/mapfiles/kml/pushpin/ylw-pushpin.png</href>
				</Icon>
				<hotSpot x="20" y="2" xunits="pixels" yunits="pixels"/>
			</IconStyle>
			<LineStyle>
				<color>ffffff55</color>
				<width>3</width>
			</LineStyle>
			<PolyStyle>
				<fill>0</fill>
			</PolyStyle>
		</Style>
		<Style id="s_ylw-pushpin_hl7">
			<IconStyle>
				<scale>1.3</scale>
				<Icon>
					<href>http://maps.google.com/mapfiles/kml/pushpin/ylw-pushpin.png</href>
				</Icon>
				<hotSpot x="20" y="2" xunits="pixels" yunits="pixels"/>
			</IconStyle>
			<LineStyle>
				<color>ffffff55</color>
				<width>3</width>
			</LineStyle>
			<PolyStyle>
				<fill>0</fill>
			</PolyStyle>
		</Style>
		<Placemark>
			<name>Ward 15.kml</name>
			<styleUrl>#m_ylw-pushpin7</styleUrl>
			<Polygon>
				<tessellate>1</tessellate>
				<outerBoundaryIs>
					<LinearRing>
						<coordinates>
							76.77156888200005,19.2581525624119,0 76.77172788600006,19.2580975014119,0 76.77264947300006,19.25777836741192,0 76.77600728000004,19.25661559841193,0 76.77620636800003,19.25654665741194,0 76.77671659500004,19.25636997041191,0 76.77895729900007,19.25559403541196,0 76.77895794400007,19.25559361341198,0 76.78133666200006,19.254032704412,0 76.78591698100007,19.2510270694121,0 76.78597770100004,19.2509872244121,0 76.78604751900008,19.25094764041207,0 76.78987168500004,19.24877953541212,0 76.79119626500005,19.24802856041217,0 76.79468663300008,19.24604966741223,0 76.79647620800006,19.24510779341222,0 76.80051383200004,19.24298272741231,0 76.80062983500005,19.24291686941227,0 76.80619743700004,19.23978047341236,0 76.80637014400008,19.23968318141235,0 76.81076237000008,19.23720886641244,0 76.81346813500005,19.23570361241248,0 76.81348735200004,19.23575874441248,0 76.81536075600008,19.24113352041233,0 76.81472675900005,19.24151043741231,0 76.81551496100008,19.24541888441222,0 76.81626334100008,19.25236538341202,0 76.81677412900007,19.25493061841198,0 76.81439526700007,19.25548092341195,0 76.81446673300007,19.25654270241192,0 76.81442560100004,19.25849319441187,0 76.81456113500008,19.25957411441188,0 76.81459437200004,19.26112716941184,0 76.80792661400005,19.25704994941194,0 76.80458092400005,19.25501123841198,0 76.80238159100008,19.25369010741201,0 76.79978316800003,19.25225378241206,0 76.79922684000007,19.25210025441207,0 76.79853968100008,19.25196859541204,0 76.79384856200005,19.25324474141201,0 76.78976693900006,19.25434318341199,0 76.78825880400007,19.25477352741197,0 76.78723216100008,19.25505079641194,0 76.78572966300004,19.25581437441196,0 76.78566886100003,19.25584527441197,0 76.78435048500006,19.25714676141192,0 76.78381919400005,19.25765615741188,0 76.78379910700005,19.25767379641192,0 76.78276834700006,19.25857897941187,0 76.78171567500004,19.25955773641183,0 76.78209221000003,19.26069344641182,0 76.78232438300006,19.26137327041178,0 76.78256137200003,19.26201558041181,0 76.78271681200005,19.26244214241177,0 76.78295296100003,19.26318325141174,0 76.78251180600006,19.26338152541176,0 76.78236347900008,19.26302001541175,0 76.78214799800008,19.26309150141178,0 76.78090974300005,19.26351960141173,0 76.78090633500005,19.26351207641174,0 76.78081134700005,19.26330232641178,0 76.78078109800003,19.26322075141177,0 76.78030421600005,19.26337151441178,0 76.78010473100005,19.26327461841178,0 76.78010160900004,19.26327310241178,0 76.77993742600006,19.26333032041177,0 76.77973380600008,19.26340128341176,0 76.77973836900003,19.26340888241178,0 76.77973319800003,19.26341092341173,0 76.77993232700004,19.26373182941174,0 76.77949536400007,19.26382473541176,0 76.77915289100008,19.26391427841175,0 76.77869356100007,19.26405931241177,0 76.77868939500007,19.26404779241172,0 76.77865675400005,19.26395754441173,0 76.77808612800004,19.26411868341172,0 76.77726506700003,19.26417792141174,0 76.77737885400006,19.26450895241176,0 76.77706690900004,19.26473178041168,0 76.77709122200008,19.26502616241174,0 76.77660459000003,19.2650993094117,0 76.77632253300004,19.26512601141172,0 76.77614840600006,19.26513632841169,0 76.77576238300003,19.26520785141171,0 76.77566827800007,19.26522365541171,0 76.77544216000007,19.26522724541171,0 76.77516448700004,19.26521500941175,0 76.77528242300008,19.26386595141176,0 76.77468938200008,19.26407396741174,0 76.77283447500008,19.26406790041173,0 76.77200350400005,19.26376830541173,0 76.77193201700004,19.26374525241172,0 76.77151598200004,19.26361109441175,0 76.77077179600008,19.26330501141175,0 76.77101324700004,19.26170229441182,0 76.77004207600004,19.26152585141179,0 76.77004183900004,19.26146518041182,0 76.76943041000004,19.26145053941181,0 76.76935663300003,19.26144877341178,0 76.76935658300005,19.26145003941181,0 76.76934020100003,19.26186194241178,0 76.76847850300004,19.26190536441182,0 76.76761721500003,19.26089865441183,0 76.76701521000007,19.26016963341182,0 76.76470309200005,19.26095392641183,0 76.76462926700003,19.26070757741183,0 76.77098705600008,19.25836677941192,0 76.77156888200005,19.2581525624119,0 
						</coordinates>
					</LinearRing>
				</outerBoundaryIs>
			</Polygon>
		</Placemark>
	</Document>
	<Document>
		<name>Ward 16.kml</name>
		<StyleMap id="m_ylw-pushpin8">
			<Pair>
				<key>normal</key>
				<styleUrl>#s_ylw-pushpin8</styleUrl>
			</Pair>
			<Pair>
				<key>highlight</key>
				<styleUrl>#s_ylw-pushpin_hl8</styleUrl>
			</Pair>
		</StyleMap>
		<Style id="s_ylw-pushpin8">
			<IconStyle>
				<scale>1.1</scale>
				<Icon>
					<href>http://maps.google.com/mapfiles/kml/pushpin/ylw-pushpin.png</href>
				</Icon>
				<hotSpot x="20" y="2" xunits="pixels" yunits="pixels"/>
			</IconStyle>
			<LineStyle>
				<color>ffffff55</color>
				<width>3</width>
			</LineStyle>
			<PolyStyle>
				<fill>0</fill>
			</PolyStyle>
		</Style>
		<Style id="s_ylw-pushpin_hl8">
			<IconStyle>
				<scale>1.3</scale>
				<Icon>
					<href>http://maps.google.com/mapfiles/kml/pushpin/ylw-pushpin.png</href>
				</Icon>
				<hotSpot x="20" y="2" xunits="pixels" yunits="pixels"/>
			</IconStyle>
			<LineStyle>
				<color>ffffff55</color>
				<width>3</width>
			</LineStyle>
			<PolyStyle>
				<fill>0</fill>
			</PolyStyle>
		</Style>
		<Placemark>
			<name>Ward 16.kml</name>
			<styleUrl>#m_ylw-pushpin8</styleUrl>
			<Polygon>
				<tessellate>1</tessellate>
				<outerBoundaryIs>
					<LinearRing>
						<coordinates>
							76.76191638600005,19.26171230741178,0 76.76085487900008,19.25911571541187,0 76.76059715200006,19.25845162541189,0 76.76068373700008,19.25838967741191,0 76.76195496600008,19.2575036174119,0 76.76196387300007,19.2575220274119,0 76.76204566000007,19.25769108741191,0 76.76204771200008,19.25769532841191,0 76.76219022200007,19.2576167564119,0 76.76177505900006,19.25600127241194,0 76.75888724200007,19.25424747041199,0 76.75829307600003,19.25388850841199,0 76.75386481100008,19.25117100741205,0 76.75518302500006,19.24898119541213,0 76.75827562800004,19.24560199541223,0 76.75750002100006,19.24420846541223,0 76.76048870900007,19.2428934594123,0 76.76232347400008,19.24247552341229,0 76.76412766900006,19.24054855041237,0 76.76634910200005,19.24053094941235,0 76.76839032500004,19.23895315041236,0 76.77256617300003,19.23980965341238,0 76.77518483700004,19.23883835041238,0 76.77942277000005,19.23785607441239,0 76.78089957700007,19.23689063041244,0 76.78359479900007,19.23644022141246,0 76.78524062500003,19.2337001904125,0 76.78932840100003,19.23132784641258,0 76.79167830300008,19.2309953224126,0 76.79242181500007,19.22881994741262,0 76.79496793300007,19.22793588241266,0 76.79735879000003,19.22538380041275,0 76.79995046200008,19.22326599441282,0 76.80217364900005,19.22112984041285,0 76.80501345100004,19.22047347441287,0 76.80828001800006,19.21743082541295,0 76.81346813500005,19.23570361241248,0 76.81076237000008,19.23720886641244,0 76.80637014400008,19.23968318141235,0 76.80619743700004,19.23978047341236,0 76.80062983500005,19.24291686941227,0 76.80051383200004,19.24298272741231,0 76.79647620800006,19.24510779341222,0 76.79468663300008,19.24604966741223,0 76.79119626500005,19.24802856041217,0 76.78987168500004,19.24877953541212,0 76.78604751900008,19.25094764041207,0 76.78597770100004,19.2509872244121,0 76.78591698100007,19.2510270694121,0 76.78133666200006,19.254032704412,0 76.77895794400007,19.25559361341198,0 76.77895729900007,19.25559403541196,0 76.77671659500004,19.25636997041191,0 76.77620636800003,19.25654665741194,0 76.77600728000004,19.25661559841193,0 76.77264947300006,19.25777836741192,0 76.77172788600006,19.2580975014119,0 76.77156888200005,19.2581525624119,0 76.77098705600008,19.25836677941192,0 76.76462926700003,19.26070757741183,0 76.76191638600005,19.26171230741178,0 
						</coordinates>
					</LinearRing>
				</outerBoundaryIs>
			</Polygon>
		</Placemark>
	</Document>
	<Document>
		<name>Ward 1.kml</name>
		<StyleMap id="m_ylw-pushpin9">
			<Pair>
				<key>normal</key>
				<styleUrl>#s_ylw-pushpin9</styleUrl>
			</Pair>
			<Pair>
				<key>highlight</key>
				<styleUrl>#s_ylw-pushpin_hl9</styleUrl>
			</Pair>
		</StyleMap>
		<Style id="s_ylw-pushpin9">
			<IconStyle>
				<scale>1.1</scale>
				<Icon>
					<href>http://maps.google.com/mapfiles/kml/pushpin/ylw-pushpin.png</href>
				</Icon>
				<hotSpot x="20" y="2" xunits="pixels" yunits="pixels"/>
			</IconStyle>
			<LineStyle>
				<color>ffffff55</color>
				<width>3</width>
			</LineStyle>
			<PolyStyle>
				<fill>0</fill>
			</PolyStyle>
		</Style>
		<Style id="s_ylw-pushpin_hl9">
			<IconStyle>
				<scale>1.3</scale>
				<Icon>
					<href>http://maps.google.com/mapfiles/kml/pushpin/ylw-pushpin.png</href>
				</Icon>
				<hotSpot x="20" y="2" xunits="pixels" yunits="pixels"/>
			</IconStyle>
			<LineStyle>
				<color>ffffff55</color>
				<width>3</width>
			</LineStyle>
			<PolyStyle>
				<fill>0</fill>
			</PolyStyle>
		</Style>
		<Placemark>
			<name>Ward 1.kml</name>
			<styleUrl>#m_ylw-pushpin9</styleUrl>
			<Polygon>
				<tessellate>1</tessellate>
				<outerBoundaryIs>
					<LinearRing>
						<coordinates>
							76.78021640800006,19.2961867734109,0 76.78095710300005,19.29740515741089,0 76.78296496100006,19.30034840141081,0 76.78475646200008,19.30628021541066,0 76.77980469500005,19.30699319041064,0 76.77950952800006,19.30542814141065,0 76.77555955100007,19.30562414741067,0 76.76178008500005,19.3047662494107,0 76.75292096200008,19.30456440241068,0 76.74954572500008,19.29769002441089,0 76.74986136000007,19.29637205041091,0 76.75168719800007,19.29045526641103,0 76.75532686700006,19.28623032741116,0 76.75591222400004,19.28555680141116,0 76.75660491100007,19.28475977741118,0 76.75899570900003,19.28061577941133,0 76.76096260600008,19.27747559141138,0 76.76286216700004,19.2776666774114,0 76.76553380500008,19.27797569141137,0 76.76642984500006,19.2780106964114,0 76.76646079100004,19.27801190541141,0 76.76646472200008,19.27801108641136,0 76.76738302800004,19.27781978341137,0 76.76733815300008,19.27752489041138,0 76.76736506500004,19.2775216644114,0 76.76741248700006,19.27751598141142,0 76.76900792000004,19.27732634341142,0 76.76892632500005,19.2763790794114,0 76.76885334300005,19.27553181441142,0 76.77040693200007,19.27540105641147,0 76.77044097100008,19.27526499441144,0 76.77093232900006,19.27519228641143,0 76.77072539000005,19.27359768241149,0 76.77072543600008,19.27359392641148,0 76.77078659100005,19.27202593041152,0 76.77252094500005,19.27192021941152,0 76.77481024900004,19.27178820641153,0 76.77498881100007,19.27176628441155,0 76.77481472900007,19.27179055241156,0 76.77481440700006,19.27179059741154,0 76.77515849900004,19.27366085341152,0 76.77525681800006,19.27442632341147,0 76.77539394400003,19.27549392441144,0 76.77543027500008,19.27570017641143,0 76.77550361000004,19.27600208041144,0 76.77579699000006,19.27751394641139,0 76.77609944400007,19.28083910041129,0 76.77606479100007,19.28106453041128,0 76.77593390700008,19.28226272841125,0 76.77629986300008,19.28400407741125,0 76.77675647900008,19.28566975641119,0 76.77687116200008,19.28608810441115,0 76.77730492300003,19.28767039141114,0 76.77731605800005,19.28774054441116,0 76.77741702400004,19.28817522741112,0 76.77791616300004,19.29150852041101,0 76.77896544100008,19.29484138241096,0 76.78021640800006,19.2961867734109,0 
						</coordinates>
					</LinearRing>
				</outerBoundaryIs>
			</Polygon>
		</Placemark>
	</Document>
	<Document>
		<name>Ward 2.kml</name>
		<StyleMap id="m_ylw-pushpin10">
			<Pair>
				<key>normal</key>
				<styleUrl>#s_ylw-pushpin10</styleUrl>
			</Pair>
			<Pair>
				<key>highlight</key>
				<styleUrl>#s_ylw-pushpin_hl10</styleUrl>
			</Pair>
		</StyleMap>
		<Style id="s_ylw-pushpin10">
			<IconStyle>
				<scale>1.1</scale>
				<Icon>
					<href>http://maps.google.com/mapfiles/kml/pushpin/ylw-pushpin.png</href>
				</Icon>
				<hotSpot x="20" y="2" xunits="pixels" yunits="pixels"/>
			</IconStyle>
			<LineStyle>
				<color>ffffff55</color>
				<width>3</width>
			</LineStyle>
			<PolyStyle>
				<fill>0</fill>
			</PolyStyle>
		</Style>
		<Style id="s_ylw-pushpin_hl10">
			<IconStyle>
				<scale>1.3</scale>
				<Icon>
					<href>http://maps.google.com/mapfiles/kml/pushpin/ylw-pushpin.png</href>
				</Icon>
				<hotSpot x="20" y="2" xunits="pixels" yunits="pixels"/>
			</IconStyle>
			<LineStyle>
				<color>ffffff55</color>
				<width>3</width>
			</LineStyle>
			<PolyStyle>
				<fill>0</fill>
			</PolyStyle>
		</Style>
		<Placemark>
			<name>Ward 2.kml</name>
			<styleUrl>#m_ylw-pushpin10</styleUrl>
			<Polygon>
				<tessellate>1</tessellate>
				<outerBoundaryIs>
					<LinearRing>
						<coordinates>
							76.77549177700007,19.27526104241146,0 76.77608870800003,19.27561829441148,0 76.77615157500003,19.27565591941147,0 76.77631340200008,19.27576993841144,0 76.77632279200003,19.27576804841146,0 76.77705835500007,19.27561992541144,0 76.77787700800008,19.27546525841144,0 76.77884482500008,19.27526299441145,0 76.77884774100005,19.27526807541143,0 76.77913450500006,19.27576780941144,0 76.77955258900005,19.27653589941142,0 76.77955746900005,19.27653391041143,0 76.78033054800005,19.27623903441144,0 76.78043755900006,19.27619752241145,0 76.78110898500006,19.27594492841143,0 76.78111878600004,19.27594124141143,0 76.78165709000007,19.27570774541141,0 76.78238920300004,19.27539018141142,0 76.78278963800005,19.27521649341146,0 76.78320115500003,19.27503800741143,0 76.78384258400007,19.27472348141149,0 76.78710117500003,19.27719964741143,0 76.78814622300007,19.27803712741138,0 76.79316679700008,19.28336823141123,0 76.79351288100008,19.28375625341121,0 76.79534366100006,19.28592699541119,0 76.79768595500008,19.29015232141105,0 76.79770871600005,19.29019338141105,0 76.80012712800004,19.292645736411,0 76.80017473900006,19.29280322341103,0 76.80025460600007,19.292887747411,0 76.80028508400005,19.29299370241099,0 76.80131992900004,19.29659118341088,0 76.80389204800008,19.30509869441066,0 76.80397010500008,19.30548745641065,0 76.80519779000008,19.31227064841047,0 76.80532168800005,19.31295519241047,0 76.80550171000004,19.31329786941046,0 76.80685095700005,19.31586616141043,0 76.80238037000004,19.31918168641029,0 76.79959775100008,19.30734545441064,0 76.79320539900004,19.3074692354106,0 76.79298398000003,19.30546319141067,0 76.79015760600004,19.30575560741064,0 76.78475646200008,19.30628021541066,0 76.78296496100006,19.30034840141081,0 76.78095710300005,19.29740515741089,0 76.78021640800006,19.2961867734109,0 76.77896544100008,19.29484138241096,0 76.77791616300004,19.29150852041101,0 76.77741702400004,19.28817522741112,0 76.77731605800005,19.28774054441116,0 76.77730492300003,19.28767039141114,0 76.77687116200008,19.28608810441115,0 76.77675647900008,19.28566975641119,0 76.77629986300008,19.28400407741125,0 76.77593390700008,19.28226272841125,0 76.77606479100007,19.28106453041128,0 76.77609944400007,19.28083910041129,0 76.77597263000007,19.27924458141134,0 76.77580248000004,19.27752622441138,0 76.77550361000004,19.27600208041144,0 76.77561424600003,19.27596772841144,0 76.77552814700005,19.27547091141145,0 76.77549177700007,19.27526104241146,0 
						</coordinates>
					</LinearRing>
				</outerBoundaryIs>
			</Polygon>
		</Placemark>
	</Document>
	<Document>
		<name>Ward 3.kml</name>
		<StyleMap id="m_ylw-pushpin11">
			<Pair>
				<key>normal</key>
				<styleUrl>#s_ylw-pushpin11</styleUrl>
			</Pair>
			<Pair>
				<key>highlight</key>
				<styleUrl>#s_ylw-pushpin_hl11</styleUrl>
			</Pair>
		</StyleMap>
		<Style id="s_ylw-pushpin11">
			<IconStyle>
				<scale>1.1</scale>
				<Icon>
					<href>http://maps.google.com/mapfiles/kml/pushpin/ylw-pushpin.png</href>
				</Icon>
				<hotSpot x="20" y="2" xunits="pixels" yunits="pixels"/>
			</IconStyle>
			<LineStyle>
				<color>ffffff55</color>
				<width>3</width>
			</LineStyle>
			<PolyStyle>
				<fill>0</fill>
			</PolyStyle>
		</Style>
		<Style id="s_ylw-pushpin_hl11">
			<IconStyle>
				<scale>1.3</scale>
				<Icon>
					<href>http://maps.google.com/mapfiles/kml/pushpin/ylw-pushpin.png</href>
				</Icon>
				<hotSpot x="20" y="2" xunits="pixels" yunits="pixels"/>
			</IconStyle>
			<LineStyle>
				<color>ffffff55</color>
				<width>3</width>
			</LineStyle>
			<PolyStyle>
				<fill>0</fill>
			</PolyStyle>
		</Style>
		<Placemark>
			<name>Ward 3.kml</name>
			<styleUrl>#m_ylw-pushpin11</styleUrl>
			<Polygon>
				<tessellate>1</tessellate>
				<outerBoundaryIs>
					<LinearRing>
						<coordinates>
							76.77714165100008,19.26847452441162,0 76.77715270300007,19.26847116341164,0 76.77739584900007,19.26839722041162,0 76.77760299700003,19.26816679041163,0 76.77807891700007,19.26817141541162,0 76.77833456200005,19.26824705441166,0 76.78037138200006,19.2688124714116,0 76.78119379600008,19.26901482341163,0 76.78141798700005,19.26906998441161,0 76.78345175400005,19.2695703854116,0 76.78536036200006,19.2699461124116,0 76.78537348600008,19.26994869541156,0 76.78675518600005,19.27028373541159,0 76.78771051700005,19.27054385441155,0 76.78771913300005,19.2705458224116,0 76.78996763200007,19.27105936141158,0 76.79004030000004,19.27107595741155,0 76.79049773800006,19.27117514941154,0 76.79313225800007,19.27171527241153,0 76.79317817300006,19.27172468541151,0 76.79703135900007,19.27292227141153,0 76.79725891300006,19.27319929241151,0 76.80188798300003,19.27435063841145,0 76.80386266400006,19.27490516741144,0 76.80566678600007,19.27726780241138,0 76.80709244400003,19.27913478641133,0 76.80789521800006,19.28768206341111,0 76.80999786700005,19.28877604541112,0 76.81578783800006,19.29780794641084,0 76.81967686900003,19.30384218741069,0 76.82083440600007,19.30591139941068,0 76.82127497800008,19.30797793341062,0 76.81835290000004,19.31046027841053,0 76.81731638000008,19.31031776441054,0 76.81680135900007,19.31067695341052,0 76.81610382800005,19.31050935741053,0 76.81505822900004,19.31086930641055,0 76.81418007100007,19.31223953641049,0 76.81282423400006,19.31332316441047,0 76.80956461200003,19.31411554941045,0 76.80843106900005,19.31579685041043,0 76.80690369200005,19.31596654241041,0 76.80550171000004,19.31329786941046,0 76.80532168800005,19.31295519241047,0 76.80519779000008,19.31227064841047,0 76.80391122400005,19.30516212041066,0 76.80131992900004,19.29659118341088,0 76.80028508400005,19.29299370241099,0 76.80025460600007,19.292887747411,0 76.80017473900006,19.29280322341103,0 76.80012712800004,19.292645736411,0 76.79770871600005,19.29019338141105,0 76.79768595500008,19.29015232141105,0 76.79534366100006,19.28592699541119,0 76.79351288100008,19.28375625341121,0 76.79316679700008,19.28336823141123,0 76.78814622300007,19.27803712741138,0 76.78710117500003,19.27719964741143,0 76.78384258400007,19.27472348141149,0 76.78212764700004,19.2732993664115,0 76.78181832100006,19.2730111414115,0 76.78137782000005,19.27260068941152,0 76.77987892900006,19.27128169341154,0 76.77903626500006,19.27043906941158,0 76.77785364700003,19.26924646241162,0 76.77731744000005,19.26873666541162,0 76.77714165100008,19.26847452441162,0 
						</coordinates>
					</LinearRing>
				</outerBoundaryIs>
			</Polygon>
		</Placemark>
	</Document>
	<Document>
		<name>Ward 4.kml</name>
		<StyleMap id="m_ylw-pushpin12">
			<Pair>
				<key>normal</key>
				<styleUrl>#s_ylw-pushpin12</styleUrl>
			</Pair>
			<Pair>
				<key>highlight</key>
				<styleUrl>#s_ylw-pushpin_hl12</styleUrl>
			</Pair>
		</StyleMap>
		<Style id="s_ylw-pushpin12">
			<IconStyle>
				<scale>1.1</scale>
				<Icon>
					<href>http://maps.google.com/mapfiles/kml/pushpin/ylw-pushpin.png</href>
				</Icon>
				<hotSpot x="20" y="2" xunits="pixels" yunits="pixels"/>
			</IconStyle>
			<LineStyle>
				<color>ffffff55</color>
				<width>3</width>
			</LineStyle>
			<PolyStyle>
				<fill>0</fill>
			</PolyStyle>
		</Style>
		<Style id="s_ylw-pushpin_hl12">
			<IconStyle>
				<scale>1.3</scale>
				<Icon>
					<href>http://maps.google.com/mapfiles/kml/pushpin/ylw-pushpin.png</href>
				</Icon>
				<hotSpot x="20" y="2" xunits="pixels" yunits="pixels"/>
			</IconStyle>
			<LineStyle>
				<color>ffffff55</color>
				<width>3</width>
			</LineStyle>
			<PolyStyle>
				<fill>0</fill>
			</PolyStyle>
		</Style>
		<Placemark>
			<name>Ward 4.kml</name>
			<styleUrl>#m_ylw-pushpin12</styleUrl>
			<Polygon>
				<tessellate>1</tessellate>
				<outerBoundaryIs>
					<LinearRing>
						<coordinates>
							76.79033517500005,19.26606361441171,0 76.79064682300003,19.2655092864117,0 76.79081568000004,19.2654375614117,0 76.79115826700007,19.26512298241169,0 76.79276406100007,19.26478283141171,0 76.79224604000007,19.26292405041174,0 76.79185911700006,19.26156211741178,0 76.79223780700005,19.26142977541182,0 76.79225280500003,19.26142453541181,0 76.79205640400005,19.26092791241181,0 76.79198841900006,19.26073982641184,0 76.79167185100005,19.25997558141184,0 76.79164915600006,19.25991495441185,0 76.79155371400003,19.25964469241185,0 76.79150215500005,19.25952145341185,0 76.79141380400006,19.25928365441186,0 76.79160382500004,19.25924732241188,0 76.79189467700007,19.25919546741185,0 76.79308836800004,19.25898457741184,0 76.79347029600007,19.25891710141187,0 76.79347408300004,19.25892273741185,0 76.79349517700007,19.25891935541186,0 76.79353134400003,19.25900795641187,0 76.79360419900007,19.2591163854119,0 76.79490105400004,19.25885929441186,0 76.79516251200005,19.25880105041186,0 76.79547220200004,19.25874606941185,0 76.79617954400004,19.2586204884119,0 76.79620382100006,19.25824850641192,0 76.79481269800004,19.25503692441199,0 76.79481994700006,19.25469032341195,0 76.79419361700008,19.25373156441201,0 76.79384856200005,19.25324474141201,0 76.79853968100008,19.25196859541204,0 76.79922684000007,19.25210025441207,0 76.79978316800003,19.25225378241206,0 76.80238159100008,19.25369010741201,0 76.80458092400005,19.25501123841198,0 76.80792661400005,19.25704994941194,0 76.81459437200004,19.26112716941184,0 76.81578580800004,19.26864380641162,0 76.80751167800008,19.26833205341162,0 76.80773703800008,19.27077739641159,0 76.80760781600003,19.27339687041149,0 76.80691540700008,19.2771686784114,0 76.80566678600007,19.27726780241138,0 76.80386266400006,19.27490516741144,0 76.80188798300003,19.27435063841145,0 76.79725891300006,19.27319929241151,0 76.79703135900007,19.27292227141153,0 76.79317817300006,19.27172468541151,0 76.79313225800007,19.27171527241153,0 76.79049773800006,19.27117514941154,0 76.79033517500005,19.26606361441171,0 
						</coordinates>
					</LinearRing>
				</outerBoundaryIs>
			</Polygon>
		</Placemark>
	</Document>
	<Document>
		<name>Ward 5.kml</name>
		<StyleMap id="m_ylw-pushpin13">
			<Pair>
				<key>normal</key>
				<styleUrl>#s_ylw-pushpin13</styleUrl>
			</Pair>
			<Pair>
				<key>highlight</key>
				<styleUrl>#s_ylw-pushpin_hl13</styleUrl>
			</Pair>
		</StyleMap>
		<Style id="s_ylw-pushpin13">
			<IconStyle>
				<scale>1.1</scale>
				<Icon>
					<href>http://maps.google.com/mapfiles/kml/pushpin/ylw-pushpin.png</href>
				</Icon>
				<hotSpot x="20" y="2" xunits="pixels" yunits="pixels"/>
			</IconStyle>
			<LineStyle>
				<color>ffffff55</color>
				<width>3</width>
			</LineStyle>
			<PolyStyle>
				<fill>0</fill>
			</PolyStyle>
		</Style>
		<Style id="s_ylw-pushpin_hl13">
			<IconStyle>
				<scale>1.3</scale>
				<Icon>
					<href>http://maps.google.com/mapfiles/kml/pushpin/ylw-pushpin.png</href>
				</Icon>
				<hotSpot x="20" y="2" xunits="pixels" yunits="pixels"/>
			</IconStyle>
			<LineStyle>
				<color>ffffff55</color>
				<width>3</width>
			</LineStyle>
			<PolyStyle>
				<fill>0</fill>
			</PolyStyle>
		</Style>
		<Placemark>
			<name>Ward 5.kml</name>
			<styleUrl>#m_ylw-pushpin13</styleUrl>
			<Polygon>
				<tessellate>1</tessellate>
				<outerBoundaryIs>
					<LinearRing>
						<coordinates>
							76.79419361700008,19.25373156441201,0 76.79481994700006,19.25469032341195,0 76.79481269800004,19.25503692441199,0 76.79538267200007,19.25634527541192,0 76.79569011800004,19.25709502941194,0 76.79620382100006,19.25824850641192,0 76.79617954400004,19.2586204884119,0 76.79547220200004,19.25874606941185,0 76.79516251200005,19.25880105041186,0 76.79490105400004,19.25885929441186,0 76.79360419900007,19.2591163854119,0 76.79353134400003,19.25900795641187,0 76.79349517700007,19.25891935541186,0 76.79347408300004,19.25892273741185,0 76.79347029600007,19.25891710141187,0 76.79308836800004,19.25898457741184,0 76.79189467700007,19.25919546741185,0 76.79160382500004,19.25924732241188,0 76.79141380400006,19.25928365441186,0 76.79150215500005,19.25952145341185,0 76.79155371400003,19.25964469241185,0 76.79164915600006,19.25991495441185,0 76.79167185100005,19.25997558141184,0 76.79198841900006,19.26073982641184,0 76.79205640400005,19.26092791241181,0 76.79225280500003,19.26142453541181,0 76.79223780700005,19.26142977541182,0 76.79185911700006,19.26156211741178,0 76.79224604000007,19.26292405041174,0 76.79276406100007,19.26478283141171,0 76.79115826700007,19.26512298241169,0 76.79081568000004,19.2654375614117,0 76.79064682300003,19.2655092864117,0 76.79033517500005,19.26606361441171,0 76.79049773800006,19.27117514941154,0 76.79004030000004,19.27107595741155,0 76.78996763200007,19.27105936141158,0 76.78771913300005,19.2705458224116,0 76.78771051700005,19.27054385441155,0 76.78675518600005,19.27028373541159,0 76.78537348600008,19.26994869541156,0 76.78543484800008,19.26903780841162,0 76.78550411200007,19.26800963541164,0 76.78555699700007,19.26722456941166,0 76.78508202800003,19.26716033041168,0 76.78507748000004,19.26714152941167,0 76.78441978500007,19.26432489341171,0 76.78418169300005,19.26343881141177,0 76.78417640200007,19.26344149741177,0 76.78319246000007,19.26394089041175,0 76.78295296100003,19.26318325141174,0 76.78271681200005,19.26244214241177,0 76.78256137200003,19.26201558041181,0 76.78232438300006,19.26137327041178,0 76.78209221000003,19.26069344641182,0 76.78171567500004,19.25955773641183,0 76.78276834700006,19.25857897941187,0 76.78379910700005,19.25767379641192,0 76.78381919400005,19.25765615741188,0 76.78435048500006,19.25714676141192,0 76.78566886100003,19.25584527441197,0 76.78572966300004,19.25581437441196,0 76.78723216100008,19.25505079641194,0 76.78825880400007,19.25477352741197,0 76.78976693900006,19.25434318341199,0 76.79384856200005,19.25324474141201,0 76.79419361700008,19.25373156441201,0 
						</coordinates>
					</LinearRing>
				</outerBoundaryIs>
			</Polygon>
		</Placemark>
	</Document>
	<Document>
		<name>Ward 6.kml</name>
		<StyleMap id="m_ylw-pushpin14">
			<Pair>
				<key>normal</key>
				<styleUrl>#s_ylw-pushpin14</styleUrl>
			</Pair>
			<Pair>
				<key>highlight</key>
				<styleUrl>#s_ylw-pushpin_hl14</styleUrl>
			</Pair>
		</StyleMap>
		<Style id="s_ylw-pushpin14">
			<IconStyle>
				<scale>1.1</scale>
				<Icon>
					<href>http://maps.google.com/mapfiles/kml/pushpin/ylw-pushpin.png</href>
				</Icon>
				<hotSpot x="20" y="2" xunits="pixels" yunits="pixels"/>
			</IconStyle>
			<LineStyle>
				<color>ffffff55</color>
				<width>3</width>
			</LineStyle>
			<PolyStyle>
				<fill>0</fill>
			</PolyStyle>
		</Style>
		<Style id="s_ylw-pushpin_hl14">
			<IconStyle>
				<scale>1.3</scale>
				<Icon>
					<href>http://maps.google.com/mapfiles/kml/pushpin/ylw-pushpin.png</href>
				</Icon>
				<hotSpot x="20" y="2" xunits="pixels" yunits="pixels"/>
			</IconStyle>
			<LineStyle>
				<color>ffffff55</color>
				<width>3</width>
			</LineStyle>
			<PolyStyle>
				<fill>0</fill>
			</PolyStyle>
		</Style>
		<Placemark>
			<name>Ward 6.kml</name>
			<styleUrl>#m_ylw-pushpin14</styleUrl>
			<Polygon>
				<tessellate>1</tessellate>
				<outerBoundaryIs>
					<LinearRing>
						<coordinates>
							76.78222033900005,19.26926740041159,0 76.78141798700005,19.26906998441161,0 76.78119379600008,19.26901482341163,0 76.78037138200006,19.2688124714116,0 76.77833456200005,19.26824705441166,0 76.77807891700007,19.26817141541162,0 76.77760299700003,19.26816679041163,0 76.77739584900007,19.26839722041162,0 76.77715270300007,19.26847116341164,0 76.77672734200007,19.26778562441164,0 76.77651387700007,19.26748329641166,0 76.77710295600008,19.26729600141163,0 76.77694551800005,19.26686145441164,0 76.77758292600004,19.26657102841165,0 76.77743665500003,19.2657686324117,0 76.77743580600008,19.2657639774117,0 76.77763697600005,19.26570967741171,0 76.77751638900008,19.26447214741171,0 76.77737885400006,19.26450895241176,0 76.77726506700003,19.26417792141174,0 76.77808612800004,19.26411868341172,0 76.77865675400005,19.26395754441173,0 76.77868939500007,19.26404779241172,0 76.77869356100007,19.26405931241177,0 76.77915289100008,19.26391427841175,0 76.77949536400007,19.26382473541176,0 76.77993232700004,19.26373182941174,0 76.77973319800003,19.26341092341173,0 76.77973836900003,19.26340888241178,0 76.77973380600008,19.26340128341176,0 76.77993742600006,19.26333032041177,0 76.78010160900004,19.26327310241178,0 76.78010473100005,19.26327461841178,0 76.78030421600005,19.26337151441178,0 76.78078109800003,19.26322075141177,0 76.78081134700005,19.26330232641178,0 76.78090633500005,19.26351207641174,0 76.78090974300005,19.26351960141173,0 76.78214799800008,19.26309150141178,0 76.78236347900008,19.26302001541175,0 76.78251180600006,19.26338152541176,0 76.78295296100003,19.26318325141174,0 76.78319246000007,19.26394089041175,0 76.78417640200007,19.26344149741177,0 76.78418169300005,19.26343881141177,0 76.78441978500007,19.26432489341171,0 76.78507748000004,19.26714152941167,0 76.78508202800003,19.26716033041168,0 76.78555699700007,19.26722456941166,0 76.78550411200007,19.26800963541164,0 76.78543484800008,19.26903780841162,0 76.78537348600008,19.26994869541156,0 76.78536036200006,19.2699461124116,0 76.78345175400005,19.2695703854116,0 76.78222033900005,19.26926740041159,0 
						</coordinates>
					</LinearRing>
				</outerBoundaryIs>
			</Polygon>
		</Placemark>
	</Document>
</Folder>
</kml>
