<?xml version="1.0" encoding="UTF-8"?>
<kml xmlns="http://www.opengis.net/kml/2.2" xmlns:gx="http://www.google.com/kml/ext/2.2" xmlns:kml="http://www.opengis.net/kml/2.2" xmlns:atom="http://www.w3.org/2005/Atom">
<Folder>
	<name>Temporary Places</name>
	<open>1</open>
	<Document>
		<name>Ward no.1.kml</name>
		<StyleMap id="m_ylw-pushpin">
			<Pair>
				<key>normal</key>
				<styleUrl>#s_ylw-pushpin</styleUrl>
			</Pair>
			<Pair>
				<key>highlight</key>
				<styleUrl>#s_ylw-pushpin_hl</styleUrl>
			</Pair>
		</StyleMap>
		<Style id="s_ylw-pushpin">
			<IconStyle>
				<scale>1.1</scale>
				<Icon>
					<href>http://maps.google.com/mapfiles/kml/pushpin/ylw-pushpin.png</href>
				</Icon>
				<hotSpot x="20" y="2" xunits="pixels" yunits="pixels"/>
			</IconStyle>
			<LineStyle>
				<color>ffffff55</color>
				<width>3</width>
			</LineStyle>
			<PolyStyle>
				<fill>0</fill>
			</PolyStyle>
		</Style>
		<Style id="s_ylw-pushpin_hl">
			<IconStyle>
				<scale>1.3</scale>
				<Icon>
					<href>http://maps.google.com/mapfiles/kml/pushpin/ylw-pushpin.png</href>
				</Icon>
				<hotSpot x="20" y="2" xunits="pixels" yunits="pixels"/>
			</IconStyle>
			<LineStyle>
				<color>ffffff55</color>
				<width>3</width>
			</LineStyle>
			<PolyStyle>
				<fill>0</fill>
			</PolyStyle>
		</Style>
		<Placemark>
			<name>Ward no.1.kml</name>
			<styleUrl>#m_ylw-pushpin</styleUrl>
			<Polygon>
				<tessellate>1</tessellate>
				<outerBoundaryIs>
					<LinearRing>
						<coordinates>
							77.02496606175518,19.18902318254071,0 77.02494256123177,19.18868111868474,0 77.02494371217969,19.18857144439634,0 77.0249256169038,19.18842095304874,0 77.02491922705156,19.18837860474341,0 77.02490335945606,19.18827513848933,0 77.02491455610354,19.18805776444034,0 77.0249135340302,19.18792338036161,0 77.02487879238848,19.18782569347687,0 77.02486686132983,19.18763281104472,0 77.02489990212186,19.18733388289291,0 77.02490673327056,19.18698742977573,0 77.02494174429819,19.18674334779924,0 77.02493781267059,19.18630401476113,0 77.02494706696491,19.18603598424365,0 77.02491354606587,19.1858314667361,0 77.02487604391497,19.18577255740664,0 77.02487264589006,19.18492149505623,0 77.02479459031798,19.18466240098672,0 77.02477973808259,19.18383388194295,0 77.02458081121445,19.18382418418307,0 77.0243144590528,19.18380621219627,0 77.02431187318169,19.18380600700396,0 77.02430307523959,19.18371746481988,0 77.02429466554814,19.18363238197774,0 77.02428140066695,19.18349892384391,0 77.0242587852629,19.18327040702529,0 77.02425192329572,19.18320092209584,0 77.02424461420415,19.18312504736467,0 77.02424127494312,19.18309036634591,0 77.02423803735992,19.183056802773,0 77.02423393699578,19.18301796737435,0 77.0242331261116,19.18301057679714,0 77.02425125354257,19.18301254517718,0 77.02428973814038,19.18301739725328,0 77.0243852835348,19.18302916724836,0 77.02483483542042,19.18308516231096,0 77.02609711817161,19.18329791172141,0 77.02694635963731,19.18346522961524,0 77.02772595434283,19.18360127662133,0 77.02817484460223,19.18364607211028,0 77.02866294420851,19.18365981844611,0 77.02922868125889,19.18363947949642,0 77.02926538732433,19.18457706703183,0 77.02868889701762,19.18433870869307,0 77.02899333574548,19.1854124237884,0 77.02906549748656,19.18539494304801,0 77.02908470236348,19.18539015666045,0 77.02915378085888,19.18537341822744,0 77.02922835237588,19.1853552778325,0 77.02937828367386,19.18531887830434,0 77.02941481386519,19.18539956302503,0 77.02973923618906,19.18531151046905,0 77.02993741339264,19.18533855733452,0 77.02993549018584,19.18519623112883,0 77.03004871115779,19.18518373170073,0 77.03007601264125,19.18517752097355,0 77.03021609952836,19.185763238888,0 77.0303119570509,19.18616317051536,0 77.03038437937121,19.18646648314579,0 77.03041866483669,19.1866098872197,0 77.03042384993026,19.18663156912467,0 77.03042457073764,19.18663453890977,0 77.03039583986381,19.18663856976102,0 77.02940067454738,19.18674006442779,0 77.02970185765605,19.18798737146361,0 77.0298125139545,19.18841114991688,0 77.02990929525943,19.18898391367551,0 77.02991233880417,19.18913172978025,0 77.02995727444122,19.18949901505381,0 77.03006392527034,19.19047503545069,0 77.03059722664436,19.19402274761145,0 77.03044131079015,19.19443924096209,0 77.03054271270956,19.19461097299016,0 77.0303557062538,19.19546882031811,0 77.03032513328914,19.19560904235382,0 77.03032390412682,19.19561475531972,0 77.03030900950563,19.19561457213592,0 77.026675728047,19.19556720534515,0 77.02654782603537,19.19532266858068,0 77.02640877775015,19.19484553803728,0 77.02620269547945,19.19421969153692,0 77.02601183233755,19.19430242760399,0 77.02569427174976,19.1937344661769,0 77.02567278186599,19.19352750807527,0 77.0257243369168,19.19311683598095,0 77.0256674557363,19.19275893076181,0 77.0256528355067,19.19253694160061,0 77.02556543499247,19.19203141186043,0 77.02550975978176,19.19172030024466,0 77.02539425807188,19.19123281798733,0 77.02518231069779,19.1906476065791,0 77.02499436988352,19.19032078841672,0 77.0250883907369,19.19018940404465,0 77.02493340933712,19.18962736632222,0 77.02502786481692,19.18925910049739,0 77.02496606175518,19.18902318254071,0 
						</coordinates>
					</LinearRing>
				</outerBoundaryIs>
			</Polygon>
		</Placemark>
	</Document>
	<Document>
		<name>Ward no.2.kml</name>
		<StyleMap id="m_ylw-pushpin0">
			<Pair>
				<key>normal</key>
				<styleUrl>#s_ylw-pushpin0</styleUrl>
			</Pair>
			<Pair>
				<key>highlight</key>
				<styleUrl>#s_ylw-pushpin_hl0</styleUrl>
			</Pair>
		</StyleMap>
		<Style id="s_ylw-pushpin0">
			<IconStyle>
				<scale>1.1</scale>
				<Icon>
					<href>http://maps.google.com/mapfiles/kml/pushpin/ylw-pushpin.png</href>
				</Icon>
				<hotSpot x="20" y="2" xunits="pixels" yunits="pixels"/>
			</IconStyle>
			<LineStyle>
				<color>ffffff55</color>
				<width>3</width>
			</LineStyle>
			<PolyStyle>
				<fill>0</fill>
			</PolyStyle>
		</Style>
		<Style id="s_ylw-pushpin_hl0">
			<IconStyle>
				<scale>1.3</scale>
				<Icon>
					<href>http://maps.google.com/mapfiles/kml/pushpin/ylw-pushpin.png</href>
				</Icon>
				<hotSpot x="20" y="2" xunits="pixels" yunits="pixels"/>
			</IconStyle>
			<LineStyle>
				<color>ffffff55</color>
				<width>3</width>
			</LineStyle>
			<PolyStyle>
				<fill>0</fill>
			</PolyStyle>
		</Style>
		<Placemark>
			<name>Ward no.2.kml</name>
			<styleUrl>#m_ylw-pushpin0</styleUrl>
			<Polygon>
				<tessellate>1</tessellate>
				<outerBoundaryIs>
					<LinearRing>
						<coordinates>
							77.04670802038196,19.18511307123547,0 77.04706365862177,19.18518917104616,0 77.04898473838954,19.18569442518534,0 77.04856508570761,19.18746709970643,0 77.04737105372794,19.18947147955651,0 77.04490481018549,19.19142338687069,0 77.04314634342265,19.19277636919348,0 77.04278856460445,19.19307240731046,0 77.04317871886107,19.19361142749798,0 77.04347713729297,19.1940440662792,0 77.04398857622002,19.1947779043977,0 77.04392634317684,19.19479732469475,0 77.03585191678725,19.19545352301164,0 77.03314095522219,19.1956672867117,0 77.0323360612926,19.19248599487888,0 77.03199216698107,19.1924799725752,0 77.03152945666754,19.19339193555151,0 77.03059727912878,19.19454361204241,0 77.03054450269435,19.19460891806709,0 77.03054274283973,19.19461112212156,0 77.03053970564609,19.19460582474415,0 77.03044268390769,19.194441565524,0 77.03044133038986,19.19443934386456,0 77.0304437290356,19.1944326370005,0 77.0305968469967,19.19402386107918,0 77.03059728313636,19.19402280935574,0 77.03059642739865,19.19401724633351,0 77.03006499322258,19.1904819058626,0 77.0300640096074,19.19047546636643,0 77.03005507402538,19.19039499961877,0 77.03004038980494,19.19025980438031,0 77.03001673658382,19.19004267443743,0 77.02998897573551,19.18978898496963,0 77.02998091433837,19.18971518539866,0 77.02997351820861,19.1896474830241,0 77.02996789840817,19.18959623211421,0 77.02996103338671,19.18953370332545,0 77.02995762932338,19.18950196054479,0 77.02995568738181,19.18948635264416,0 77.02995277420814,19.18946184787222,0 77.02995202459699,19.18945588821529,0 77.02994305741868,19.18938248489909,0 77.02993285663652,19.18929930897947,0 77.02992385009078,19.18922578328731,0 77.0299123256483,19.18913150110555,0 77.02990926257417,19.18898368604534,0 77.0299068977925,19.1889698020674,0 77.02981348645461,19.18841685396942,0 77.02981257200038,19.18841134083167,0 77.02980933984384,19.18839914885023,0 77.02974296737152,19.18814458120426,0 77.02969555652517,19.18796277847288,0 77.02955762838208,19.18738992030372,0 77.02940289092304,19.18674929269205,0 77.02940083122193,19.18673998527239,0 77.02943105230113,19.18673691611475,0 77.02949505833821,19.18673044457515,0 77.02954469228543,19.18672533918605,0 77.02958419659599,19.18672140321804,0 77.02959281569397,19.18672044885104,0 77.0296511354461,19.18671445204682,0 77.02969995364818,19.18670955074411,0 77.02978284760512,19.18670108542227,0 77.0298533094261,19.1866939030217,0 77.02994449746697,19.18668463003377,0 77.03032293050479,19.18664618855681,0 77.03039692588288,19.1866384337815,0 77.03042256552581,19.18663484104567,0 77.03042465222107,19.18663452722796,0 77.03007699838092,19.18518174896292,0 77.0300760320398,19.18517745557127,0 77.03004907184707,19.18518367490515,0 77.02993896069253,19.18519586302141,0 77.02993541088519,19.18519623474973,0 77.02993555343195,19.18519987225246,0 77.02993736264997,19.18533763591784,0 77.02993729382368,19.18533859067577,0 77.0299340234529,19.18533808322193,0 77.0297406421049,19.18531171746703,0 77.02973909257969,19.18531148348309,0 77.02973346648167,19.18531303990702,0 77.02942073604798,19.18539792192842,0 77.02941482814191,19.18539960375123,0 77.02941114755055,19.18539151349212,0 77.02937891507915,19.18532023491053,0 77.02937828503265,19.18531886073212,0 77.02937461044787,19.18531972418295,0 77.02899573835705,19.18541188552753,0 77.02899336291466,19.18541232160048,0 77.02899225529188,19.18540872409721,0 77.02869025526688,19.18434332873197,0 77.0286889804773,19.18433874744161,0 77.02869500692013,19.18434123362813,0 77.02926331697545,19.1845762313858,0 77.02926546745452,19.18457713112837,0 77.02926521951596,19.18457434216684,0 77.02926245391701,19.18449383848159,0 77.02922876680293,19.18364152449074,0 77.02922877846679,19.18363957207056,0 77.03048489876554,19.1835600914551,0 77.03144687708779,19.18359469217547,0 77.03237764297143,19.1837391538693,0 77.03404108000733,19.18411223659935,0 77.03556503532299,19.18450697935602,0 77.03597713347376,19.18462124131941,0 77.03720984810154,19.18484458076024,0 77.03791471379665,19.18359707163163,0 77.03816266791463,19.18292158142435,0 77.03824864845967,19.18294472598028,0 77.03827873791471,19.18295284295496,0 77.03832626078039,19.18296560601591,0 77.04232735710377,19.18397188837057,0 77.04428558202954,19.18450635276734,0 77.04670802038196,19.18511307123547,0 
						</coordinates>
					</LinearRing>
				</outerBoundaryIs>
			</Polygon>
		</Placemark>
	</Document>
	<Document>
		<name>Ward no.3.kml</name>
		<StyleMap id="m_ylw-pushpin1">
			<Pair>
				<key>normal</key>
				<styleUrl>#s_ylw-pushpin1</styleUrl>
			</Pair>
			<Pair>
				<key>highlight</key>
				<styleUrl>#s_ylw-pushpin_hl1</styleUrl>
			</Pair>
		</StyleMap>
		<Style id="s_ylw-pushpin1">
			<IconStyle>
				<scale>1.1</scale>
				<Icon>
					<href>http://maps.google.com/mapfiles/kml/pushpin/ylw-pushpin.png</href>
				</Icon>
				<hotSpot x="20" y="2" xunits="pixels" yunits="pixels"/>
			</IconStyle>
			<LineStyle>
				<color>ffffff55</color>
				<width>3</width>
			</LineStyle>
			<PolyStyle>
				<fill>0</fill>
			</PolyStyle>
		</Style>
		<Style id="s_ylw-pushpin_hl1">
			<IconStyle>
				<scale>1.3</scale>
				<Icon>
					<href>http://maps.google.com/mapfiles/kml/pushpin/ylw-pushpin.png</href>
				</Icon>
				<hotSpot x="20" y="2" xunits="pixels" yunits="pixels"/>
			</IconStyle>
			<LineStyle>
				<color>ffffff55</color>
				<width>3</width>
			</LineStyle>
			<PolyStyle>
				<fill>0</fill>
			</PolyStyle>
		</Style>
		<Placemark>
			<name>Ward no.3.kml</name>
			<styleUrl>#m_ylw-pushpin1</styleUrl>
			<Polygon>
				<tessellate>1</tessellate>
				<outerBoundaryIs>
					<LinearRing>
						<coordinates>
							77.03327748091814,19.17160388500016,0 77.03325432820718,19.17150692942949,0 77.03404004769602,19.17171003683848,0 77.03443326794473,19.17192514195069,0 77.03636423126378,19.17346745298852,0 77.0387420801366,19.1731655259282,0 77.04010086816868,19.17299047336459,0 77.04185496368656,19.17272381802702,0 77.04377022945677,19.17242741122343,0 77.04558672565092,19.1721373778707,0 77.0475900657774,19.17179697138849,0 77.04824532055025,19.1740664168309,0 77.0485388841516,19.17531433132283,0 77.04855588356871,19.17621275096933,0 77.04832699446261,19.1780617246251,0 77.04754704141368,19.18260593770799,0 77.04706365862177,19.18518917104616,0 77.0467950655231,19.18513172153845,0 77.04670890077303,19.18511323786846,0 77.04611232768453,19.1849638972572,0 77.04602819744065,19.18494283779469,0 77.04554375517219,19.18482146415595,0 77.04477237098764,19.18462815631883,0 77.0442808675899,19.18450499090283,0 77.04422388358347,19.18448944208541,0 77.04232628221439,19.18397154340275,0 77.04226155497028,19.18395539005205,0 77.04119869972477,19.1836880495816,0 77.04105177290128,19.18365110024468,0 77.04030050561636,19.18346220126689,0 77.04012894704769,19.18341901836654,0 77.03995114906425,19.18337422325384,0 77.03982612220616,19.18334294176651,0 77.03962078380881,19.18329115419247,0 77.03879660521197,19.18308395420469,0 77.03839949217254,19.18298416427529,0 77.0383227406831,19.18296456541523,0 77.03820161646514,19.18293201814572,0 77.03817101217133,19.18292381865458,0 77.03816264226053,19.18292160297805,0 77.03815430015175,19.18294431371013,0 77.03791609473382,19.18359322182198,0 77.03735412697121,19.18325793270651,0 77.03618669706592,19.18270916709037,0 77.03583279917835,19.1825861339362,0 77.0359031070232,19.18224613076564,0 77.03593659525126,19.18208403492561,0 77.03596484586262,19.18193179512224,0 77.03601785402861,19.18164558769173,0 77.03602209615428,19.18163040828554,0 77.03602831050996,19.18160838379052,0 77.0360433906034,19.18155464384943,0 77.03605976956413,19.18149644142259,0 77.03615073305444,19.18117108903981,0 77.03627394702187,19.18067740050805,0 77.03629498395307,19.17985474348951,0 77.03629937881172,19.17926443984932,0 77.03582854737161,19.17926686318522,0 77.03481008251174,19.17943628251984,0 77.03442766005334,19.17950989349992,0 77.03440708596571,19.1793725857816,0 77.03437166065643,19.17916075677116,0 77.03434539674538,19.1789636633149,0 77.03445299915468,19.17839342494739,0 77.03446293091318,19.17826152753969,0 77.03442878822403,19.17818178639498,0 77.03439192392371,19.1780172533223,0 77.03438883485182,19.17800415506157,0 77.03421859069765,19.17724776859085,0 77.034179279387,19.17706771375733,0 77.03412887447556,19.17678077830617,0 77.03408930986367,19.17655575168556,0 77.03404153044761,19.17628346410812,0 77.03388751035095,19.1754572973458,0 77.03380313092919,19.1748255593394,0 77.03376639012434,19.17454722293624,0 77.03368820705855,19.17414838603801,0 77.03363455918834,19.17387273688127,0 77.03360377624486,19.17371365133826,0 77.03357316466108,19.1734684943138,0 77.03349970549377,19.17287164548371,0 77.03344592744797,19.17255334591928,0 77.0333789582341,19.17215456102695,0 77.03327748091814,19.17160388500016,0 
						</coordinates>
					</LinearRing>
				</outerBoundaryIs>
			</Polygon>
		</Placemark>
	</Document>
	<Document>
		<name>Ward no.4.kml</name>
		<StyleMap id="m_ylw-pushpin2">
			<Pair>
				<key>normal</key>
				<styleUrl>#s_ylw-pushpin2</styleUrl>
			</Pair>
			<Pair>
				<key>highlight</key>
				<styleUrl>#s_ylw-pushpin_hl2</styleUrl>
			</Pair>
		</StyleMap>
		<Style id="s_ylw-pushpin2">
			<IconStyle>
				<scale>1.1</scale>
				<Icon>
					<href>http://maps.google.com/mapfiles/kml/pushpin/ylw-pushpin.png</href>
				</Icon>
				<hotSpot x="20" y="2" xunits="pixels" yunits="pixels"/>
			</IconStyle>
			<LineStyle>
				<color>ffffff55</color>
				<width>3</width>
			</LineStyle>
			<PolyStyle>
				<fill>0</fill>
			</PolyStyle>
		</Style>
		<Style id="s_ylw-pushpin_hl2">
			<IconStyle>
				<scale>1.3</scale>
				<Icon>
					<href>http://maps.google.com/mapfiles/kml/pushpin/ylw-pushpin.png</href>
				</Icon>
				<hotSpot x="20" y="2" xunits="pixels" yunits="pixels"/>
			</IconStyle>
			<LineStyle>
				<color>ffffff55</color>
				<width>3</width>
			</LineStyle>
			<PolyStyle>
				<fill>0</fill>
			</PolyStyle>
		</Style>
		<Placemark>
			<name>Ward no.4.kml</name>
			<styleUrl>#m_ylw-pushpin2</styleUrl>
			<Polygon>
				<tessellate>1</tessellate>
				<outerBoundaryIs>
					<LinearRing>
						<coordinates>
							77.03490021267663,19.18228631346226,0 77.03435081783269,19.1820992699463,0 77.03416111648562,19.18205083852642,0 77.03356058019591,19.18190123163293,0 77.03309053991659,19.18179320060965,0 77.03266198189276,19.18172998846775,0 77.03249436319118,19.18170522055967,0 77.03237815635296,19.1816894690087,0 77.03178113110195,19.18160848364969,0 77.03157740200996,19.18157986224428,0 77.03116168599962,19.18151883366269,0 77.03087343650489,19.18147644849384,0 77.03073976981653,19.18145704720223,0 77.02992483709207,19.18143152295791,0 77.0298943004268,19.18143051800014,0 77.02992495197046,19.18110083033861,0 77.03008300716475,19.18025938963001,0 77.03057492982097,19.18030307340945,0 77.03123858208077,19.18011887056521,0 77.03221975711853,19.1799189603616,0 77.0332176283528,19.17971667662749,0 77.03378062714351,19.1796161306454,0 77.03442766005334,19.17950989349992,0 77.03481008251174,19.17943628251984,0 77.03582854737161,19.17926686318522,0 77.03629937881172,19.17926443984932,0 77.03629498395307,19.17985474348951,0 77.03627394702187,19.18067740050805,0 77.03615073305444,19.18117108903981,0 77.03605976956413,19.18149644142259,0 77.0360433906034,19.18155464384943,0 77.03602831050996,19.18160838379052,0 77.03602209615428,19.18163040828554,0 77.03601785402861,19.18164558769173,0 77.03596484586262,19.18193179512224,0 77.03593659525126,19.18208403492561,0 77.0359031070232,19.18224613076564,0 77.03583279917835,19.1825861339362,0 77.03490021267663,19.18228631346226,0 
						</coordinates>
					</LinearRing>
				</outerBoundaryIs>
			</Polygon>
		</Placemark>
	</Document>
	<Document>
		<name>Ward no.5.kml</name>
		<StyleMap id="m_ylw-pushpin3">
			<Pair>
				<key>normal</key>
				<styleUrl>#s_ylw-pushpin3</styleUrl>
			</Pair>
			<Pair>
				<key>highlight</key>
				<styleUrl>#s_ylw-pushpin_hl3</styleUrl>
			</Pair>
		</StyleMap>
		<Style id="s_ylw-pushpin3">
			<IconStyle>
				<scale>1.1</scale>
				<Icon>
					<href>http://maps.google.com/mapfiles/kml/pushpin/ylw-pushpin.png</href>
				</Icon>
				<hotSpot x="20" y="2" xunits="pixels" yunits="pixels"/>
			</IconStyle>
			<LineStyle>
				<color>ffffff55</color>
				<width>3</width>
			</LineStyle>
			<PolyStyle>
				<fill>0</fill>
			</PolyStyle>
		</Style>
		<Style id="s_ylw-pushpin_hl3">
			<IconStyle>
				<scale>1.3</scale>
				<Icon>
					<href>http://maps.google.com/mapfiles/kml/pushpin/ylw-pushpin.png</href>
				</Icon>
				<hotSpot x="20" y="2" xunits="pixels" yunits="pixels"/>
			</IconStyle>
			<LineStyle>
				<color>ffffff55</color>
				<width>3</width>
			</LineStyle>
			<PolyStyle>
				<fill>0</fill>
			</PolyStyle>
		</Style>
		<Placemark>
			<name>Ward no.5.kml</name>
			<styleUrl>#m_ylw-pushpin3</styleUrl>
			<Polygon>
				<tessellate>1</tessellate>
				<outerBoundaryIs>
					<LinearRing>
						<coordinates>
							77.03242775714534,19.18169616047605,0 77.03246252614842,19.18170087606931,0 77.03249975044308,19.18170603120218,0 77.0325456323764,19.18171276603141,0 77.03260832806264,19.18172202192239,0 77.0326397753238,19.18172671688283,0 77.03269659281581,19.18173510698147,0 77.03279568551497,19.18174969870194,0 77.03289721286967,19.18176467500358,0 77.03301445586789,19.18178199963036,0 77.03306939060333,19.18179014164605,0 77.033090083548,19.18179315973897,0 77.03309351711351,19.18179391834513,0 77.03350399522634,19.18188827717423,0 77.03355040941267,19.18189878168374,0 77.03370334216416,19.18193675381544,0 77.03380338699513,19.18196176509379,0 77.03396433642176,19.18200180281746,0 77.03424103244535,19.18207122250287,0 77.03431265885004,19.18208956041529,0 77.03435065301241,19.18209923299758,0 77.03445624521956,19.18213515879145,0 77.03490037311968,19.18228631456654,0 77.03493993138373,19.18229908520457,0 77.03578666978984,19.18257125505276,0 77.03581050535136,19.18257897506727,0 77.03583279781058,19.18258615751955,0 77.03599467999494,19.18264248556432,0 77.03618722676019,19.18270932976771,0 77.0373351065151,19.18324900311708,0 77.0373540479011,19.18325791889095,0 77.03735632509864,19.18325925839378,0 77.0375209204548,19.18335746630251,0 77.03762431708364,19.18341913227676,0 77.03782925196697,19.18354141577908,0 77.03786475925763,19.18356258918758,0 77.03788333875845,19.18357364670688,0 77.03791613805498,19.18359324342041,0 77.03791474340352,19.18359704417665,0 77.0379128677547,19.1836002931999,0 77.03720984810154,19.18484458076024,0 77.03597713347376,19.18462124131941,0 77.03556503532299,19.18450697935602,0 77.03404108000733,19.18411223659935,0 77.03237764297143,19.1837391538693,0 77.03144687708779,19.18359469217547,0 77.03048489876554,19.1835600914551,0 77.02922877846679,19.18363957207056,0 77.02916453945082,19.18364178524178,0 77.02866871263282,19.18365960822288,0 77.02866197709245,19.18365983465538,0 77.02864661785615,19.18365935895212,0 77.02817574162064,19.18364611121467,0 77.02808225620061,19.18363687639906,0 77.02796683540278,19.18362535329274,0 77.02787131398264,19.18361582705165,0 77.02781488455064,19.1836100826606,0 77.02772499896007,19.18360120493006,0 77.02769486921619,19.18359588665624,0 77.02735100601181,19.18353579896145,0 77.02728975734141,19.18352509642205,0 77.02722640652046,19.18351403712272,0 77.02718158807694,19.18350630278295,0 77.02694634341273,19.18346521295195,0 77.02695010877461,19.18342667029649,0 77.02696339654642,19.18329093041719,0 77.02703977266653,19.18252208969574,0 77.02705925913418,19.18231840802107,0 77.0270679467508,19.18223810949696,0 77.02712991373083,19.18127217117641,0 77.02715145227035,19.18117000582876,0 77.02843711886139,19.18136288869911,0 77.02904212957888,19.18140454117644,0 77.02989432506394,19.18143054314784,0 77.03002060843212,19.18143444484187,0 77.03010452275196,19.18143711699275,0 77.03019047570442,19.18143981682652,0 77.0307391010226,19.18145695052462,0 77.03079757137651,19.18146541384748,0 77.03109754853914,19.18150932195787,0 77.03155237048649,19.18157616741267,0 77.03174531905762,19.18160346260237,0 77.03185160030095,19.18161794927436,0 77.03242775714534,19.18169616047605,0 
						</coordinates>
					</LinearRing>
				</outerBoundaryIs>
			</Polygon>
		</Placemark>
	</Document>
	<Document>
		<name>Ward no.6.kml</name>
		<StyleMap id="m_ylw-pushpin4">
			<Pair>
				<key>normal</key>
				<styleUrl>#s_ylw-pushpin4</styleUrl>
			</Pair>
			<Pair>
				<key>highlight</key>
				<styleUrl>#s_ylw-pushpin_hl4</styleUrl>
			</Pair>
		</StyleMap>
		<Style id="s_ylw-pushpin4">
			<IconStyle>
				<scale>1.1</scale>
				<Icon>
					<href>http://maps.google.com/mapfiles/kml/pushpin/ylw-pushpin.png</href>
				</Icon>
				<hotSpot x="20" y="2" xunits="pixels" yunits="pixels"/>
			</IconStyle>
			<LineStyle>
				<color>ffffff55</color>
				<width>3</width>
			</LineStyle>
			<PolyStyle>
				<fill>0</fill>
			</PolyStyle>
		</Style>
		<Style id="s_ylw-pushpin_hl4">
			<IconStyle>
				<scale>1.3</scale>
				<Icon>
					<href>http://maps.google.com/mapfiles/kml/pushpin/ylw-pushpin.png</href>
				</Icon>
				<hotSpot x="20" y="2" xunits="pixels" yunits="pixels"/>
			</IconStyle>
			<LineStyle>
				<color>ffffff55</color>
				<width>3</width>
			</LineStyle>
			<PolyStyle>
				<fill>0</fill>
			</PolyStyle>
		</Style>
		<Placemark>
			<name>Ward no.6.kml</name>
			<styleUrl>#m_ylw-pushpin4</styleUrl>
			<Polygon>
				<tessellate>1</tessellate>
				<outerBoundaryIs>
					<LinearRing>
						<coordinates>
							77.0251530692687,19.18081478537815,0 77.02555050077386,19.18090063693983,0 77.02663107667843,19.18108244140094,0 77.02715149223022,19.1811699407482,0 77.02714239557304,19.18121300001375,0 77.02713695987886,19.18123872980284,0 77.02712991373083,19.18127217117641,0 77.0270679467508,19.18223810949696,0 77.02705925913418,19.18231840802107,0 77.02703977266653,19.18252208969574,0 77.02696339654642,19.18329093041719,0 77.02695010877461,19.18342667029649,0 77.02694634341273,19.18346521295195,0 77.02610045427917,19.18329867807533,0 77.02560384620074,19.18321470471894,0 77.02543913034739,19.18318717598741,0 77.02484464251384,19.18308674334643,0 77.02483570305358,19.18308538866441,0 77.02477924347092,19.18307805631016,0 77.0242462883777,19.18301198005861,0 77.02423310204499,19.183010560849,0 77.0242381945619,19.1830582884527,0 77.02425145263369,19.18319638188511,0 77.02431140925479,19.18380153026209,0 77.02431185177882,19.18380611107619,0 77.02340688715833,19.18389452457518,0 77.023299709981,19.18388882596157,0 77.02237164373086,19.18399026420605,0 77.02226844967066,19.18342493664295,0 77.02218392768189,19.18287370966491,0 77.0218628780955,19.18293474121105,0 77.02133763681073,19.18291884816225,0 77.0205273079537,19.18305573281866,0 77.02043277873921,19.18288831104809,0 77.01999494835312,19.18267043027189,0 77.01973864877445,19.18250361684981,0 77.01957771115993,19.18239081652839,0 77.01957319202705,19.18238697151203,0 77.01962434727923,19.18233789551385,0 77.01977309733103,19.18232036177183,0 77.02030230446702,19.1822385023683,0 77.02067880800411,19.18214207761564,0 77.02076747599257,19.18211332324178,0 77.02078305863306,19.18179916620431,0 77.02081411039322,19.18168711924878,0 77.02085839678155,19.18160912385215,0 77.020894774738,19.18136753689126,0 77.02157530501519,19.18145102345686,0 77.02179167363369,19.18147630341506,0 77.02187402440931,19.18146494209116,0 77.02231812866569,19.18155015460346,0 77.02279248812259,19.18161779268984,0 77.02312232362176,19.18166803739787,0 77.02375106059168,19.18179939578412,0 77.02402242976811,19.18186469278476,0 77.02463310263403,19.1819040353326,0 77.0247515660713,19.18131384803041,0 77.02506165964665,19.18134350326036,0 77.0250630402124,19.18134364475942,0 77.02506368837882,19.18133875202791,0 77.02510451796439,19.18101855226566,0 77.0251042318265,19.1809975737816,0 77.0251530692687,19.18081478537815,0 
						</coordinates>
					</LinearRing>
				</outerBoundaryIs>
			</Polygon>
		</Placemark>
	</Document>
	<Document>
		<name>Ward no.7.kml</name>
		<StyleMap id="m_ylw-pushpin5">
			<Pair>
				<key>normal</key>
				<styleUrl>#s_ylw-pushpin5</styleUrl>
			</Pair>
			<Pair>
				<key>highlight</key>
				<styleUrl>#s_ylw-pushpin_hl5</styleUrl>
			</Pair>
		</StyleMap>
		<Style id="s_ylw-pushpin5">
			<IconStyle>
				<scale>1.1</scale>
				<Icon>
					<href>http://maps.google.com/mapfiles/kml/pushpin/ylw-pushpin.png</href>
				</Icon>
				<hotSpot x="20" y="2" xunits="pixels" yunits="pixels"/>
			</IconStyle>
			<LineStyle>
				<color>ffffff55</color>
				<width>3</width>
			</LineStyle>
			<PolyStyle>
				<fill>0</fill>
			</PolyStyle>
		</Style>
		<Style id="s_ylw-pushpin_hl5">
			<IconStyle>
				<scale>1.3</scale>
				<Icon>
					<href>http://maps.google.com/mapfiles/kml/pushpin/ylw-pushpin.png</href>
				</Icon>
				<hotSpot x="20" y="2" xunits="pixels" yunits="pixels"/>
			</IconStyle>
			<LineStyle>
				<color>ffffff55</color>
				<width>3</width>
			</LineStyle>
			<PolyStyle>
				<fill>0</fill>
			</PolyStyle>
		</Style>
		<Placemark>
			<name>Ward no.7.kml</name>
			<styleUrl>#m_ylw-pushpin5</styleUrl>
			<Polygon>
				<tessellate>1</tessellate>
				<outerBoundaryIs>
					<LinearRing>
						<coordinates>
							77.02539442264138,19.19123322726754,0 77.02550972196477,19.19172036872196,0 77.02551601091513,19.19175462768581,0 77.02556392518967,19.19202277200401,0 77.02563438217602,19.19243035698295,0 77.02563993899022,19.19246278764254,0 77.02564821326941,19.19251024209061,0 77.02565286491028,19.19253706955056,0 77.02566684206455,19.19274981167907,0 77.02566749172067,19.19275931647772,0 77.02572118280281,19.19309698101232,0 77.02572433310243,19.1931169920917,0 77.02572394380965,19.1931199502499,0 77.02567431283778,19.19351478380747,0 77.02567280692008,19.1935276444867,0 77.02567321609756,19.193531734603,0 77.02568913209032,19.19368467552659,0 77.02569180666602,19.19371065539487,0 77.02569433074733,19.19373467444642,0 77.02569870553577,19.19374227173404,0 77.0260076954432,19.1942951403578,0 77.02601187632828,19.19430248094,0 77.02601253011257,19.19430216642614,0 77.02603728835706,19.19429131028812,0 77.02619469329468,19.19422315559245,0 77.02620271532759,19.19421967269599,0 77.02620429033102,19.19422451198981,0 77.02637589715648,19.19474569839175,0 77.02638736421744,19.19478046771884,0 77.02640848946685,19.19484453118823,0 77.02642034258514,19.19488562236479,0 77.02654590703939,19.19531592533013,0 77.02654780024376,19.19532268160943,0 77.02654820366476,19.1953234289605,0 77.02666296366132,19.19554273996891,0 77.02667494464589,19.19556571802221,0 77.02667571511772,19.19556718890371,0 77.02667510091499,19.19556718930422,0 77.02650056605832,19.19556484159517,0 77.02532304286747,19.19567479724091,0 77.02407181033394,19.19579121621022,0 77.02243845190374,19.1957126761158,0 77.02240005598578,19.19542619691819,0 77.0222720976447,19.19454553708778,0 77.02212796747651,19.19354413719952,0 77.02196568602926,19.19241400873918,0 77.02184137711045,19.19155269736787,0 77.02162270312454,19.18990806660838,0 77.02155195005371,19.18937681192927,0 77.02148550663047,19.188866017467,0 77.02143643882087,19.18849804493128,0 77.02136647731629,19.18796372293311,0 77.02131172733336,19.1875457083868,0 77.0212276937125,19.18693186267765,0 77.02119991497052,19.18675728919112,0 77.02105078262274,19.18578784420237,0 77.02093570365697,19.18529763028497,0 77.02090041657033,19.1851456388666,0 77.02086620857017,19.18499941265024,0 77.02087572453375,19.18499541390153,0 77.02143917425488,19.18479278902632,0 77.02170145911236,19.18469968250826,0 77.02165828253524,19.18451520703639,0 77.02158848258087,19.18438904645579,0 77.02154198202622,19.18390225939456,0 77.02145597450364,19.18373856947518,0 77.02179114834347,19.18352865470038,0 77.02205065914382,19.18325448199344,0 77.02221747849053,19.183092857172,0 77.02222136418315,19.18311820690222,0 77.02223551913698,19.18321041019806,0 77.02226844967066,19.18342493664295,0 77.02237164373086,19.18399026420605,0 77.023299709981,19.18388882596157,0 77.02340688715833,19.18389452457518,0 77.02431114528484,19.18380615095109,0 77.02431211118707,19.18380604024064,0 77.0244486546474,19.18381529587395,0 77.024510833132,19.18381953101357,0 77.02458255591607,19.18382428416743,0 77.0246416244659,19.1838271148702,0 77.0247677591459,19.18383325691852,0 77.02477975886006,19.18383393256099,0 77.02477999830944,19.18384905824918,0 77.02478077345479,19.18389207691391,0 77.02478369523632,19.18404275611662,0 77.02478693619345,19.18424139348006,0 77.02479442446204,19.1846618550858,0 77.02482039426648,19.18474842348995,0 77.02487256826764,19.1849210585147,0 77.0248727754191,19.18495057623752,0 77.02487599213828,19.18577059639394,0 77.0248758093272,19.18577211397534,0 77.02488029908939,19.18577945293996,0 77.02491234323476,19.18582952100149,0 77.02491355607691,19.18583126215611,0 77.02491867616229,19.18586251851155,0 77.02493158229363,19.18594153153977,0 77.02493964216616,19.18599091717444,0 77.02494711670343,19.18603617846668,0 77.0249439496108,19.18612325037926,0 77.02493787308708,19.18630554845899,0 77.02494169224202,19.18674239313447,0 77.02494123934206,19.18674605149094,0 77.02492436428918,19.18686502116786,0 77.02490670040692,19.18698752922676,0 77.02490553873882,19.1870502651066,0 77.02490017323264,19.18733347862121,0 77.02486702665207,19.18763086725139,0 77.02486700846272,19.18763383164692,0 77.02487103913074,19.18770000955186,0 77.02487872962723,19.18782471731138,0 77.02487878343732,19.18782579556815,0 77.02488297115111,19.18783701769019,0 77.02491352325403,19.18792358758768,0 77.02491433790165,19.18805940622968,0 77.02490339231673,19.18827512903909,0 77.02492195864524,19.1883969382248,0 77.02492578233368,19.1884224150212,0 77.02493530557172,19.18850243385679,0 77.02493596659146,19.18850719132528,0 77.02494360120141,19.18857062022399,0 77.02494373871129,19.18857199648579,0 77.02494353307644,19.18859263789863,0 77.0249432014618,19.18861987124901,0 77.02494258443615,19.18868085891139,0 77.0249435246869,19.18869502719616,0 77.02496603832383,19.18902275032764,0 77.02499814713092,19.18914499290448,0 77.02502689597929,19.18925521965591,0 77.02502788945311,19.18925940747645,0 77.02501551533049,19.18930720846556,0 77.02493444088871,19.18962345737677,0 77.02493338623,19.18962730140284,0 77.0250874069847,19.19018611308488,0 77.02508841372364,19.19018940380664,0 77.02507681246576,19.19020554874962,0 77.02506040672183,19.19022854624452,0 77.0250355854434,19.19026319005368,0 77.02499466323719,19.19032033299194,0 77.0249943801534,19.19032071664416,0 77.02500775532441,19.19034422338998,0 77.02518217690759,19.19064742519025,0 77.0251915827009,19.19067320497917,0 77.02539442264138,19.19123322726754,0 
						</coordinates>
					</LinearRing>
				</outerBoundaryIs>
			</Polygon>
		</Placemark>
	</Document>
	<Document>
		<name>Ward no.8.kml</name>
		<StyleMap id="m_ylw-pushpin6">
			<Pair>
				<key>normal</key>
				<styleUrl>#s_ylw-pushpin6</styleUrl>
			</Pair>
			<Pair>
				<key>highlight</key>
				<styleUrl>#s_ylw-pushpin_hl6</styleUrl>
			</Pair>
		</StyleMap>
		<Style id="s_ylw-pushpin6">
			<IconStyle>
				<scale>1.1</scale>
				<Icon>
					<href>http://maps.google.com/mapfiles/kml/pushpin/ylw-pushpin.png</href>
				</Icon>
				<hotSpot x="20" y="2" xunits="pixels" yunits="pixels"/>
			</IconStyle>
			<LineStyle>
				<color>ffffff55</color>
				<width>3</width>
			</LineStyle>
			<PolyStyle>
				<fill>0</fill>
			</PolyStyle>
		</Style>
		<Style id="s_ylw-pushpin_hl6">
			<IconStyle>
				<scale>1.3</scale>
				<Icon>
					<href>http://maps.google.com/mapfiles/kml/pushpin/ylw-pushpin.png</href>
				</Icon>
				<hotSpot x="20" y="2" xunits="pixels" yunits="pixels"/>
			</IconStyle>
			<LineStyle>
				<color>ffffff55</color>
				<width>3</width>
			</LineStyle>
			<PolyStyle>
				<fill>0</fill>
			</PolyStyle>
		</Style>
		<Placemark>
			<name>Ward no.8.kml</name>
			<styleUrl>#m_ylw-pushpin6</styleUrl>
			<Polygon>
				<tessellate>1</tessellate>
				<outerBoundaryIs>
					<LinearRing>
						<coordinates>
							77.0204988763672,19.19567576888993,0 77.0198751727814,19.1956644649621,0 77.01981206460727,19.19566325920929,0 77.01885310829266,19.19495639359169,0 77.01871511650674,19.19485444461462,0 77.01855552100636,19.19473693565855,0 77.01455312621992,19.19178689442283,0 77.0139718465073,19.19135908156699,0 77.01389078602988,19.19129890007292,0 77.01388167806776,19.19128260567618,0 77.01309239181947,19.1898755942121,0 77.0126648344787,19.18912100078918,0 77.01194222282088,19.18784265633993,0 77.0118874829042,19.18774596750632,0 77.011827574731,19.18763987231679,0 77.01186156030334,19.18756348388506,0 77.01199032602463,19.18727478736863,0 77.01287695847977,19.18529161763533,0 77.01305303788375,19.18489515118736,0 77.01340970276185,19.18412108466242,0 77.01361340471988,19.1836802702003,0 77.0138688334099,19.18312686002099,0 77.01392693988434,19.18300097451437,0 77.01398978616213,19.18286491139008,0 77.0140483120132,19.18273826615167,0 77.01431275260927,19.18216476422765,0 77.01434233853803,19.18210086826416,0 77.01447740625905,19.182103797433,0 77.01533235709023,19.18210298246215,0 77.01570021959655,19.18210176524973,0 77.01609197088457,19.18212280830459,0 77.0167757515004,19.18207022125343,0 77.01744851848615,19.18201790219459,0 77.01784371668661,19.18204549855187,0 77.01809962386223,19.18206289247252,0 77.01846942420273,19.18211728633912,0 77.0189858166884,19.18207462577558,0 77.01906333077413,19.18206848960374,0 77.01913798589098,19.18216667604752,0 77.01931588124978,19.18227541323074,0 77.01946372473455,19.18230217254841,0 77.01948157641404,19.18230548225562,0 77.01957321258583,19.18238703691337,0 77.01957755621508,19.18239075467044,0 77.01973846169903,19.18250350770172,0 77.01974596134004,19.18250843582054,0 77.01999459525551,19.18267022987355,0 77.02002148348197,19.18268364628691,0 77.02013426728803,19.18273972670591,0 77.02032306472624,19.1828336951555,0 77.02042324447046,19.18288351523659,0 77.02043282009991,19.18288835559089,0 77.02044395750086,19.18290805359815,0 77.02052731913167,19.18305569725688,0 77.02053480216979,19.18305451119715,0 77.02055609396183,19.18305088440581,0 77.02063531202731,19.18303749806373,0 77.02076512283169,19.18301556930383,0 77.02087055306312,19.18299774708768,0 77.02101573420718,19.18297322019421,0 77.02133790582734,19.18291884157575,0 77.0218529948896,19.1829344815461,0 77.02186300229319,19.18293472274966,0 77.02186964757821,19.18293340314804,0 77.02218407428694,19.18287362423138,0 77.02221737235011,19.18309300016148,0 77.02220832574874,19.18310176150285,0 77.02205816249193,19.18324707459091,0 77.02205042092753,19.18325469791617,0 77.0219995356715,19.18330849508648,0 77.02194416054036,19.18336709945299,0 77.02186229733363,19.18345345152418,0 77.02179133420751,19.18352846877361,0 77.02165706778129,19.18361257311068,0 77.02147182247626,19.18372864165725,0 77.02145602722425,19.18373852365528,0 77.02145737274905,19.1837413550911,0 77.02153658571002,19.18389187497105,0 77.02154200656338,19.18390248223044,0 77.02154564406973,19.18394017941452,0 77.02154989483081,19.18398451757946,0 77.02155428029187,19.18403039243162,0 77.02158719533791,19.18437582793188,0 77.02158845000675,19.18438909556674,0 77.02159154502051,19.18439458276163,0 77.02164350541908,19.18448849183057,0 77.02165827298441,19.18451525523544,0 77.02167683968898,19.18459399606457,0 77.02170148535562,19.18469963574655,0 77.0216513334008,19.18471744935378,0 77.02087904516287,19.18499416434526,0 77.02086623439334,19.18499929833118,0 77.02087515070538,19.18503763451434,0 77.02093774301622,19.1853063095108,0 77.02105079308232,19.18578791886334,0 77.02108768120632,19.18602748825457,0 77.02115032923257,19.18643639682827,0 77.02116587850394,19.18653605790222,0 77.02119384170246,19.18671688299965,0 77.02122699869888,19.1869271221253,0 77.02125546256806,19.18713466632935,0 77.02126109416324,19.18717559260522,0 77.02127043939498,19.18724405378035,0 77.02127548144898,19.18728106538793,0 77.02130923736313,19.18752724168821,0 77.02132464246817,19.18764408798023,0 77.02134406799949,19.18779281463265,0 77.02136629614171,19.18796260815542,0 77.02138413093461,19.18809877622277,0 77.02148411815384,19.18885465986136,0 77.02154309401347,19.1893092772624,0 77.02160562057531,19.18978073446977,0 77.02161884292855,19.18987876544648,0 77.02164157399757,19.19005030552847,0 77.02166338023414,19.19021375635983,0 77.02169927056859,19.19048406694484,0 77.02172235828287,19.19065714511977,0 77.02177298349211,19.1910389979931,0 77.02181022842441,19.19131883126844,0 77.02183692623016,19.19151801001782,0 77.02183734816163,19.19152450979545,0 77.02187848214747,19.19180988050798,0 77.02196892613301,19.19243832513852,0 77.02229484044619,19.1947020035301,0 77.02236557092836,19.19518867899816,0 77.02240232899727,19.19544390467142,0 77.02241985865605,19.19557423615755,0 77.02243854289416,19.1957131354233,0 77.02245219019208,19.19571319771192,0 77.0204988763672,19.19567576888993,0 
						</coordinates>
					</LinearRing>
				</outerBoundaryIs>
			</Polygon>
		</Placemark>
	</Document>
	<Document>
		<name>Ward no.9.kml</name>
		<StyleMap id="m_ylw-pushpin7">
			<Pair>
				<key>normal</key>
				<styleUrl>#s_ylw-pushpin7</styleUrl>
			</Pair>
			<Pair>
				<key>highlight</key>
				<styleUrl>#s_ylw-pushpin_hl7</styleUrl>
			</Pair>
		</StyleMap>
		<Style id="s_ylw-pushpin7">
			<IconStyle>
				<scale>1.1</scale>
				<Icon>
					<href>http://maps.google.com/mapfiles/kml/pushpin/ylw-pushpin.png</href>
				</Icon>
				<hotSpot x="20" y="2" xunits="pixels" yunits="pixels"/>
			</IconStyle>
			<LineStyle>
				<color>ffffff55</color>
				<width>3</width>
			</LineStyle>
			<PolyStyle>
				<fill>0</fill>
			</PolyStyle>
		</Style>
		<Style id="s_ylw-pushpin_hl7">
			<IconStyle>
				<scale>1.3</scale>
				<Icon>
					<href>http://maps.google.com/mapfiles/kml/pushpin/ylw-pushpin.png</href>
				</Icon>
				<hotSpot x="20" y="2" xunits="pixels" yunits="pixels"/>
			</IconStyle>
			<LineStyle>
				<color>ffffff55</color>
				<width>3</width>
			</LineStyle>
			<PolyStyle>
				<fill>0</fill>
			</PolyStyle>
		</Style>
		<Placemark>
			<name>Ward no.9.kml</name>
			<styleUrl>#m_ylw-pushpin7</styleUrl>
			<Polygon>
				<tessellate>1</tessellate>
				<outerBoundaryIs>
					<LinearRing>
						<coordinates>
							77.01547270459432,19.17965101143024,0 77.01562189444623,19.17932794032215,0 77.01562673612416,19.17931748555281,0 77.01560632035996,19.17927426614534,0 77.01571688539511,19.17927762880581,0 77.01694728912167,19.1793164892752,0 77.0188906660041,19.17937740670824,0 77.0189680001,19.17937990684401,0 77.01897507511691,19.17935125339514,0 77.01908051425839,19.17892702231549,0 77.01910139221532,19.17892630874533,0 77.0191182100765,19.17883775243411,0 77.01939756235255,19.17886321709234,0 77.01963190723708,19.17886220861488,0 77.01963444512785,19.1786067629391,0 77.01983947067104,19.17858177438033,0 77.0201801012258,19.17855737382764,0 77.02020176187087,19.17856314860512,0 77.02021050272924,19.17866170042828,0 77.02047419201229,19.17866298895546,0 77.02042932016494,19.17893499656616,0 77.02031233461932,19.17964213263643,0 77.02030782607996,19.17967286385189,0 77.02059927076601,19.1797405821488,0 77.02216497635212,19.18011144607413,0 77.02379388054155,19.1804097297258,0 77.02477602300797,19.18057247095843,0 77.0250981302957,19.18062492188044,0 77.02519948462474,19.18064176770735,0 77.02515780226005,19.18079789039384,0 77.02514441726888,19.18084662002812,0 77.0251042127295,19.18099760711146,0 77.02510448261683,19.18101862991026,0 77.02507848491136,19.18122261947027,0 77.02506444500983,19.18133232962605,0 77.02506311925229,19.18134364181405,0 77.02502599214432,19.18134003969751,0 77.02496093373159,19.18133386638576,0 77.0247597075833,19.18131466683139,0 77.02475149570039,19.18131384165393,0 77.02475056143703,19.18131878560642,0 77.02467665436768,19.18168712319592,0 77.02463627255527,19.18188797762707,0 77.02463318878335,19.18190403061838,0 77.02461364620815,19.18190274428057,0 77.02402648307482,19.1818649532184,0 77.02402245522804,19.1818646560548,0 77.02400590215915,19.18186072036468,0 77.02378173143862,19.18180686515922,0 77.02374672470876,19.18179841521879,0 77.02372586114151,19.1817941497517,0 77.02312103791465,19.18166775755185,0 77.02306886418198,19.1816598319198,0 77.02292763472772,19.18163842656318,0 77.02282551133648,19.18162286668562,0 77.02278226526367,19.18161628410394,0 77.02269863599565,19.18160441639369,0 77.02255768076512,19.18158429551419,0 77.0224452473295,19.18156823156377,0 77.0223170542605,19.18154995297007,0 77.02223314238762,19.18153377261697,0 77.02188899465182,19.1814678303201,0 77.02187404705523,19.18146490463547,0 77.02179729736008,19.18147549037896,0 77.02179200891256,19.18147632801465,0 77.02171401620478,19.18146724638065,0 77.02157592329075,19.18145106218246,0 77.02090230420553,19.18136856927713,0 77.02089471575896,19.18136769073255,0 77.02086013005126,19.18159747664574,0 77.02085842129333,19.1816091225424,0 77.02085738458662,19.1816108252769,0 77.02082487552759,19.18166824992987,0 77.02081407815187,19.18168707414167,0 77.02079188014014,19.18176762884073,0 77.02078294346212,19.18179950845276,0 77.02078254228543,19.18180842820436,0 77.02076822948503,19.18209711630332,0 77.02076748137071,19.18211328189399,0 77.02076379893583,19.18211452295832,0 77.02068008799021,19.18214172909251,0 77.02031297004902,19.18223579158016,0 77.02030194221135,19.18223861853193,0 77.0202992459073,19.18223898658558,0 77.01988135021831,19.18230379219914,0 77.01977405579186,19.18232039062284,0 77.01962432536807,19.18233782787865,0 77.01962069849814,19.18234135230047,0 77.01957321258583,19.18238703691337,0 77.01948157641404,19.18230548225562,0 77.01946372473455,19.18230217254841,0 77.01931588124978,19.18227541323074,0 77.01913798589098,19.18216667604752,0 77.01906333077413,19.18206848960374,0 77.0189858166884,19.18207462577558,0 77.01846942420273,19.18211728633912,0 77.01809962386223,19.18206289247252,0 77.01784371668661,19.18204549855187,0 77.01744851848615,19.18201790219459,0 77.0167757515004,19.18207022125343,0 77.01609197088457,19.18212280830459,0 77.01570021959655,19.18210176524973,0 77.01533235709023,19.18210298246215,0 77.01447740625905,19.182103797433,0 77.01434233853803,19.18210086826416,0 77.01547270459432,19.17965101143024,0 
						</coordinates>
					</LinearRing>
				</outerBoundaryIs>
			</Polygon>
		</Placemark>
	</Document>
	<Document>
		<name>Ward no.10.kml</name>
		<StyleMap id="m_ylw-pushpin8">
			<Pair>
				<key>normal</key>
				<styleUrl>#s_ylw-pushpin8</styleUrl>
			</Pair>
			<Pair>
				<key>highlight</key>
				<styleUrl>#s_ylw-pushpin_hl8</styleUrl>
			</Pair>
		</StyleMap>
		<Style id="s_ylw-pushpin8">
			<IconStyle>
				<scale>1.1</scale>
				<Icon>
					<href>http://maps.google.com/mapfiles/kml/pushpin/ylw-pushpin.png</href>
				</Icon>
				<hotSpot x="20" y="2" xunits="pixels" yunits="pixels"/>
			</IconStyle>
			<LineStyle>
				<color>ffffff55</color>
				<width>3</width>
			</LineStyle>
			<PolyStyle>
				<fill>0</fill>
			</PolyStyle>
		</Style>
		<Style id="s_ylw-pushpin_hl8">
			<IconStyle>
				<scale>1.3</scale>
				<Icon>
					<href>http://maps.google.com/mapfiles/kml/pushpin/ylw-pushpin.png</href>
				</Icon>
				<hotSpot x="20" y="2" xunits="pixels" yunits="pixels"/>
			</IconStyle>
			<LineStyle>
				<color>ffffff55</color>
				<width>3</width>
			</LineStyle>
			<PolyStyle>
				<fill>0</fill>
			</PolyStyle>
		</Style>
		<Placemark>
			<name>Ward no.10.kml</name>
			<styleUrl>#m_ylw-pushpin8</styleUrl>
			<Polygon>
				<tessellate>1</tessellate>
				<outerBoundaryIs>
					<LinearRing>
						<coordinates>
							77.01278044780629,19.16816719007293,0 77.01302981546505,19.1680849551625,0 77.01334447836966,19.16811156507139,0 77.01554376179979,19.16850150575672,0 77.01624834191132,19.16860877663635,0 77.01754428423895,19.1688567491106,0 77.02016885113859,19.1692699571969,0 77.02312963763322,19.16976770159164,0 77.02420959858007,19.16997738566518,0 77.02516220721047,19.17012208589545,0 77.02516622735509,19.17018729727995,0 77.02530353669371,19.1714272135897,0 77.02533231599041,19.17168855440548,0 77.0253640071832,19.17197320818211,0 77.02538835572965,19.17219675847602,0 77.02542020659602,19.17248193444824,0 77.02543341505007,19.17260084524488,0 77.02544875068396,19.17273945969594,0 77.02547125930185,19.17294443953113,0 77.02549078880499,19.17312190182792,0 77.02550815092577,19.17327605639504,0 77.02552144412505,19.17339825194004,0 77.02556304574404,19.17377186614621,0 77.02561540732144,19.17424387382659,0 77.02564518079448,19.17451483315365,0 77.02571678030324,19.1751058096572,0 77.02574143642035,19.17531174793206,0 77.02574774892085,19.17536107921625,0 77.02573916811511,19.17542298178528,0 77.02559359194943,19.17645846005371,0 77.02553631414682,19.17686211369423,0 77.0255002073651,19.17712062266538,0 77.02555871344772,19.17712375327887,0 77.02547703712798,19.17759528416259,0 77.02595544072192,19.17765432110532,0 77.02594186681775,19.17770498404786,0 77.02588474011044,19.17803076897521,0 77.02578753052831,19.17810754349373,0 77.02572297923035,19.17849979529197,0 77.02564168044761,19.17863991402198,0 77.02585581158429,19.178668633526,0 77.02572813064396,19.17953315011459,0 77.02575706947738,19.17972874000284,0 77.02567420854392,19.18014260743951,0 77.02534584381348,19.18009466679924,0 77.02519951756007,19.18064190899909,0 77.02493810326216,19.18059878614106,0 77.02470427626093,19.18056086916232,0 77.02384225933992,19.18041784134523,0 77.02379382923526,19.18040955531181,0 77.0230084668927,19.18026580452504,0 77.02278824847389,19.18022555271519,0 77.02242417999135,19.18015890129582,0 77.02216378662681,19.18011117905215,0 77.02146916423848,19.17994662050337,0 77.02131858502965,19.17991098675069,0 77.02032865368922,19.17967764258366,0 77.02030747533993,19.17967263280717,0 77.02035818657296,19.17936534087182,0 77.02037490236171,19.17926386275836,0 77.02040947184798,19.17905457990378,0 77.02044830400877,19.17881989701083,0 77.02046238568182,19.17873537793335,0 77.02047331052096,19.17866812007228,0 77.02047435152302,19.1786629044914,0 77.02045516083105,19.17866291819604,0 77.0202172701359,19.17866173677746,0 77.02021051584406,19.17866169554895,0 77.02020941020439,19.17864984189422,0 77.02020190837973,19.17856506220205,0 77.02020178051558,19.17856313950485,0 77.02018031478914,19.17855744373535,0 77.02016295332025,19.17855860332223,0 77.01984241995025,19.17858152246465,0 77.01983917812341,19.17858180174913,0 77.01980949706166,19.17858548220595,0 77.01977895401724,19.17858911580239,0 77.01963741486662,19.17860642481207,0 77.01963441754411,19.17860671907667,0 77.01963431184346,19.178618610258,0 77.01963195550026,19.17885440110737,0 77.01963191451668,19.17886218062456,0 77.01961698932182,19.17886223310671,0 77.01940345767653,19.17886323432315,0 77.01939728396556,19.17886322403817,0 77.01938112904733,19.17886173535297,0 77.01913107536294,19.17883896867589,0 77.01911824829789,19.17883751101042,0 77.01910285734824,19.17891854402715,0 77.01910144410691,19.1789263478597,0 77.01909710286323,19.17892646060207,0 77.01908075098,19.17892703801355,0 77.01899704601456,19.1792630143602,0 77.01896984504174,19.17937246715377,0 77.01896788790833,19.17937997423477,0 77.01891503758911,19.17937823365679,0 77.01744407302525,19.17933136156088,0 77.01570464240409,19.17927730698523,0 77.01560890304134,19.17927434756466,0 77.01560630714849,19.17927422702402,0 77.01547320655035,19.17899359787799,0 77.01290154961545,19.17356948826278,0 77.01020495766805,19.17034627391847,0 77.01252671168197,19.16833400463742,0 77.01278044780629,19.16816719007293,0 
						</coordinates>
					</LinearRing>
				</outerBoundaryIs>
			</Polygon>
		</Placemark>
	</Document>
	<Document>
		<name>Ward no.11.kml</name>
		<StyleMap id="m_ylw-pushpin9">
			<Pair>
				<key>normal</key>
				<styleUrl>#s_ylw-pushpin9</styleUrl>
			</Pair>
			<Pair>
				<key>highlight</key>
				<styleUrl>#s_ylw-pushpin_hl9</styleUrl>
			</Pair>
		</StyleMap>
		<Style id="s_ylw-pushpin9">
			<IconStyle>
				<scale>1.1</scale>
				<Icon>
					<href>http://maps.google.com/mapfiles/kml/pushpin/ylw-pushpin.png</href>
				</Icon>
				<hotSpot x="20" y="2" xunits="pixels" yunits="pixels"/>
			</IconStyle>
			<LineStyle>
				<color>ffffff55</color>
				<width>3</width>
			</LineStyle>
			<PolyStyle>
				<fill>0</fill>
			</PolyStyle>
		</Style>
		<Style id="s_ylw-pushpin_hl9">
			<IconStyle>
				<scale>1.3</scale>
				<Icon>
					<href>http://maps.google.com/mapfiles/kml/pushpin/ylw-pushpin.png</href>
				</Icon>
				<hotSpot x="20" y="2" xunits="pixels" yunits="pixels"/>
			</IconStyle>
			<LineStyle>
				<color>ffffff55</color>
				<width>3</width>
			</LineStyle>
			<PolyStyle>
				<fill>0</fill>
			</PolyStyle>
		</Style>
		<Placemark>
			<name>Ward no.11.kml</name>
			<styleUrl>#m_ylw-pushpin9</styleUrl>
			<Polygon>
				<tessellate>1</tessellate>
				<outerBoundaryIs>
					<LinearRing>
						<coordinates>
							77.02584292548708,19.17022526604695,0 77.0262076399171,19.17029285567542,0 77.02653919642893,19.17035392534497,0 77.02668284916186,19.1703786659995,0 77.02737004772537,19.17049475084665,0 77.02890340677855,19.17075361692913,0 77.02901690434953,19.17077399371479,0 77.03008010816221,19.17096465125344,0 77.03226933931776,19.17135745540462,0 77.03274303756811,19.17144270765585,0 77.03323402141731,19.17150437446634,0 77.03325436733981,19.17150696951346,0 77.03325470178901,19.17150834595666,0 77.03327781077135,19.17160562118171,0 77.03332577675572,19.1718659266568,0 77.03337581885506,19.17213755512737,0 77.03337861046749,19.17215259785629,0 77.03338121125536,19.17216813924637,0 77.03340586999067,19.17231479190865,0 77.03340833540481,19.17232987734544,0 77.03346978594396,19.17269443515422,0 77.03347620914678,19.17273239316303,0 77.03349988536159,19.17287292151187,0 77.03358606061786,19.1735724524977,0 77.03360377803162,19.17371347470417,0 77.03360524199697,19.17372114357883,0 77.0336949323015,19.17418272841799,0 77.03372636311856,19.17434393588302,0 77.0337524616224,19.17447599784163,0 77.03376638121031,19.1745464441033,0 77.03378020181518,19.17465238730011,0 77.0337997966157,19.17480059590707,0 77.03381194562802,19.17489145126192,0 77.0338839425757,19.17543088564506,0 77.03388762848704,19.17545789760032,0 77.03396455195289,19.17587155673253,0 77.03401547352524,19.17614398893259,0 77.03403795509472,19.17626381980192,0 77.03413866760876,19.17683528335901,0 77.03417859733331,19.17706422470144,0 77.034186443385,19.17709993135492,0 77.03422189454014,19.17726244599682,0 77.0344227068216,19.17815447614064,0 77.03442860612623,19.17818133730977,0 77.0344350811972,19.17819645820682,0 77.03446301201642,19.17826166481833,0 77.03446278142991,19.17826330187402,0 77.03445488248448,19.17836894170443,0 77.03445310412062,19.17839331992153,0 77.03434547242595,19.17896368426161,0 77.03434554731359,19.17896516825543,0 77.03437142254408,19.17915887708372,0 77.03439344835408,19.17929149877014,0 77.03440677095277,19.17937013054718,0 77.03442725401568,19.17950711640082,0 77.03442766705702,19.17950990679963,0 77.03442538891601,19.17951026023775,0 77.0338164103967,19.17961020195244,0 77.03378115870362,19.1796160691123,0 77.03375903681253,19.17961996882305,0 77.03368812230276,19.17963266395446,0 77.03355983830805,19.17965552299008,0 77.03342524377834,19.17967956643646,0 77.0332740546623,19.17970658738776,0 77.03323726437807,19.17971319908495,0 77.03321346247716,19.1797174457147,0 77.0321106191271,19.17994121620129,0 77.03169164202536,19.18002656011769,0 77.03135800681686,19.1800946133115,0 77.03123893340769,19.18011882434813,0 77.03058739381362,19.18029971290761,0 77.03057458928589,19.18030310233893,0 77.03056568199257,19.18030223111726,0 77.03008295286368,19.18025948177845,0 77.03008233969091,19.18026259872295,0 77.03001008505569,19.18064736813945,0 77.02999544119693,19.180725236828,0 77.02992986173128,19.18107494659361,0 77.02992497357845,19.18110078121046,0 77.02989450120231,19.18142822406917,0 77.02989425857955,19.18143063672966,0 77.02989213305335,19.18143044383396,0 77.02975697756204,19.18142628297706,0 77.02967264238048,19.18142387881768,0 77.02904244343299,19.18140452613196,0 77.02845452716322,19.18136407428418,0 77.02843732340935,19.18136291751748,0 77.02716546147958,19.18117214209868,0 77.02715177554299,19.18117004615089,0 77.02709765838691,19.18116088470902,0 77.02555167137157,19.18090088143872,0 77.02530848057785,19.180848395929,0 77.0251628100665,19.18081692559173,0 77.02515307372201,19.18081483326487,0 77.02515367649499,19.18081300026221,0 77.02519951756007,19.18064190899909,0 77.02534584381348,19.18009466679924,0 77.02567420854392,19.18014260743951,0 77.02575706947738,19.17972874000284,0 77.02572813064396,19.17953315011459,0 77.02585581158429,19.178668633526,0 77.02564168044761,19.17863991402198,0 77.02572297923035,19.17849979529197,0 77.02578753052831,19.17810754349373,0 77.02588474011044,19.17803076897521,0 77.02594186681775,19.17770498404786,0 77.02595544072192,19.17765432110532,0 77.02547703712798,19.17759528416259,0 77.02555871344772,19.17712375327887,0 77.0255002073651,19.17712062266538,0 77.02553631414682,19.17686211369423,0 77.02559359194943,19.17645846005371,0 77.02573916811511,19.17542298178528,0 77.02574774892085,19.17536107921625,0 77.02574143642035,19.17531174793206,0 77.02571678030324,19.1751058096572,0 77.02564518079448,19.17451483315365,0 77.02561540732144,19.17424387382659,0 77.02556304574404,19.17377186614621,0 77.02552144412505,19.17339825194004,0 77.02550815092577,19.17327605639504,0 77.02549078880499,19.17312190182792,0 77.02547125930185,19.17294443953113,0 77.02544875068396,19.17273945969594,0 77.02543341505007,19.17260084524488,0 77.02542020659602,19.17248193444824,0 77.02538835572965,19.17219675847602,0 77.0253640071832,19.17197320818211,0 77.02533231599041,19.17168855440548,0 77.02530353669371,19.1714272135897,0 77.02516622735509,19.17018729727995,0 77.02516220721047,19.17012208589545,0 77.02584292548708,19.17022526604695,0 
						</coordinates>
					</LinearRing>
				</outerBoundaryIs>
			</Polygon>
		</Placemark>
	</Document>
	<atom:link rel="app" href="https://www.google.com/earth/about/versions/#earth-pro" title="Google Earth Pro 7.3.6.10201"></atom:link>
</Folder>
</kml>
