<?xml version="1.0" encoding="UTF-8"?>
<kml xmlns="http://www.opengis.net/kml/2.2" xmlns:gx="http://www.google.com/kml/ext/2.2" xmlns:kml="http://www.opengis.net/kml/2.2" xmlns:atom="http://www.w3.org/2005/Atom">
<Folder>
	<name>Temporary Places</name>
	<open>1</open>
	<Document>
		<name>Ward No. 1.kml</name>
		<StyleMap id="m_ylw-pushpin">
			<Pair>
				<key>normal</key>
				<styleUrl>#s_ylw-pushpin</styleUrl>
			</Pair>
			<Pair>
				<key>highlight</key>
				<styleUrl>#s_ylw-pushpin_hl</styleUrl>
			</Pair>
		</StyleMap>
		<Style id="s_ylw-pushpin">
			<IconStyle>
				<scale>1.1</scale>
				<Icon>
					<href>http://maps.google.com/mapfiles/kml/pushpin/ylw-pushpin.png</href>
				</Icon>
				<hotSpot x="20" y="2" xunits="pixels" yunits="pixels"/>
			</IconStyle>
			<LineStyle>
				<color>ffffff00</color>
				<width>3</width>
			</LineStyle>
			<PolyStyle>
				<color>00ffffff</color>
			</PolyStyle>
		</Style>
		<Style id="s_ylw-pushpin_hl">
			<IconStyle>
				<scale>1.3</scale>
				<Icon>
					<href>http://maps.google.com/mapfiles/kml/pushpin/ylw-pushpin.png</href>
				</Icon>
				<hotSpot x="20" y="2" xunits="pixels" yunits="pixels"/>
			</IconStyle>
			<LineStyle>
				<color>ffffff00</color>
				<width>3</width>
			</LineStyle>
			<PolyStyle>
				<color>00ffffff</color>
			</PolyStyle>
		</Style>
		<Placemark>
			<name>Ward No. 1</name>
			<styleUrl>#m_ylw-pushpin</styleUrl>
			<Polygon>
				<tessellate>1</tessellate>
				<outerBoundaryIs>
					<LinearRing>
						<coordinates>
							77.03521478500136,29.03603186908781,0 77.03251566999948,29.03662040881867,0 77.03206500406924,29.03669182490061,0 77.03161186614818,29.03638688753887,0 77.03155110098366,29.03635416596255,0 77.03120800069802,29.03594736870368,0 77.03050063237566,29.03488392374666,0 77.03039039458304,29.03448944327133,0 77.02977220389933,29.03318580903154,0 77.02909637935883,29.03266975762982,0 77.02734580359974,29.03267112812482,0 77.02733199406646,29.03214741950306,0 77.02459479005852,29.03217393982294,0 77.02459294309264,29.03218486040838,0 77.02458784083446,29.03164486022443,0 77.02321346664161,29.03164958798103,0 77.02320980590956,29.03110727191084,0 77.02187055487245,29.03113326735573,0 77.02186797054283,29.03108974436675,0 77.02114643232349,29.03109977091395,0 77.02114331691844,29.03055645452612,0 77.019730855888,29.03058008428948,0 77.01972481674669,29.03004877933327,0 77.01904106363395,29.03005431872803,0 77.0190276917978,29.02949928758276,0 77.01770957345289,29.02954745186873,0 77.01770169272136,29.02896029945475,0 77.01699504921939,29.02897604764364,0 77.01698593453145,29.0284544583189,0 77.0162654731965,29.02847116235045,0 77.01626483236905,29.02798095137827,0 77.01616560922523,29.02798027118434,0 77.01616966484299,29.02791312072237,0 77.01554021517398,29.027912474118,0 77.01492873933248,29.0281205191085,0 77.01492178916826,29.02741062209527,0 77.01439427816732,29.02742241004481,0 77.0134884501709,29.02702118918506,0 77.01341008087336,29.0260718126518,0 77.01317740381357,29.02503375976985,0 77.01222689301976,29.02173874451503,0 77.0099053912226,29.01353421143462,0 77.00880027600466,29.00959780296196,0 77.0086782169942,29.00892336772655,0 77.00859822161846,29.00784949025391,0 77.00869362266756,29.00687082519881,0 77.00886992780383,29.00599755879849,0 77.00907109089216,29.00533808558283,0 77.01284698620069,28.99749907737237,0 77.01337360336233,28.99767357175751,0 77.01300647507205,28.99874683561512,0 77.01368080941579,28.9991629563917,0 77.01387605138356,28.99903704858254,0 77.01448024597576,29.00039041057011,0 77.01444045927359,29.00075169145243,0 77.01521365784168,29.0011101215941,0 77.0155267937629,29.00127026873199,0 77.01614794637759,29.00136711831652,0 77.01615742586749,29.00142584449745,0 77.01639265450099,29.00144324087654,0 77.0166775025564,29.00139360196215,0 77.01680990945439,29.00235572617528,0 77.01712505567913,29.00229432201225,0 77.01724607589294,29.00213884304246,0 77.01785885882622,29.00184201411382,0 77.01814066034751,29.00183714033679,0 77.01867662062887,29.00162324607627,0 77.01885369873119,29.00148384887028,0 77.01907151307353,29.00139444688593,0 77.01914075770084,29.00156034714806,0 77.01987880066424,29.00139663412568,0 77.02040294778979,29.00127187922124,0 77.02121413847934,29.00128837193241,0 77.02118576121524,29.00131652884714,0 77.019614771589,29.00313494583173,0 77.01869162003501,29.00457006997451,0 77.01855964344833,29.00505015240098,0 77.01893447115758,29.00577629460409,0 77.01936899402008,29.00577464815659,0 77.01934190163531,29.0072020014299,0 77.0190048278082,29.00717171883639,0 77.01897418874893,29.00751550610857,0 77.01795139372929,29.00742569799533,0 77.01788633066164,29.00788504088182,0 77.01893262591337,29.00792500760211,0 77.02068449532347,29.00805981172142,0 77.02067754717838,29.00669279265527,0 77.02136048923551,29.00667776576122,0 77.02157818577425,29.00713207515506,0 77.02184541624493,29.00779584951733,0 77.02244183475487,29.00933186059266,0 77.0228353160268,29.00931264231107,0 77.02339096925878,29.00981938213259,0 77.02383866805232,29.01049780298506,0 77.02399223129817,29.01059461512227,0 77.0243353669686,29.01119137625045,0 77.02470045063522,29.01168878822896,0 77.02496029109571,29.01213134394054,0 77.02565265627049,29.01358805521828,0 77.02663754707324,29.01434948700394,0 77.02715951272145,29.01481720858375,0 77.027397269631,29.01511629886074,0 77.0272724233523,29.01598688191338,0 77.0272391732104,29.01657247631516,0 77.02703664511199,29.01723316141186,0 77.02728558895673,29.01787445864958,0 77.02746827820724,29.01856941653069,0 77.02763806778331,29.01943445685411,0 77.02830341493433,29.02117184368726,0 77.0282923887108,29.02152768417786,0 77.02859631105096,29.0223552829895,0 77.02960455239021,29.02181657582384,0 77.0303869028762,29.0230127863861,0 77.03007400099492,29.02315948548259,0 77.02978757201076,29.02335385890915,0 77.03049877931315,29.02428146989707,0 77.03128504209243,29.02391564022674,0 77.03336903878258,29.02390659783993,0 77.03336650160894,29.02501046447921,0 77.03544752655996,29.02501369838118,0 77.03545282078497,29.02540023762019,0 77.03286157470338,29.02717081086229,0 77.03284417246499,29.0286487016455,0 77.03348925195607,29.02865278992347,0 77.03350238734289,29.03097363403895,0 77.03382385907852,29.03187721921586,0 77.03407322623349,29.03236693533148,0 77.03501793753949,29.03404485075927,0 77.03515621864511,29.03527695905408,0 77.03521478500136,29.03603186908781,0 
						</coordinates>
					</LinearRing>
				</outerBoundaryIs>
			</Polygon>
		</Placemark>
	</Document>
	<Document>
		<name>Ward No. 2.kml</name>
		<StyleMap id="m_ylw-pushpin0">
			<Pair>
				<key>normal</key>
				<styleUrl>#s_ylw-pushpin0</styleUrl>
			</Pair>
			<Pair>
				<key>highlight</key>
				<styleUrl>#s_ylw-pushpin_hl0</styleUrl>
			</Pair>
		</StyleMap>
		<Style id="s_ylw-pushpin0">
			<IconStyle>
				<scale>1.1</scale>
				<Icon>
					<href>http://maps.google.com/mapfiles/kml/pushpin/ylw-pushpin.png</href>
				</Icon>
				<hotSpot x="20" y="2" xunits="pixels" yunits="pixels"/>
			</IconStyle>
			<LineStyle>
				<color>ffffff00</color>
				<width>3</width>
			</LineStyle>
			<PolyStyle>
				<color>00ffffff</color>
			</PolyStyle>
		</Style>
		<Style id="s_ylw-pushpin_hl0">
			<IconStyle>
				<scale>1.3</scale>
				<Icon>
					<href>http://maps.google.com/mapfiles/kml/pushpin/ylw-pushpin.png</href>
				</Icon>
				<hotSpot x="20" y="2" xunits="pixels" yunits="pixels"/>
			</IconStyle>
			<LineStyle>
				<color>ffffff00</color>
				<width>3</width>
			</LineStyle>
			<PolyStyle>
				<color>00ffffff</color>
			</PolyStyle>
		</Style>
		<Placemark>
			<name>Ward No. 2</name>
			<styleUrl>#m_ylw-pushpin0</styleUrl>
			<Polygon>
				<tessellate>1</tessellate>
				<outerBoundaryIs>
					<LinearRing>
						<coordinates>
							77.01402963285565,28.99883096307294,0 77.01560778508265,28.99809178841014,0 77.01616031291569,28.99745803290427,0 77.01804879179792,28.99610537095195,0 77.01832655812532,28.99659686417455,0 77.01877778956029,28.99724059126636,0 77.01900945776261,28.99707772555858,0 77.01927123868364,28.99696307610468,0 77.02003401554114,28.99682182505209,0 77.02070101520098,28.9967178750528,0 77.02106663109946,28.99644846705915,0 77.02189167641586,28.99595850032472,0 77.02245956924804,28.99539705092155,0 77.02295278440698,28.99582061389533,0 77.02348679018151,28.99579869431181,0 77.02481181112658,28.99634130973963,0 77.02364976232477,28.99783927331639,0 77.02295985533971,28.99867818871547,0 77.02298272958045,28.99937825366953,0 77.02318082721294,29.0006186866736,0 77.02405015254216,29.00187842085816,0 77.02394145262376,29.00222641153784,0 77.02118575189594,29.0013165240572,0 77.02121413847934,29.00128837193241,0 77.02040294778979,29.00127187922124,0 77.01987880066424,29.00139663412568,0 77.01914075770084,29.00156034714806,0 77.01907151307353,29.00139444688593,0 77.01885369873119,29.00148384887028,0 77.01867662062887,29.00162324607627,0 77.01814066034751,29.00183714033679,0 77.01785885882622,29.00184201411382,0 77.01724607589294,29.00213884304246,0 77.01712505567913,29.00229432201225,0 77.01680990945439,29.00235572617528,0 77.0166775025564,29.00139360196215,0 77.01639265450099,29.00144324087654,0 77.01615742586749,29.00142584449745,0 77.01614794637759,29.00136711831652,0 77.0155267937629,29.00127026873199,0 77.01521365784168,29.0011101215941,0 77.01444045927359,29.00075169145243,0 77.01448024597576,29.00039041057011,0 77.01387605138356,28.99903704858254,0 77.01402963285565,28.99883096307294,0 
						</coordinates>
					</LinearRing>
				</outerBoundaryIs>
			</Polygon>
		</Placemark>
	</Document>
	<Document>
		<name>Ward No. 3.kml</name>
		<StyleMap id="m_ylw-pushpin1">
			<Pair>
				<key>normal</key>
				<styleUrl>#s_ylw-pushpin1</styleUrl>
			</Pair>
			<Pair>
				<key>highlight</key>
				<styleUrl>#s_ylw-pushpin_hl1</styleUrl>
			</Pair>
		</StyleMap>
		<Style id="s_ylw-pushpin1">
			<IconStyle>
				<scale>1.1</scale>
				<Icon>
					<href>http://maps.google.com/mapfiles/kml/pushpin/ylw-pushpin.png</href>
				</Icon>
				<hotSpot x="20" y="2" xunits="pixels" yunits="pixels"/>
			</IconStyle>
			<LineStyle>
				<color>ffffff00</color>
				<width>3</width>
			</LineStyle>
			<PolyStyle>
				<color>00ffffff</color>
			</PolyStyle>
		</Style>
		<Style id="s_ylw-pushpin_hl1">
			<IconStyle>
				<scale>1.3</scale>
				<Icon>
					<href>http://maps.google.com/mapfiles/kml/pushpin/ylw-pushpin.png</href>
				</Icon>
				<hotSpot x="20" y="2" xunits="pixels" yunits="pixels"/>
			</IconStyle>
			<LineStyle>
				<color>ffffff00</color>
				<width>3</width>
			</LineStyle>
			<PolyStyle>
				<color>00ffffff</color>
			</PolyStyle>
		</Style>
		<Placemark>
			<name>Ward No. 3</name>
			<styleUrl>#m_ylw-pushpin1</styleUrl>
			<Polygon>
				<tessellate>1</tessellate>
				<outerBoundaryIs>
					<LinearRing>
						<coordinates>
							77.02545639560522,28.99552810890061,0 77.02589646017898,28.99460184977955,0 77.02684886570471,28.99444015265984,0 77.02825887365998,28.9943501117165,0 77.02950255375882,28.99408964694918,0 77.03143146995879,28.99281386343417,0 77.03281213757573,28.99190313738324,0 77.03705685724694,28.99284981450198,0 77.03361361183828,29.00484157840345,0 77.03322700255111,29.00560258114258,0 77.0326740868322,29.00516400828518,0 77.03129826626086,29.00433686715792,0 77.02703987546164,29.00314751956559,0 77.02688736606544,29.00310479532852,0 77.02398917891871,29.00224165714326,0 77.02394145262376,29.00222641153784,0 77.02405015254216,29.00187842085816,0 77.02318082721294,29.0006186866736,0 77.02298272958045,28.99937825366953,0 77.02295985533971,28.99867818871547,0 77.02364976232477,28.99783927331639,0 77.02481181112658,28.99634130973963,0 77.02545639560522,28.99552810890061,0 
						</coordinates>
					</LinearRing>
				</outerBoundaryIs>
			</Polygon>
		</Placemark>
	</Document>
	<Document>
		<name>Ward No. 4.kml</name>
		<StyleMap id="m_ylw-pushpin2">
			<Pair>
				<key>normal</key>
				<styleUrl>#s_ylw-pushpin2</styleUrl>
			</Pair>
			<Pair>
				<key>highlight</key>
				<styleUrl>#s_ylw-pushpin_hl2</styleUrl>
			</Pair>
		</StyleMap>
		<Style id="s_ylw-pushpin2">
			<IconStyle>
				<scale>1.1</scale>
				<Icon>
					<href>http://maps.google.com/mapfiles/kml/pushpin/ylw-pushpin.png</href>
				</Icon>
				<hotSpot x="20" y="2" xunits="pixels" yunits="pixels"/>
			</IconStyle>
			<LineStyle>
				<color>ffffff00</color>
				<width>3</width>
			</LineStyle>
			<PolyStyle>
				<color>00ffffff</color>
			</PolyStyle>
		</Style>
		<Style id="s_ylw-pushpin_hl2">
			<IconStyle>
				<scale>1.3</scale>
				<Icon>
					<href>http://maps.google.com/mapfiles/kml/pushpin/ylw-pushpin.png</href>
				</Icon>
				<hotSpot x="20" y="2" xunits="pixels" yunits="pixels"/>
			</IconStyle>
			<LineStyle>
				<color>ffffff00</color>
				<width>3</width>
			</LineStyle>
			<PolyStyle>
				<color>00ffffff</color>
			</PolyStyle>
		</Style>
		<Placemark>
			<name>Ward No. 4</name>
			<open>1</open>
			<styleUrl>#m_ylw-pushpin2</styleUrl>
			<Polygon>
				<tessellate>1</tessellate>
				<outerBoundaryIs>
					<LinearRing>
						<coordinates>
							77.03980709585886,29.00937874337955,0 77.03922633540881,29.0090634131205,0 77.03744039379512,29.00835850932096,0 77.03675063238279,29.00819361072841,0 77.03545212555507,29.0079831355386,0 77.03525853639012,29.00791355113135,0 77.03498771134866,29.00772930834253,0 77.03322702167716,29.0056024535815,0 77.03361368710732,29.0048412478314,0 77.0370569115131,28.9928496957277,0 77.03281215220935,28.9919031891805,0 77.03498776404744,28.99036510394843,0 77.03646454695637,28.98916386522871,0 77.0374188861098,28.98870206148506,0 77.03846490214328,28.98830637696964,0 77.03935789148039,28.98779594113141,0 77.04003666585031,28.98732723920888,0 77.04093427506882,28.98650455689003,0 77.04167400649197,28.98725759049895,0 77.04232757988159,28.98682773628971,0 77.04247165806999,28.98694305043152,0 77.04315578354844,28.98701528184877,0 77.04646535872027,28.98779534849542,0 77.04769152855184,28.98804585122571,0 77.04223214703715,29.00684726395827,0 77.04197483745104,29.00681103220585,0 77.04177509160967,29.00761032207894,0 77.0411756133506,29.0074672254475,0 77.04147700788151,29.00966445707988,0 77.04044158690705,29.00987830690417,0 77.03980709585886,29.00937874337955,0 
						</coordinates>
					</LinearRing>
				</outerBoundaryIs>
			</Polygon>
		</Placemark>
	</Document>
	<Document>
		<name>Ward No. 5.kml</name>
		<StyleMap id="m_ylw-pushpin3">
			<Pair>
				<key>normal</key>
				<styleUrl>#s_ylw-pushpin3</styleUrl>
			</Pair>
			<Pair>
				<key>highlight</key>
				<styleUrl>#s_ylw-pushpin_hl3</styleUrl>
			</Pair>
		</StyleMap>
		<Style id="s_ylw-pushpin3">
			<IconStyle>
				<scale>1.1</scale>
				<Icon>
					<href>http://maps.google.com/mapfiles/kml/pushpin/ylw-pushpin.png</href>
				</Icon>
				<hotSpot x="20" y="2" xunits="pixels" yunits="pixels"/>
			</IconStyle>
			<LineStyle>
				<color>ffffff00</color>
				<width>3</width>
			</LineStyle>
			<PolyStyle>
				<color>00ffffff</color>
			</PolyStyle>
		</Style>
		<Style id="s_ylw-pushpin_hl3">
			<IconStyle>
				<scale>1.3</scale>
				<Icon>
					<href>http://maps.google.com/mapfiles/kml/pushpin/ylw-pushpin.png</href>
				</Icon>
				<hotSpot x="20" y="2" xunits="pixels" yunits="pixels"/>
			</IconStyle>
			<LineStyle>
				<color>ffffff00</color>
				<width>3</width>
			</LineStyle>
			<PolyStyle>
				<color>00ffffff</color>
			</PolyStyle>
		</Style>
		<Placemark>
			<name>Ward No. 5</name>
			<styleUrl>#m_ylw-pushpin3</styleUrl>
			<Polygon>
				<tessellate>1</tessellate>
				<outerBoundaryIs>
					<LinearRing>
						<coordinates>
							77.04044158690705,29.00987830690417,0 77.04094264964623,29.01022656098936,0 77.04799111140774,29.01430132729747,0 77.05178320111307,29.01603648436071,0 77.05266131712716,29.01628694379695,0 77.05260813947906,29.01660560634785,0 77.05243951400979,29.01875187652553,0 77.05271477633653,29.03708889312883,0 77.05212818613931,29.03738307119571,0 77.05174369133861,29.03723582922516,0 77.05097262788564,29.03715338584563,0 77.0495190384283,29.03727018539599,0 77.04902187023777,29.03737352653204,0 77.04822673614264,29.03747419054224,0 77.04806967060351,29.03722967774545,0 77.04735200928323,29.03577193101157,0 77.04701273437489,29.03521051234742,0 77.04542930663007,29.0358854275837,0 77.04538332848254,29.0362868121913,0 77.0440152844281,29.03655622184733,0 77.04396701754384,29.03651802287875,0 77.04148231316225,29.03796124986149,0 77.0407285737774,29.03856015082383,0 77.04008631034542,29.03774226278875,0 77.03932908853548,29.0363931831824,0 77.03913877657206,29.03604499854873,0 77.03888846472653,29.03564450057195,0 77.0385685819748,29.03524605993147,0 77.03515621864511,29.03527695905408,0 77.03501793753949,29.03404485075927,0 77.03407322623349,29.03236693533148,0 77.03382385907852,29.03187721921586,0 77.03350238734289,29.03097363403895,0 77.03348925195607,29.02865278992347,0 77.03284417246499,29.0286487016455,0 77.03286157470338,29.02717081086229,0 77.03545282078497,29.02540023762019,0 77.03544752655996,29.02501369838118,0 77.03336650160894,29.02501046447921,0 77.03336903878258,29.02390659783993,0 77.03128504209243,29.02391564022674,0 77.03049877931315,29.02428146989707,0 77.02978757201076,29.02335385890915,0 77.03007400099492,29.02315948548259,0 77.0303869028762,29.0230127863861,0 77.02960455239021,29.02181657582384,0 77.02859631105096,29.0223552829895,0 77.0282923887108,29.02152768417786,0 77.02830341493433,29.02117184368726,0 77.02763806778331,29.01943445685411,0 77.02746827820724,29.01856941653069,0 77.02728558895673,29.01787445864958,0 77.02703664511199,29.01723316141186,0 77.0272391732104,29.01657247631516,0 77.0272724233523,29.01598688191338,0 77.027397269631,29.01511629886074,0 77.02715951272145,29.01481720858375,0 77.02663754707324,29.01434948700394,0 77.02565265627049,29.01358805521828,0 77.02496029109571,29.01213134394054,0 77.02470045063522,29.01168878822896,0 77.0243353669686,29.01119137625045,0 77.02399223129817,29.01059461512227,0 77.02383866805232,29.01049780298506,0 77.02339096925878,29.00981938213259,0 77.0228353160268,29.00931264231107,0 77.02244183475487,29.00933186059266,0 77.02184541624493,29.00779584951733,0 77.02157818577425,29.00713207515506,0 77.02136048923551,29.00667776576122,0 77.02067754717838,29.00669279265527,0 77.02068449532347,29.00805981172142,0 77.01893262591337,29.00792500760211,0 77.01788633066164,29.00788504088182,0 77.01795139372929,29.00742569799533,0 77.01897418874893,29.00751550610857,0 77.0190048278082,29.00717171883639,0 77.01934190163531,29.0072020014299,0 77.01936899402008,29.00577464815659,0 77.01893447115758,29.00577629460409,0 77.01855964344833,29.00505015240098,0 77.01869162003501,29.00457006997451,0 77.019614771589,29.00313494583173,0 77.02118576121524,29.00131652884714,0 77.02397864469228,29.00223857989742,0 77.02689498776714,29.00310703956525,0 77.03129830935688,29.0043368633493,0 77.03267396041571,29.00516394386183,0 77.03322681670194,29.00560242012588,0 77.03498791653956,29.00772944443232,0 77.03525861862509,29.00791352682237,0 77.03545200500011,29.00798308739972,0 77.03675116309115,29.00819371217328,0 77.03744053094361,29.00835855614861,0 77.03922661864115,29.00906350121373,0 77.0398069301217,29.00937864615585,0 77.04044158690705,29.00987830690417,0 
						</coordinates>
					</LinearRing>
				</outerBoundaryIs>
			</Polygon>
		</Placemark>
	</Document>
	<Document>
		<name>Ward No. 6.kml</name>
		<StyleMap id="m_ylw-pushpin4">
			<Pair>
				<key>normal</key>
				<styleUrl>#s_ylw-pushpin4</styleUrl>
			</Pair>
			<Pair>
				<key>highlight</key>
				<styleUrl>#s_ylw-pushpin_hl4</styleUrl>
			</Pair>
		</StyleMap>
		<Style id="s_ylw-pushpin4">
			<IconStyle>
				<scale>1.1</scale>
				<Icon>
					<href>http://maps.google.com/mapfiles/kml/pushpin/ylw-pushpin.png</href>
				</Icon>
				<hotSpot x="20" y="2" xunits="pixels" yunits="pixels"/>
			</IconStyle>
			<LineStyle>
				<color>ffffff00</color>
				<width>3</width>
			</LineStyle>
			<PolyStyle>
				<color>00ffffff</color>
			</PolyStyle>
		</Style>
		<Style id="s_ylw-pushpin_hl4">
			<IconStyle>
				<scale>1.3</scale>
				<Icon>
					<href>http://maps.google.com/mapfiles/kml/pushpin/ylw-pushpin.png</href>
				</Icon>
				<hotSpot x="20" y="2" xunits="pixels" yunits="pixels"/>
			</IconStyle>
			<LineStyle>
				<color>ffffff00</color>
				<width>3</width>
			</LineStyle>
			<PolyStyle>
				<color>00ffffff</color>
			</PolyStyle>
		</Style>
		<Placemark>
			<name>Ward No. 6</name>
			<styleUrl>#m_ylw-pushpin4</styleUrl>
			<Polygon>
				<tessellate>1</tessellate>
				<outerBoundaryIs>
					<LinearRing>
						<coordinates>
							77.0708442171577,29.0499276717582,0 77.06996760787572,29.04948555274365,0 77.06987214153716,29.04948142329933,0 77.06977199383294,29.04949500168615,0 77.06959021946682,29.04957306249155,0 77.0638445357424,29.06920455797858,0 77.06128692440292,29.06842823740445,0 77.05901174458808,29.06876939615458,0 77.06535676995361,29.04789897813366,0 77.06614928892751,29.04750086798274,0 77.0637328294,29.04424351653076,0 77.06259395207228,29.04482566065913,0 77.06175840395113,29.04529278805843,0 77.06116962139882,29.04425308640387,0 77.0609182395475,29.04369478986125,0 77.06072558144429,29.04313843978669,0 77.06065255412791,29.04298114466199,0 77.06047399634484,29.04271673907516,0 77.06032063583658,29.04238553134484,0 77.06010903867467,29.04199308592102,0 77.0599643428838,29.04182552639122,0 77.05965637935596,29.04162687644943,0 77.05917966444528,29.04137215553286,0 77.05897306367592,29.04121245988657,0 77.05875002862129,29.04100772922421,0 77.05854763644184,29.04079064893557,0 77.05833832096462,29.04060289092653,0 77.05814537685561,29.04045818613821,0 77.05787814598608,29.04024145299287,0 77.057776316832,29.04016261503089,0 77.05764123372641,29.04006746963499,0 77.05734047864649,29.03987972232935,0 77.05714887692312,29.03972221595134,0 77.05698711349041,29.03956632073337,0 77.05685540072861,29.03942108651382,0 77.05651549628773,29.03895328259394,0 77.05522463428859,29.03773715868869,0 77.05496012086788,29.03745671191048,0 77.05474118574448,29.03725725524217,0 77.05463984729529,29.03718441783562,0 77.05438990623344,29.03713250328957,0 77.05384934403072,29.0370493701931,0 77.05347474652295,29.03701863061553,0 77.05324378701495,29.0369943109411,0 77.05307009577723,29.0369919805179,0 77.0528946914077,29.03699357360838,0 77.05271477633653,29.03708889312883,0 77.05243951400979,29.01875187652553,0 77.05260813947906,29.01660560634785,0 77.05266131712716,29.01628694379695,0 77.05178320111307,29.01603648436071,0 77.04799111140774,29.01430132729747,0 77.04094264964623,29.01022656098936,0 77.04044158690705,29.00987830690417,0 77.04147700788151,29.00966445707988,0 77.0411756133506,29.0074672254475,0 77.04177509160967,29.00761032207894,0 77.04197483745104,29.00681103220585,0 77.04223214703715,29.00684726395827,0 77.04904122298638,28.98339714498771,0 77.04961293671479,28.98353009786675,0 77.05024537868904,28.9843139945134,0 77.05241108058514,28.98639746627034,0 77.05394044999738,28.98820213459258,0 77.05459663249496,28.98904445808287,0 77.05607475093234,28.99187384398349,0 77.05715372007563,28.99385934306883,0 77.0577624499192,28.99472280059332,0 77.05851720370934,28.9959270648378,0 77.05929094828441,28.99787921417542,0 77.08078198907535,29.00284196631722,0 77.08151069152527,29.00041116562844,0 77.08327197317243,29.00038964440538,0 77.08353046690888,29.00952699759459,0 77.0801989286003,29.00963874693381,0 77.07953743432309,29.01080884598185,0 77.08070404887721,29.01079288470133,0 77.07807668037213,29.01955073841565,0 77.07745810257866,29.02096720355352,0 77.07713600953319,29.02119453159276,0 77.07677479296079,29.02150903006699,0 77.0765699243013,29.02191869214623,0 77.07651782115238,29.02231559671448,0 77.07587539522081,29.02599813470524,0 77.07523242772574,29.0293195446821,0 77.07335819981384,29.03268153669629,0 77.07325887694866,29.03310882008556,0 77.07331756678434,29.0412216051582,0 77.0708442171577,29.0499276717582,0 
						</coordinates>
					</LinearRing>
				</outerBoundaryIs>
			</Polygon>
		</Placemark>
	</Document>
	<Document>
		<name>Ward No. 7.kml</name>
		<StyleMap id="m_ylw-pushpin5">
			<Pair>
				<key>normal</key>
				<styleUrl>#s_ylw-pushpin5</styleUrl>
			</Pair>
			<Pair>
				<key>highlight</key>
				<styleUrl>#s_ylw-pushpin_hl5</styleUrl>
			</Pair>
		</StyleMap>
		<Style id="s_ylw-pushpin5">
			<IconStyle>
				<scale>1.1</scale>
				<Icon>
					<href>http://maps.google.com/mapfiles/kml/pushpin/ylw-pushpin.png</href>
				</Icon>
				<hotSpot x="20" y="2" xunits="pixels" yunits="pixels"/>
			</IconStyle>
			<LineStyle>
				<color>ffffff00</color>
				<width>3</width>
			</LineStyle>
			<PolyStyle>
				<color>00ffffff</color>
			</PolyStyle>
		</Style>
		<Style id="s_ylw-pushpin_hl5">
			<IconStyle>
				<scale>1.3</scale>
				<Icon>
					<href>http://maps.google.com/mapfiles/kml/pushpin/ylw-pushpin.png</href>
				</Icon>
				<hotSpot x="20" y="2" xunits="pixels" yunits="pixels"/>
			</IconStyle>
			<LineStyle>
				<color>ffffff00</color>
				<width>3</width>
			</LineStyle>
			<PolyStyle>
				<color>00ffffff</color>
			</PolyStyle>
		</Style>
		<Placemark>
			<name>Ward No. 7</name>
			<open>1</open>
			<styleUrl>#m_ylw-pushpin5</styleUrl>
			<Polygon>
				<tessellate>1</tessellate>
				<outerBoundaryIs>
					<LinearRing>
						<coordinates>
							77.09347045382661,28.9585511418652,0 77.09448002281349,28.95840751668472,0 77.09457532274291,28.95905855955085,0 77.09503834632307,28.95889910527242,0 77.09626669384403,28.95855916551666,0 77.09648373562072,28.97184228511681,0 77.09187484752924,28.97189052361994,0 77.08724997265965,28.98834587421007,0 77.08650176706513,28.98834982861407,0 77.08668769803836,28.99925378275355,0 77.08325121287187,28.99930168104414,0 77.0832719424133,29.0003895508412,0 77.08151061960501,29.00041124367095,0 77.08078180658005,29.00284201714663,0 77.05929116800235,28.99787917974538,0 77.05851749900717,28.99592739362867,0 77.0577627045387,28.99472320126852,0 77.05715629536127,28.99386347482255,0 77.05607138222287,28.99186723882868,0 77.05459785966485,28.98904627753123,0 77.05393846048919,28.98819943598617,0 77.05241493482433,28.98640178498851,0 77.050245639159,28.98431441699045,0 77.04961206286623,28.98352936355732,0 77.04767212640988,28.98105566151785,0 77.04876577066189,28.98019310820612,0 77.04901159253099,28.98002070739651,0 77.04993404844845,28.97937214486785,0 77.05283986715109,28.97744359620524,0 77.05471643924963,28.97619836378514,0 77.05537687052454,28.97586339873402,0 77.05604133784074,28.97559653560416,0 77.05664480927123,28.97544631390482,0 77.05992869473623,28.97483671989675,0 77.06113759900917,28.97461617745991,0 77.06553827342987,28.97381159635377,0 77.06642798383503,28.97365081708851,0 77.06779266404763,28.97341203997199,0 77.06908092099584,28.97316131613822,0 77.07449475869248,28.97217602538249,0 77.07603513454552,28.97168415573445,0 77.07815636482441,28.9705298372688,0 77.08319418592039,28.96679647000726,0 77.08586294633491,28.96533431812646,0 77.08553992817602,28.9636880978403,0 77.08500386119825,28.96308780582088,0 77.08425153507511,28.96135733904155,0 77.08441810430843,28.96113120746588,0 77.08253009785271,28.96115976857088,0 77.0824775575316,28.96008414866586,0 77.08320774590491,28.96004930094079,0 77.08316132964111,28.958971713537,0 77.08257286082566,28.95899511158992,0 77.08254538692078,28.95632053547742,0 77.09419223553306,28.95617894333897,0 77.09347045382661,28.9585511418652,0 
						</coordinates>
					</LinearRing>
				</outerBoundaryIs>
			</Polygon>
		</Placemark>
	</Document>
	<Document>
		<name>Ward No. 8.kml</name>
		<StyleMap id="m_ylw-pushpin6">
			<Pair>
				<key>normal</key>
				<styleUrl>#s_ylw-pushpin6</styleUrl>
			</Pair>
			<Pair>
				<key>highlight</key>
				<styleUrl>#s_ylw-pushpin_hl6</styleUrl>
			</Pair>
		</StyleMap>
		<Style id="s_ylw-pushpin6">
			<IconStyle>
				<scale>1.1</scale>
				<Icon>
					<href>http://maps.google.com/mapfiles/kml/pushpin/ylw-pushpin.png</href>
				</Icon>
				<hotSpot x="20" y="2" xunits="pixels" yunits="pixels"/>
			</IconStyle>
			<LineStyle>
				<color>ffffff00</color>
				<width>3</width>
			</LineStyle>
			<PolyStyle>
				<color>00ffffff</color>
			</PolyStyle>
		</Style>
		<Style id="s_ylw-pushpin_hl6">
			<IconStyle>
				<scale>1.3</scale>
				<Icon>
					<href>http://maps.google.com/mapfiles/kml/pushpin/ylw-pushpin.png</href>
				</Icon>
				<hotSpot x="20" y="2" xunits="pixels" yunits="pixels"/>
			</IconStyle>
			<LineStyle>
				<color>ffffff00</color>
				<width>3</width>
			</LineStyle>
			<PolyStyle>
				<color>00ffffff</color>
			</PolyStyle>
		</Style>
		<Placemark>
			<name>Ward No. 8</name>
			<open>1</open>
			<styleUrl>#m_ylw-pushpin6</styleUrl>
			<Polygon>
				<tessellate>1</tessellate>
				<outerBoundaryIs>
					<LinearRing>
						<coordinates>
							77.06257955526799,28.92020359563482,0 77.06323640523001,28.9202772532254,0 77.06623495399187,28.92083604333331,0 77.07074253977059,28.9217826265437,0 77.07719760772716,28.92325016747994,0 77.08281410085246,28.92445406781171,0 77.08605670130893,28.92511527561179,0 77.08831897477064,28.92553088912235,0 77.09097158835417,28.92553820428091,0 77.09495477746441,28.92469293104914,0 77.0977350696418,28.92402109401361,0 77.09847367130101,28.92396812776678,0 77.10197715195034,28.92389716923857,0 77.10323627172585,28.92422444033585,0 77.11423854256634,28.92605679134076,0 77.11212678533403,28.92758466524216,0 77.11223960207867,28.93196126259778,0 77.11177512089199,28.93334576911318,0 77.11176605266832,28.93374404885071,0 77.11219005946703,28.93495950526111,0 77.11312638178985,28.93552375199644,0 77.11317061651323,28.93894036459519,0 77.10276319753099,28.93908131344037,0 77.10290204278485,28.94453238010033,0 77.10382712101452,28.94462038575314,0 77.10393109743326,28.94453322198805,0 77.10979974198841,28.94438705061504,0 77.10993347378037,28.95299976146542,0 77.10924977148883,28.95317303711884,0 77.10848163193982,28.95322374319356,0 77.10711492733222,28.95314311622237,0 77.10611896541295,28.95302041241283,0 77.09924084582551,28.95298492700834,0 77.09683363218062,28.9530718494458,0 77.09527413903012,28.95366714688567,0 77.0949890564809,28.95324158174197,0 77.09419223553306,28.95617894333897,0 77.08254538692078,28.95632053547742,0 77.08257286082566,28.95899511158992,0 77.08316132964111,28.958971713537,0 77.08320774590491,28.96004930094079,0 77.0824775575316,28.96008414866586,0 77.08253009785271,28.96115976857088,0 77.08441810430843,28.96113120746588,0 77.08425153507511,28.96135733904155,0 77.08500386119825,28.96308780582088,0 77.08553992817602,28.9636880978403,0 77.08586294633491,28.96533431812646,0 77.08319418592039,28.96679647000726,0 77.07815636482441,28.9705298372688,0 77.07603513454552,28.97168415573445,0 77.07449475869248,28.97217602538249,0 77.06908092099584,28.97316131613822,0 77.06904805180811,28.97113058182019,0 77.06855203711805,28.97114713492728,0 77.06846807745674,28.96500820920203,0 77.06890866134502,28.96433126173098,0 77.07272516698582,28.96122230847588,0 77.0728045307477,28.96103131853205,0 77.07840375394068,28.95677778205721,0 77.07912025406797,28.95670544788926,0 77.07942373341417,28.95637000703527,0 77.07832371331793,28.9562752545766,0 77.07632509670152,28.95593542089,0 77.07422570485313,28.9554746092366,0 77.07137675976989,28.95493815444849,0 77.06940650221235,28.95456360289805,0 77.06821685076275,28.95431049943211,0 77.06525783722492,28.95374074502109,0 77.06260993886077,28.95257572846218,0 77.06310254507559,28.95051448312014,0 77.06181490673352,28.94946861215294,0 77.06179157997201,28.94883845297072,0 77.06094567442753,28.94881762874116,0 77.06080597450753,28.94933268612736,0 77.06060835126637,28.9498460522019,0 77.05972190404005,28.94952735753193,0 77.05848763543484,28.94887578287481,0 77.05847556388169,28.94854739788126,0 77.05826469366971,28.94812593250677,0 77.05756643829811,28.94725220155832,0 77.05680615972587,28.9473494647933,0 77.05616465645561,28.94790796053139,0 77.0561508075258,28.94892360088075,0 77.05591740414202,28.94879479321935,0 77.05389431899485,28.94691015866949,0 77.05378059297917,28.94674923109234,0 77.05146746905723,28.94444365044302,0 77.04935620045424,28.94238704502587,0 77.04902554834185,28.94218659173964,0 77.05007449642778,28.9408914527596,0 77.05180280499162,28.93936173564916,0 77.05392194333201,28.93643161155025,0 77.05509319571031,28.93454011606947,0 77.05647768071408,28.93254438640249,0 77.06015092175497,28.92654837211986,0 77.0606155377354,28.92478248750335,0 77.06257955526799,28.92020359563482,0 
						</coordinates>
					</LinearRing>
				</outerBoundaryIs>
			</Polygon>
		</Placemark>
	</Document>
	<Document>
		<name>Ward No. 9.kml</name>
		<StyleMap id="m_ylw-pushpin7">
			<Pair>
				<key>normal</key>
				<styleUrl>#s_ylw-pushpin7</styleUrl>
			</Pair>
			<Pair>
				<key>highlight</key>
				<styleUrl>#s_ylw-pushpin_hl7</styleUrl>
			</Pair>
		</StyleMap>
		<Style id="s_ylw-pushpin7">
			<IconStyle>
				<scale>1.1</scale>
				<Icon>
					<href>http://maps.google.com/mapfiles/kml/pushpin/ylw-pushpin.png</href>
				</Icon>
				<hotSpot x="20" y="2" xunits="pixels" yunits="pixels"/>
			</IconStyle>
			<LineStyle>
				<color>ffffff00</color>
				<width>3</width>
			</LineStyle>
			<PolyStyle>
				<color>00ffffff</color>
			</PolyStyle>
		</Style>
		<Style id="s_ylw-pushpin_hl7">
			<IconStyle>
				<scale>1.3</scale>
				<Icon>
					<href>http://maps.google.com/mapfiles/kml/pushpin/ylw-pushpin.png</href>
				</Icon>
				<hotSpot x="20" y="2" xunits="pixels" yunits="pixels"/>
			</IconStyle>
			<LineStyle>
				<color>ffffff00</color>
				<width>3</width>
			</LineStyle>
			<PolyStyle>
				<color>00ffffff</color>
			</PolyStyle>
		</Style>
		<Placemark>
			<name>Ward No. 9</name>
			<open>1</open>
			<styleUrl>#m_ylw-pushpin7</styleUrl>
			<Polygon>
				<tessellate>1</tessellate>
				<outerBoundaryIs>
					<LinearRing>
						<coordinates>
							77.03852022910266,28.97726206717136,0 77.03714997387932,28.97602358789367,0 77.0371132529357,28.97598956823245,0 77.03595545697058,28.97490689906423,0 77.03471310490885,28.97409495344938,0 77.03204154503129,28.97234890461062,0 77.0343097371772,28.96731550200961,0 77.03473901477146,28.96643595308174,0 77.03480912321875,28.96629210191234,0 77.03491401070974,28.96607802410171,0 77.03505661122875,28.96578524759699,0 77.03539723866116,28.96508764182261,0 77.03611770055743,28.96361736028768,0 77.03800867881044,28.95976719606157,0 77.03927114131932,28.95720170309348,0 77.04068552279536,28.9544157389065,0 77.04216303261408,28.95141979310336,0 77.04241438738904,28.95086054065478,0 77.04289726264115,28.94897854604294,0 77.04301842166784,28.94632489848217,0 77.04228865555109,28.94647030875491,0 77.04250897919096,28.94314787473734,0 77.04116728696111,28.93929247225271,0 77.0417312143807,28.93701975557127,0 77.04029257815534,28.93582089608709,0 77.04198925238614,28.93059527491841,0 77.04169593691631,28.92979352427459,0 77.04618252985279,28.92688601313763,0 77.04791346925123,28.925195804789,0 77.04829169276736,28.92384820826468,0 77.04835300400802,28.92243652339267,0 77.04925327720464,28.9215560870092,0 77.04973580410581,28.92095628256614,0 77.05065260072432,28.91858982059711,0 77.05243776362411,28.91853882220932,0 77.05315645867991,28.91889509389669,0 77.05591025826413,28.91980910968046,0 77.05663522034814,28.92069952932047,0 77.05722318564776,28.92153473744738,0 77.05764441723846,28.92228892852526,0 77.05830965525323,28.92353659437237,0 77.05889158758531,28.92448499944193,0 77.0606155377354,28.92478248750335,0 77.06015092175497,28.92654837211986,0 77.05647768071408,28.93254438640249,0 77.05509319571031,28.93454011606947,0 77.05392194333201,28.93643161155025,0 77.05180280499162,28.93936173564916,0 77.05007449642778,28.9408914527596,0 77.04902554834185,28.94218659173964,0 77.04935620045424,28.94238704502587,0 77.05146746905723,28.94444365044302,0 77.05378059297917,28.94674923109234,0 77.05389431899485,28.94691015866949,0 77.05591740414202,28.94879479321935,0 77.0561508075258,28.94892360088075,0 77.05616465645561,28.94790796053139,0 77.05680615972587,28.9473494647933,0 77.05756643829811,28.94725220155832,0 77.05826469366971,28.94812593250677,0 77.05847556388169,28.94854739788126,0 77.05848763543484,28.94887578287481,0 77.05972190404005,28.94952735753193,0 77.06060835126637,28.9498460522019,0 77.06080597450753,28.94933268612736,0 77.06094567442753,28.94881762874116,0 77.06179157997201,28.94883845297072,0 77.06181490673352,28.94946861215294,0 77.06310254507559,28.95051448312014,0 77.06260993886077,28.95257572846218,0 77.06525783722492,28.95374074502109,0 77.06821685076275,28.95431049943211,0 77.06940650221235,28.95456360289805,0 77.07137675976989,28.95493815444849,0 77.07422570485313,28.9554746092366,0 77.07632509670152,28.95593542089,0 77.07832371331793,28.9562752545766,0 77.07942373341417,28.95637000703527,0 77.07912025406797,28.95670544788926,0 77.07840375394068,28.95677778205721,0 77.0728045307477,28.96103131853205,0 77.07272516698582,28.96122230847588,0 77.06890866134502,28.96433126173098,0 77.06846807745674,28.96500820920203,0 77.06855203711805,28.97114713492728,0 77.06904805180811,28.97113058182019,0 77.06908092099584,28.97316131613822,0 77.0677921020185,28.97341151426625,0 77.0670382483611,28.97170483375712,0 77.06645682911929,28.97059764713005,0 77.06425042015049,28.96622237728127,0 77.06638347908728,28.95944559457399,0 77.06217616450728,28.95850801604444,0 77.06102514534176,28.95830542736226,0 77.06072145192624,28.95819265137088,0 77.05939732246516,28.95783335356933,0 77.05824649164073,28.95760923803051,0 77.05152982220737,28.95610708217174,0 77.04776545205915,28.9664672306126,0 77.04768895664603,28.96687796135084,0 77.04713837794516,28.96831648945781,0 77.04587673660373,28.97160902873461,0 77.04524324235805,28.9714448200368,0 77.04446916702884,28.9711376984859,0 77.04370070866872,28.97066550400773,0 77.04248776098689,28.9697013216351,0 77.04176354262292,28.97032313203197,0 77.04129176550023,28.97020464096941,0 77.04061724219349,28.97197282135418,0 77.04021603899173,28.97400948756913,0 77.04001652437412,28.97506665293167,0 77.04096826875841,28.97638011523525,0 77.04121560161867,28.9768519178509,0 77.04120691850915,28.97715214634655,0 77.04095122256668,28.97755340015684,0 77.0400490595339,28.97851289455629,0 77.03852022910266,28.97726206717136,0 
						</coordinates>
					</LinearRing>
				</outerBoundaryIs>
			</Polygon>
		</Placemark>
	</Document>
	<Document>
		<name>Ward No. 10.kml</name>
		<StyleMap id="m_ylw-pushpin8">
			<Pair>
				<key>normal</key>
				<styleUrl>#s_ylw-pushpin8</styleUrl>
			</Pair>
			<Pair>
				<key>highlight</key>
				<styleUrl>#s_ylw-pushpin_hl8</styleUrl>
			</Pair>
		</StyleMap>
		<Style id="s_ylw-pushpin8">
			<IconStyle>
				<scale>1.1</scale>
				<Icon>
					<href>http://maps.google.com/mapfiles/kml/pushpin/ylw-pushpin.png</href>
				</Icon>
				<hotSpot x="20" y="2" xunits="pixels" yunits="pixels"/>
			</IconStyle>
			<LineStyle>
				<color>ffffff00</color>
				<width>3</width>
			</LineStyle>
			<PolyStyle>
				<color>00ffffff</color>
			</PolyStyle>
		</Style>
		<Style id="s_ylw-pushpin_hl8">
			<IconStyle>
				<scale>1.3</scale>
				<Icon>
					<href>http://maps.google.com/mapfiles/kml/pushpin/ylw-pushpin.png</href>
				</Icon>
				<hotSpot x="20" y="2" xunits="pixels" yunits="pixels"/>
			</IconStyle>
			<LineStyle>
				<color>ffffff00</color>
				<width>3</width>
			</LineStyle>
			<PolyStyle>
				<color>00ffffff</color>
			</PolyStyle>
		</Style>
		<Placemark>
			<name>Ward No. 10</name>
			<styleUrl>#m_ylw-pushpin8</styleUrl>
			<Polygon>
				<tessellate>1</tessellate>
				<outerBoundaryIs>
					<LinearRing>
						<coordinates>
							77.01126897115904,28.97156707151301,0 77.0108427933603,28.96984654132465,0 77.01011781238456,28.96869528510157,0 77.0094685613314,28.96757186104247,0 77.02714661967251,28.9673439338694,0 77.02754343951905,28.96654571622952,0 77.02809395629332,28.96594668083483,0 77.03092706465426,28.96051088762464,0 77.03148352997783,28.96070909635307,0 77.03358670019104,28.96028312877243,0 77.03423768677926,28.96019645040091,0 77.03426182945914,28.95914085800316,0 77.03445186133973,28.95854764385991,0 77.03539021911224,28.95729396314158,0 77.03608690818648,28.95739551752215,0 77.03713004036045,28.95774870402943,0 77.03745639943078,28.95785362644624,0 77.03773674823947,28.95801861985861,0 77.03807386006854,28.95813174881618,0 77.03927129233377,28.95720140494501,0 77.03729344432141,28.96122168841931,0 77.03564244706239,28.9645853013162,0 77.03431085465243,28.96731310892946,0 77.03135420269788,28.97387428741737,0 77.02841229543387,28.97389386940826,0 77.028345880811,28.9689987295823,0 77.02696784836441,28.9689901096198,0 77.02320980353493,28.9765926782738,0 77.01499038035476,28.97336006646769,0 77.01407711498383,28.97318372780714,0 77.01358806776537,28.97321319569391,0 77.01201465534263,28.97374551463066,0 77.01126897115904,28.97156707151301,0 
						</coordinates>
					</LinearRing>
				</outerBoundaryIs>
			</Polygon>
		</Placemark>
	</Document>
	<Document>
		<name>Ward No. 11.kml</name>
		<StyleMap id="m_ylw-pushpin9">
			<Pair>
				<key>normal</key>
				<styleUrl>#s_ylw-pushpin9</styleUrl>
			</Pair>
			<Pair>
				<key>highlight</key>
				<styleUrl>#s_ylw-pushpin_hl9</styleUrl>
			</Pair>
		</StyleMap>
		<Style id="s_ylw-pushpin9">
			<IconStyle>
				<scale>1.1</scale>
				<Icon>
					<href>http://maps.google.com/mapfiles/kml/pushpin/ylw-pushpin.png</href>
				</Icon>
				<hotSpot x="20" y="2" xunits="pixels" yunits="pixels"/>
			</IconStyle>
			<LineStyle>
				<color>ffffff00</color>
				<width>3</width>
			</LineStyle>
			<PolyStyle>
				<color>00ffffff</color>
			</PolyStyle>
		</Style>
		<Style id="s_ylw-pushpin_hl9">
			<IconStyle>
				<scale>1.3</scale>
				<Icon>
					<href>http://maps.google.com/mapfiles/kml/pushpin/ylw-pushpin.png</href>
				</Icon>
				<hotSpot x="20" y="2" xunits="pixels" yunits="pixels"/>
			</IconStyle>
			<LineStyle>
				<color>ffffff00</color>
				<width>3</width>
			</LineStyle>
			<PolyStyle>
				<color>00ffffff</color>
			</PolyStyle>
		</Style>
		<Placemark>
			<name>Ward No. 11</name>
			<open>1</open>
			<styleUrl>#m_ylw-pushpin9</styleUrl>
			<Polygon>
				<tessellate>1</tessellate>
				<outerBoundaryIs>
					<LinearRing>
						<coordinates>
							77.02979383970116,28.98424216081285,0 77.02726384592181,28.98369275020683,0 77.02850202539015,28.97971774794899,0 77.02937398459301,28.97755851497326,0 77.02981538526144,28.97731679092472,0 77.03135546098673,28.973873324287,0 77.03204155518952,28.97234891322756,0 77.03595552141226,28.97490695034617,0 77.03714440131149,28.97601841934543,0 77.03851946843668,28.97726127904863,0 77.0400490595339,28.97851289455629,0 77.03854148830769,28.98019420379429,0 77.03835668308517,28.98150847202892,0 77.03908104838136,28.9831684613835,0 77.03899554913289,28.98407240635714,0 77.03877136341858,28.98452893045057,0 77.03783003093103,28.98533846051587,0 77.03715717144175,28.98591803827641,0 77.03553471162485,28.98695020197376,0 77.03467820484053,28.98694367198388,0 77.03343105083135,28.98700292191212,0 77.03232897554301,28.98703638781634,0 77.02979383970116,28.98424216081285,0 
						</coordinates>
					</LinearRing>
				</outerBoundaryIs>
			</Polygon>
		</Placemark>
	</Document>
	<Document>
		<name>Ward No. 12.kml</name>
		<StyleMap id="m_ylw-pushpin10">
			<Pair>
				<key>normal</key>
				<styleUrl>#s_ylw-pushpin10</styleUrl>
			</Pair>
			<Pair>
				<key>highlight</key>
				<styleUrl>#s_ylw-pushpin_hl10</styleUrl>
			</Pair>
		</StyleMap>
		<Style id="s_ylw-pushpin10">
			<IconStyle>
				<scale>1.1</scale>
				<Icon>
					<href>http://maps.google.com/mapfiles/kml/pushpin/ylw-pushpin.png</href>
				</Icon>
				<hotSpot x="20" y="2" xunits="pixels" yunits="pixels"/>
			</IconStyle>
			<LineStyle>
				<color>ffffff00</color>
				<width>3</width>
			</LineStyle>
			<PolyStyle>
				<color>00ffffff</color>
			</PolyStyle>
		</Style>
		<Style id="s_ylw-pushpin_hl10">
			<IconStyle>
				<scale>1.3</scale>
				<Icon>
					<href>http://maps.google.com/mapfiles/kml/pushpin/ylw-pushpin.png</href>
				</Icon>
				<hotSpot x="20" y="2" xunits="pixels" yunits="pixels"/>
			</IconStyle>
			<LineStyle>
				<color>ffffff00</color>
				<width>3</width>
			</LineStyle>
			<PolyStyle>
				<color>00ffffff</color>
			</PolyStyle>
		</Style>
		<Placemark>
			<name>Ward No. 12</name>
			<open>1</open>
			<styleUrl>#m_ylw-pushpin10</styleUrl>
			<Polygon>
				<tessellate>1</tessellate>
				<outerBoundaryIs>
					<LinearRing>
						<coordinates>
							77.02228576407066,28.990127365842,0 77.02037663133268,28.98980713246653,0 77.02126147139248,28.98198129054236,0 77.02068962271382,28.98176537021823,0 77.02321032640334,28.9765919149892,0 77.02696771839904,28.96899006160777,0 77.02834602734029,28.96899869356789,0 77.02841235821393,28.97389399965517,0 77.03135447851393,28.97387428080119,0 77.02981524633823,28.97731682907719,0 77.0293739672464,28.97755851750065,0 77.02850214815642,28.97971729270302,0 77.02726386571636,28.98369266464697,0 77.02979383231504,28.98424214050143,0 77.03232908329241,28.98703640944468,0 77.03165258905584,28.98726228693873,0 77.0310160655733,28.98773373630116,0 77.03053849995985,28.98821454734378,0 77.03028018782227,28.98864180096092,0 77.02761258610933,28.98844771733057,0 77.02710414870737,28.98822761815819,0 77.02614002540325,28.98768309464372,0 77.02562912157389,28.98928013052598,0 77.02541901626439,28.98970593444257,0 77.02520708812615,28.98993940121671,0 77.0249183086673,28.99016306176771,0 77.02472365851388,28.99038578195869,0 77.02438204512308,28.99089755821068,0 77.02427791046119,28.99125186876273,0 77.02401313424727,28.99144403782099,0 77.02371233473229,28.99162498561275,0 77.02301951395673,28.99066243868632,0 77.0231743398333,28.99013312805446,0 77.02270164252187,28.99018364879908,0 77.02228576407066,28.990127365842,0 
						</coordinates>
					</LinearRing>
				</outerBoundaryIs>
			</Polygon>
		</Placemark>
	</Document>
	<Document>
		<name>Ward No. 13.kml</name>
		<StyleMap id="m_ylw-pushpin11">
			<Pair>
				<key>normal</key>
				<styleUrl>#s_ylw-pushpin11</styleUrl>
			</Pair>
			<Pair>
				<key>highlight</key>
				<styleUrl>#s_ylw-pushpin_hl11</styleUrl>
			</Pair>
		</StyleMap>
		<Style id="s_ylw-pushpin11">
			<IconStyle>
				<scale>1.1</scale>
				<Icon>
					<href>http://maps.google.com/mapfiles/kml/pushpin/ylw-pushpin.png</href>
				</Icon>
				<hotSpot x="20" y="2" xunits="pixels" yunits="pixels"/>
			</IconStyle>
			<LineStyle>
				<color>ffffff00</color>
				<width>3</width>
			</LineStyle>
			<PolyStyle>
				<color>00ffffff</color>
			</PolyStyle>
		</Style>
		<Style id="s_ylw-pushpin_hl11">
			<IconStyle>
				<scale>1.3</scale>
				<Icon>
					<href>http://maps.google.com/mapfiles/kml/pushpin/ylw-pushpin.png</href>
				</Icon>
				<hotSpot x="20" y="2" xunits="pixels" yunits="pixels"/>
			</IconStyle>
			<LineStyle>
				<color>ffffff00</color>
				<width>3</width>
			</LineStyle>
			<PolyStyle>
				<color>00ffffff</color>
			</PolyStyle>
		</Style>
		<Placemark>
			<name>Ward No. 13</name>
			<styleUrl>#m_ylw-pushpin11</styleUrl>
			<Polygon>
				<tessellate>1</tessellate>
				<outerBoundaryIs>
					<LinearRing>
						<coordinates>
							77.02950255762239,28.99408965417992,0 77.02825784007798,28.99435025812008,0 77.02684820976323,28.99444026717853,0 77.02589638891141,28.99460190453303,0 77.02590323776336,28.99415545167642,0 77.02698850326836,28.99345427371993,0 77.02852639819972,28.99176361994552,0 77.03028026209182,28.98864185003193,0 77.03053854301336,28.98821452524599,0 77.03101578985228,28.98773399827363,0 77.03165271476773,28.98726217758889,0 77.03232897554301,28.98703638781634,0 77.03343105083135,28.98700292191212,0 77.03467820484053,28.98694367198388,0 77.03553471162485,28.98695020197376,0 77.03715717144175,28.98591803827641,0 77.03783003093103,28.98533846051587,0 77.03877136341858,28.98452893045057,0 77.03899554913289,28.98407240635714,0 77.03908104838136,28.9831684613835,0 77.03835668308517,28.98150847202892,0 77.03854148830769,28.98019420379429,0 77.0400490595339,28.97851289455629,0 77.04095122256668,28.97755340015684,0 77.04120691850915,28.97715214634655,0 77.04121560161867,28.9768519178509,0 77.04096826875841,28.97638011523525,0 77.04001652437412,28.97506665293167,0 77.04021603899173,28.97400948756913,0 77.04061724219349,28.97197282135418,0 77.04129176550023,28.97020464096941,0 77.04176354262292,28.97032313203197,0 77.04248776098689,28.9697013216351,0 77.04370070866872,28.97066550400773,0 77.04446916702884,28.9711376984859,0 77.04524324235805,28.9714448200368,0 77.04587673660373,28.97160902873461,0 77.04713837794516,28.96831648945781,0 77.04768895664603,28.96687796135084,0 77.04776545205915,28.9664672306126,0 77.05152982220737,28.95610708217174,0 77.05824649164073,28.95760923803051,0 77.05939732246516,28.95783335356933,0 77.06072145192624,28.95819265137088,0 77.06102514534176,28.95830542736226,0 77.06217616450728,28.95850801604444,0 77.06638347908728,28.95944559457399,0 77.06425042015049,28.96622237728127,0 77.06645682911929,28.97059764713005,0 77.0670382483611,28.97170483375712,0 77.0677921020185,28.97341151426625,0 77.06615696920697,28.9736989685975,0 77.05999474626223,28.9748249033469,0 77.05664472854656,28.97544629476885,0 77.05604109255553,28.97559669168226,0 77.05537698590086,28.97586319295964,0 77.05471614373828,28.97619843959462,0 77.04993261843433,28.97937311461153,0 77.04876552974727,28.98019323442167,0 77.04767207420065,28.98105568028294,0 77.04961281359084,28.98353007167406,0 77.04904120837575,28.98339695520623,0 77.04769142427709,28.98804584481939,0 77.04646535872027,28.98779534849542,0 77.04315578354844,28.98701528184877,0 77.04247165806999,28.98694305043152,0 77.04232757988159,28.98682773628971,0 77.04167400649197,28.98725759049895,0 77.04093427506882,28.98650455689003,0 77.04003666585031,28.98732723920888,0 77.03935789148039,28.98779594113141,0 77.03846490214328,28.98830637696964,0 77.0374188861098,28.98870206148506,0 77.03646454695637,28.98916386522871,0 77.03498776404744,28.99036510394843,0 77.03281215220935,28.9919031891805,0 77.02950255762239,28.99408965417992,0 
						</coordinates>
					</LinearRing>
				</outerBoundaryIs>
			</Polygon>
		</Placemark>
	</Document>
	<Document>
		<name>Ward No. 14.kml</name>
		<StyleMap id="m_ylw-pushpin12">
			<Pair>
				<key>normal</key>
				<styleUrl>#s_ylw-pushpin12</styleUrl>
			</Pair>
			<Pair>
				<key>highlight</key>
				<styleUrl>#s_ylw-pushpin_hl12</styleUrl>
			</Pair>
		</StyleMap>
		<Style id="s_ylw-pushpin12">
			<IconStyle>
				<scale>1.1</scale>
				<Icon>
					<href>http://maps.google.com/mapfiles/kml/pushpin/ylw-pushpin.png</href>
				</Icon>
				<hotSpot x="20" y="2" xunits="pixels" yunits="pixels"/>
			</IconStyle>
			<LineStyle>
				<color>ffffff00</color>
				<width>3</width>
			</LineStyle>
			<PolyStyle>
				<color>00ffffff</color>
			</PolyStyle>
		</Style>
		<Style id="s_ylw-pushpin_hl12">
			<IconStyle>
				<scale>1.3</scale>
				<Icon>
					<href>http://maps.google.com/mapfiles/kml/pushpin/ylw-pushpin.png</href>
				</Icon>
				<hotSpot x="20" y="2" xunits="pixels" yunits="pixels"/>
			</IconStyle>
			<LineStyle>
				<color>ffffff00</color>
				<width>3</width>
			</LineStyle>
			<PolyStyle>
				<color>00ffffff</color>
			</PolyStyle>
		</Style>
		<Placemark>
			<name>Ward No. 14</name>
			<open>1</open>
			<styleUrl>#m_ylw-pushpin12</styleUrl>
			<Polygon>
				<tessellate>1</tessellate>
				<outerBoundaryIs>
					<LinearRing>
						<coordinates>
							77.02270164252187,28.99018364879908,0 77.0231743398333,28.99013312805446,0 77.02301951395673,28.99066243868632,0 77.02371233473229,28.99162498561275,0 77.02401313424727,28.99144403782099,0 77.02427791046119,28.99125186876273,0 77.02438204512308,28.99089755821068,0 77.02472365851388,28.99038578195869,0 77.0249183086673,28.99016306176771,0 77.02520708812615,28.98993940121671,0 77.02541901626439,28.98970593444257,0 77.02562912157389,28.98928013052598,0 77.02614002540325,28.98768309464372,0 77.02710414870737,28.98822761815819,0 77.02761258610933,28.98844771733057,0 77.03028018782227,28.98864180096092,0 77.02852637722867,28.99176370517942,0 77.02698850689181,28.99345424097529,0 77.02590329728159,28.9941554668201,0 77.02589640385953,28.99460192750524,0 77.02453771347886,28.99476531181127,0 77.02474603860369,28.9938934734119,0 77.0247771667961,28.99322867035852,0 77.02471694027064,28.99291209374851,0 77.02422759197727,28.99209774768245,0 77.02364759135146,28.99243032147056,0 77.02216936397801,28.9906921953876,0 77.02228576407066,28.990127365842,0 77.02270164252187,28.99018364879908,0 
						</coordinates>
					</LinearRing>
				</outerBoundaryIs>
			</Polygon>
		</Placemark>
	</Document>
	<Document>
		<name>Ward No. 15.kml</name>
		<StyleMap id="m_ylw-pushpin13">
			<Pair>
				<key>normal</key>
				<styleUrl>#s_ylw-pushpin13</styleUrl>
			</Pair>
			<Pair>
				<key>highlight</key>
				<styleUrl>#s_ylw-pushpin_hl13</styleUrl>
			</Pair>
		</StyleMap>
		<Style id="s_ylw-pushpin13">
			<IconStyle>
				<scale>1.1</scale>
				<Icon>
					<href>http://maps.google.com/mapfiles/kml/pushpin/ylw-pushpin.png</href>
				</Icon>
				<hotSpot x="20" y="2" xunits="pixels" yunits="pixels"/>
			</IconStyle>
			<LineStyle>
				<color>ffffff00</color>
				<width>3</width>
			</LineStyle>
			<PolyStyle>
				<color>00ffffff</color>
			</PolyStyle>
		</Style>
		<Style id="s_ylw-pushpin_hl13">
			<IconStyle>
				<scale>1.3</scale>
				<Icon>
					<href>http://maps.google.com/mapfiles/kml/pushpin/ylw-pushpin.png</href>
				</Icon>
				<hotSpot x="20" y="2" xunits="pixels" yunits="pixels"/>
			</IconStyle>
			<LineStyle>
				<color>ffffff00</color>
				<width>3</width>
			</LineStyle>
			<PolyStyle>
				<color>00ffffff</color>
			</PolyStyle>
		</Style>
		<Placemark>
			<name>Ward No. 15</name>
			<open>1</open>
			<styleUrl>#m_ylw-pushpin13</styleUrl>
			<Polygon>
				<tessellate>1</tessellate>
				<outerBoundaryIs>
					<LinearRing>
						<coordinates>
							77.01387605138356,28.99903704858254,0 77.01368075054579,28.99916293870999,0 77.01300647435276,28.99874684502376,0 77.0133736217924,28.99767362736338,0 77.0128468934213,28.99749904369114,0 77.01422737265017,28.99461958968975,0 77.01432248939096,28.99442123607704,0 77.01551338296851,28.99182920530147,0 77.01725393629869,28.98852673326902,0 77.01827610311473,28.98658773906596,0 77.01912098146749,28.98498486082934,0 77.02068955876773,28.98176537235809,0 77.02126143604065,28.9819812793254,0 77.02037663393362,28.98980717119022,0 77.02228576407066,28.990127365842,0 77.02216936397801,28.9906921953876,0 77.02364759135146,28.99243032147056,0 77.02422759197727,28.99209774768245,0 77.02471694027064,28.99291209374851,0 77.0247771667961,28.99322867035852,0 77.02474603860369,28.9938934734119,0 77.02453771347886,28.99476531181127,0 77.02589640385953,28.99460192750524,0 77.02545637206373,28.99552808453437,0 77.02481181112658,28.99634130973963,0 77.02348679018151,28.99579869431181,0 77.02295278440698,28.99582061389533,0 77.02245956924804,28.99539705092155,0 77.02189167641586,28.99595850032472,0 77.02106663109946,28.99644846705915,0 77.02070101520098,28.9967178750528,0 77.02003401554114,28.99682182505209,0 77.01927123868364,28.99696307610468,0 77.01900945776261,28.99707772555858,0 77.01877778956029,28.99724059126636,0 77.01832655812532,28.99659686417455,0 77.01804879179792,28.99610537095195,0 77.01616031291569,28.99745803290427,0 77.01560778508265,28.99809178841014,0 77.01402963285565,28.99883096307294,0 77.01387605138356,28.99903704858254,0 
						</coordinates>
					</LinearRing>
				</outerBoundaryIs>
			</Polygon>
		</Placemark>
	</Document>
	<Document>
		<name>Ward No. 16.kml</name>
		<StyleMap id="m_ylw-pushpin14">
			<Pair>
				<key>normal</key>
				<styleUrl>#s_ylw-pushpin14</styleUrl>
			</Pair>
			<Pair>
				<key>highlight</key>
				<styleUrl>#s_ylw-pushpin_hl14</styleUrl>
			</Pair>
		</StyleMap>
		<Style id="s_ylw-pushpin14">
			<IconStyle>
				<scale>1.1</scale>
				<Icon>
					<href>http://maps.google.com/mapfiles/kml/pushpin/ylw-pushpin.png</href>
				</Icon>
				<hotSpot x="20" y="2" xunits="pixels" yunits="pixels"/>
			</IconStyle>
			<LineStyle>
				<color>ffffff00</color>
				<width>3</width>
			</LineStyle>
			<PolyStyle>
				<color>00ffffff</color>
			</PolyStyle>
		</Style>
		<Style id="s_ylw-pushpin_hl14">
			<IconStyle>
				<scale>1.3</scale>
				<Icon>
					<href>http://maps.google.com/mapfiles/kml/pushpin/ylw-pushpin.png</href>
				</Icon>
				<hotSpot x="20" y="2" xunits="pixels" yunits="pixels"/>
			</IconStyle>
			<LineStyle>
				<color>ffffff00</color>
				<width>3</width>
			</LineStyle>
			<PolyStyle>
				<color>00ffffff</color>
			</PolyStyle>
		</Style>
		<Placemark>
			<name>Ward No. 16</name>
			<styleUrl>#m_ylw-pushpin14</styleUrl>
			<Polygon>
				<tessellate>1</tessellate>
				<outerBoundaryIs>
					<LinearRing>
						<coordinates>
							77.01208581898617,28.97400505198048,0 77.0120297230649,28.97378884314561,0 77.01201465534263,28.97374551463066,0 77.01358806776537,28.97321319569391,0 77.01407711498383,28.97318372780714,0 77.01499038035476,28.97336006646769,0 77.02320980353493,28.9765926782738,0 77.01912162382322,28.98498362016746,0 77.01551323030655,28.9918292521942,0 77.0137219847817,28.99119500104684,0 77.01306295971605,28.99139775701468,0 77.0129599710946,28.99105986454167,0 77.01294631181781,28.99080548229072,0 77.00953657642873,28.99084797401562,0 77.00918605297953,28.9904206868029,0 77.00711994054772,28.98841120501452,0 77.00763799296512,28.98798048599832,0 77.00936719913965,28.98791270634388,0 77.0094310993575,28.98879862762555,0 77.01239002395758,28.98875803351436,0 77.01147329442705,28.98675606980797,0 77.01226556648794,28.98630643722245,0 77.01269530821179,28.98688745261379,0 77.01523325891003,28.98592014350606,0 77.01405257650826,28.98189337352607,0 77.01381214241431,28.98083550826744,0 77.01317319182451,28.97820366936221,0 77.01311756865114,28.97797746277049,0 77.01307292689165,28.97780547350854,0 77.01208581898617,28.97400505198048,0 
						</coordinates>
					</LinearRing>
				</outerBoundaryIs>
			</Polygon>
		</Placemark>
	</Document>
	<Document>
		<name>Ward No. 17.kml</name>
		<StyleMap id="m_ylw-pushpin15">
			<Pair>
				<key>normal</key>
				<styleUrl>#s_ylw-pushpin15</styleUrl>
			</Pair>
			<Pair>
				<key>highlight</key>
				<styleUrl>#s_ylw-pushpin_hl15</styleUrl>
			</Pair>
		</StyleMap>
		<Style id="s_ylw-pushpin15">
			<IconStyle>
				<scale>1.1</scale>
				<Icon>
					<href>http://maps.google.com/mapfiles/kml/pushpin/ylw-pushpin.png</href>
				</Icon>
				<hotSpot x="20" y="2" xunits="pixels" yunits="pixels"/>
			</IconStyle>
			<LineStyle>
				<color>ffffff00</color>
				<width>3</width>
			</LineStyle>
			<PolyStyle>
				<color>00ffffff</color>
			</PolyStyle>
		</Style>
		<Style id="s_ylw-pushpin_hl15">
			<IconStyle>
				<scale>1.3</scale>
				<Icon>
					<href>http://maps.google.com/mapfiles/kml/pushpin/ylw-pushpin.png</href>
				</Icon>
				<hotSpot x="20" y="2" xunits="pixels" yunits="pixels"/>
			</IconStyle>
			<LineStyle>
				<color>ffffff00</color>
				<width>3</width>
			</LineStyle>
			<PolyStyle>
				<color>00ffffff</color>
			</PolyStyle>
		</Style>
		<Placemark>
			<name>Ward No. 17</name>
			<open>1</open>
			<styleUrl>#m_ylw-pushpin15</styleUrl>
			<Polygon>
				<tessellate>1</tessellate>
				<outerBoundaryIs>
					<LinearRing>
						<coordinates>
							76.99957953879455,28.97833734216276,0 76.9987571798996,28.97703388248781,0 76.99626245180772,28.97812877110193,0 76.99634593905522,28.97823569864661,0 76.99408252169943,28.97972989910314,0 76.98921843313288,28.9777137445596,0 76.98791280088048,28.97716710189659,0 76.98304451235572,28.97512304840335,0 76.98273966940459,28.97498158818609,0 76.98337044564296,28.97336143167778,0 76.98637983234782,28.97332388208083,0 76.98516698613545,28.96933122110497,0 76.98692782438016,28.96864137954177,0 76.98690122023962,28.96856195210752,0 76.98777698447476,28.96841481906867,0 76.98846810867506,28.96814788454848,0 76.98915019669269,28.96798004277551,0 76.99032400918044,28.96760696168001,0 76.99048209271373,28.96762756037574,0 76.99069375846511,28.96775378882633,0 76.99087238244812,28.96800966620913,0 76.99102350720196,28.96825375051176,0 76.99114061684372,28.96828640204952,0 76.99165932272102,28.96808409881482,0 76.99179497034794,28.96806574035425,0 76.99196993205452,28.96820406668331,0 76.99239241789228,28.96823110862304,0 76.99260231692307,28.96827824058418,0 76.99307016180069,28.9682893565882,0 76.99357053405389,28.96832897882038,0 76.99492598817866,28.96825300249702,0 76.9957877512868,28.9681225012167,0 76.99597714585934,28.96812378455906,0 76.99610701724896,28.9681541623492,0 76.99632082841397,28.96825772438067,0 76.9966768322476,28.96856834348569,0 76.99861231068395,28.9683750836391,0 77.00044622317226,28.96825350376828,0 77.0008590760484,28.96830264256771,0 77.00355526905643,28.96918204372623,0 77.00509397914803,28.96980832339999,0 77.00563488901128,28.97011115911993,0 77.00611626977064,28.96975000385558,0 77.00635669262132,28.96921432208276,0 77.00719842026835,28.96918883767835,0 77.00760201998894,28.96906055923086,0 77.00834460322278,28.96893185881497,0 77.00863220687766,28.96897709125478,0 77.00889962647723,28.96871162083182,0 77.01011777006747,28.96869517824448,0 77.01084284849347,28.96984670106567,0 77.01126868400137,28.97156613730599,0 77.01202970812425,28.97378887606867,0 77.01312040646457,28.97798782694619,0 77.01381214241431,28.98083550826744,0 77.01120835678141,28.98214243213008,0 77.01152325611928,28.98270073806933,0 77.00956341084664,28.9829868187943,0 77.00891834740084,28.98175887681668,0 77.00866339480065,28.9819158401353,0 77.00833990867999,28.98139749636417,0 77.00768088969788,28.98014064817205,0 77.00840598317441,28.97983911823468,0 77.00798373319464,28.97899261379308,0 77.00762448554674,28.97817253015517,0 77.00566540499486,28.97873807908596,0 77.00417392673393,28.97925921314654,0 77.00394421296863,28.97890295415809,0 77.00195070854755,28.97927082706329,0 77.001103751427,28.97952077890945,0 77.0005818484819,28.97982097603394,0 76.99957953879455,28.97833734216276,0 
						</coordinates>
					</LinearRing>
				</outerBoundaryIs>
			</Polygon>
		</Placemark>
	</Document>
	<Document>
		<name>Ward No. 18.kml</name>
		<StyleMap id="m_ylw-pushpin16">
			<Pair>
				<key>normal</key>
				<styleUrl>#s_ylw-pushpin16</styleUrl>
			</Pair>
			<Pair>
				<key>highlight</key>
				<styleUrl>#s_ylw-pushpin_hl16</styleUrl>
			</Pair>
		</StyleMap>
		<Style id="s_ylw-pushpin16">
			<IconStyle>
				<scale>1.1</scale>
				<Icon>
					<href>http://maps.google.com/mapfiles/kml/pushpin/ylw-pushpin.png</href>
				</Icon>
				<hotSpot x="20" y="2" xunits="pixels" yunits="pixels"/>
			</IconStyle>
			<LineStyle>
				<color>ffffff00</color>
				<width>3</width>
			</LineStyle>
			<PolyStyle>
				<color>00ffffff</color>
			</PolyStyle>
		</Style>
		<Style id="s_ylw-pushpin_hl16">
			<IconStyle>
				<scale>1.3</scale>
				<Icon>
					<href>http://maps.google.com/mapfiles/kml/pushpin/ylw-pushpin.png</href>
				</Icon>
				<hotSpot x="20" y="2" xunits="pixels" yunits="pixels"/>
			</IconStyle>
			<LineStyle>
				<color>ffffff00</color>
				<width>3</width>
			</LineStyle>
			<PolyStyle>
				<color>00ffffff</color>
			</PolyStyle>
		</Style>
		<Placemark>
			<name>Ward No. 18</name>
			<styleUrl>#m_ylw-pushpin16</styleUrl>
			<Polygon>
				<tessellate>1</tessellate>
				<outerBoundaryIs>
					<LinearRing>
						<coordinates>
							76.999595721904,28.98291167678703,0 77.00038223432628,28.98226373589598,0 77.00054492905373,28.9822378040548,0 77.00179487270628,28.98138215836548,0 77.0005818484819,28.97982097603394,0 77.001103751427,28.97952077890945,0 77.00195070854755,28.97927082706329,0 77.00394421296863,28.97890295415809,0 77.00417392673393,28.97925921314654,0 77.00566540499486,28.97873807908596,0 77.00762448554674,28.97817253015517,0 77.00798373319464,28.97899261379308,0 77.00840598317441,28.97983911823468,0 77.00768088969788,28.98014064817205,0 77.00833990867999,28.98139749636417,0 77.00866339480065,28.9819158401353,0 77.00891834740084,28.98175887681668,0 77.00956341084664,28.9829868187943,0 77.01152325611928,28.98270073806933,0 77.01120835678141,28.98214243213008,0 77.01381214241431,28.98083550826744,0 77.01405257650826,28.98189337352607,0 77.01523325891003,28.98592014350606,0 77.01269530821179,28.98688745261379,0 77.01226556648794,28.98630643722245,0 77.01147329442705,28.98675606980797,0 77.01239002395758,28.98875803351436,0 77.0094310993575,28.98879862762555,0 77.00936719913965,28.98791270634388,0 77.00763799296512,28.98798048599832,0 77.00711994054772,28.98841120501452,0 77.00582987795693,28.98715647964809,0 77.00489939922289,28.98642635871791,0 77.00438255043106,28.98608727448171,0 77.0056664269031,28.98493057306186,0 77.00503651876843,28.98416713122212,0 77.00319698483163,28.98529444184211,0 77.00043340132794,28.98352448951914,0 76.999595721904,28.98291167678703,0 
						</coordinates>
					</LinearRing>
				</outerBoundaryIs>
			</Polygon>
		</Placemark>
	</Document>
	<Document>
		<name>Ward No. 19.kml</name>
		<StyleMap id="m_ylw-pushpin17">
			<Pair>
				<key>normal</key>
				<styleUrl>#s_ylw-pushpin17</styleUrl>
			</Pair>
			<Pair>
				<key>highlight</key>
				<styleUrl>#s_ylw-pushpin_hl17</styleUrl>
			</Pair>
		</StyleMap>
		<Style id="s_ylw-pushpin17">
			<IconStyle>
				<scale>1.1</scale>
				<Icon>
					<href>http://maps.google.com/mapfiles/kml/pushpin/ylw-pushpin.png</href>
				</Icon>
				<hotSpot x="20" y="2" xunits="pixels" yunits="pixels"/>
			</IconStyle>
			<LineStyle>
				<color>ffffff00</color>
				<width>3</width>
			</LineStyle>
			<PolyStyle>
				<color>00ffffff</color>
			</PolyStyle>
		</Style>
		<Style id="s_ylw-pushpin_hl17">
			<IconStyle>
				<scale>1.3</scale>
				<Icon>
					<href>http://maps.google.com/mapfiles/kml/pushpin/ylw-pushpin.png</href>
				</Icon>
				<hotSpot x="20" y="2" xunits="pixels" yunits="pixels"/>
			</IconStyle>
			<LineStyle>
				<color>ffffff00</color>
				<width>3</width>
			</LineStyle>
			<PolyStyle>
				<color>00ffffff</color>
			</PolyStyle>
		</Style>
		<Placemark>
			<name>Ward No. 19</name>
			<styleUrl>#m_ylw-pushpin17</styleUrl>
			<Polygon>
				<tessellate>1</tessellate>
				<outerBoundaryIs>
					<LinearRing>
						<coordinates>
							77.00043340132794,28.98352448951914,0 77.00319698483163,28.98529444184211,0 77.00503651876843,28.98416713122212,0 77.0056664269031,28.98493057306186,0 77.00438255043106,28.98608727448171,0 77.00489939922289,28.98642635871791,0 77.00582987795693,28.98715647964809,0 77.00918612115547,28.99042083990998,0 77.00953768904887,28.99084883205965,0 77.01019863524849,28.992136509844,0 77.00918556450269,28.99254932666031,0 77.00745499886644,28.99313432288951,0 77.00741034336636,28.99320545595386,0 77.00258458158204,28.99327885771578,0 77.00261718650299,28.99432379279646,0 77.00088305600693,28.99405864433056,0 76.99997340950732,28.99396739861359,0 76.99604745895634,28.99369368004781,0 76.99053277533521,28.99227401463739,0 76.99051298280688,28.98707084761758,0 76.99737798424883,28.98697132337869,0 76.99735979819303,28.98432515701385,0 76.99876423299982,28.98232321352522,0 76.999595721904,28.98291167678703,0 77.00043340132794,28.98352448951914,0 
						</coordinates>
					</LinearRing>
				</outerBoundaryIs>
			</Polygon>
		</Placemark>
	</Document>
	<Document>
		<name>Ward No. 20.kml</name>
		<StyleMap id="m_ylw-pushpin18">
			<Pair>
				<key>normal</key>
				<styleUrl>#s_ylw-pushpin18</styleUrl>
			</Pair>
			<Pair>
				<key>highlight</key>
				<styleUrl>#s_ylw-pushpin_hl18</styleUrl>
			</Pair>
		</StyleMap>
		<Style id="s_ylw-pushpin18">
			<IconStyle>
				<scale>1.1</scale>
				<Icon>
					<href>http://maps.google.com/mapfiles/kml/pushpin/ylw-pushpin.png</href>
				</Icon>
				<hotSpot x="20" y="2" xunits="pixels" yunits="pixels"/>
			</IconStyle>
			<LineStyle>
				<color>ffffff00</color>
				<width>3</width>
			</LineStyle>
			<PolyStyle>
				<color>00ffffff</color>
			</PolyStyle>
		</Style>
		<Style id="s_ylw-pushpin_hl18">
			<IconStyle>
				<scale>1.3</scale>
				<Icon>
					<href>http://maps.google.com/mapfiles/kml/pushpin/ylw-pushpin.png</href>
				</Icon>
				<hotSpot x="20" y="2" xunits="pixels" yunits="pixels"/>
			</IconStyle>
			<LineStyle>
				<color>ffffff00</color>
				<width>3</width>
			</LineStyle>
			<PolyStyle>
				<color>00ffffff</color>
			</PolyStyle>
		</Style>
		<Placemark>
			<name>Ward No. 20</name>
			<LookAt>
				<longitude>77.0095724871034</longitude>
				<latitude>28.99094345283963</latitude>
				<altitude>0</altitude>
				<heading>27.81650206112662</heading>
				<tilt>45.12022990102869</tilt>
				<range>102.8788746092554</range>
				<gx:altitudeMode>relativeToSeaFloor</gx:altitudeMode>
			</LookAt>
			<styleUrl>#m_ylw-pushpin18</styleUrl>
			<Polygon>
				<tessellate>1</tessellate>
				<outerBoundaryIs>
					<LinearRing>
						<coordinates>
							77.00261721932853,28.9943237143557,0 77.00258461017981,28.99327893779994,0 77.00741042555012,28.99320541591919,0 77.00745508304935,28.99313430296428,0 77.00918519012448,28.99254948948677,0 77.01019809341254,28.99213658749187,0 77.00953690567448,28.99084743414261,0 77.01294628644499,28.99080546665015,0 77.01295998851285,28.99106012939298,0 77.01306297595181,28.99139776267988,0 77.01372196827633,28.99119498930468,0 77.0155133375434,28.9918292564768,0 77.0143234358665,28.99441926664145,0 77.0128467376083,28.99749939398797,0 77.01182629104558,28.99961812971306,0 77.01156701886144,28.99953552432838,0 77.01020932745458,29.00032923078152,0 77.00927382376842,29.00129614287775,0 77.00876426912272,29.00151898017008,0 77.00832799362787,29.00156091377003,0 77.00703894725163,29.00156426308115,0 77.00273823328958,29.00160602937313,0 77.00272284421116,29.00077026085859,0 77.00266511554229,28.99759089124116,0 77.00261721932853,28.9943237143557,0 
						</coordinates>
					</LinearRing>
				</outerBoundaryIs>
			</Polygon>
		</Placemark>
	</Document>
	<Document>
		<name>Ward No. 21.kml</name>
		<StyleMap id="m_ylw-pushpin19">
			<Pair>
				<key>normal</key>
				<styleUrl>#s_ylw-pushpin19</styleUrl>
			</Pair>
			<Pair>
				<key>highlight</key>
				<styleUrl>#s_ylw-pushpin_hl19</styleUrl>
			</Pair>
		</StyleMap>
		<Style id="s_ylw-pushpin19">
			<IconStyle>
				<scale>1.1</scale>
				<Icon>
					<href>http://maps.google.com/mapfiles/kml/pushpin/ylw-pushpin.png</href>
				</Icon>
				<hotSpot x="20" y="2" xunits="pixels" yunits="pixels"/>
			</IconStyle>
			<LineStyle>
				<color>ffffff00</color>
				<width>3</width>
			</LineStyle>
			<PolyStyle>
				<color>00ffffff</color>
			</PolyStyle>
		</Style>
		<Style id="s_ylw-pushpin_hl19">
			<IconStyle>
				<scale>1.3</scale>
				<Icon>
					<href>http://maps.google.com/mapfiles/kml/pushpin/ylw-pushpin.png</href>
				</Icon>
				<hotSpot x="20" y="2" xunits="pixels" yunits="pixels"/>
			</IconStyle>
			<LineStyle>
				<color>ffffff00</color>
				<width>3</width>
			</LineStyle>
			<PolyStyle>
				<color>00ffffff</color>
			</PolyStyle>
		</Style>
		<Placemark>
			<name>Ward No. 21</name>
			<open>1</open>
			<styleUrl>#m_ylw-pushpin19</styleUrl>
			<Polygon>
				<tessellate>1</tessellate>
				<outerBoundaryIs>
					<LinearRing>
						<coordinates>
							76.97968367858351,29.00558260194078,0 76.97888772659354,29.00406193491873,0 76.97628252176555,28.99936114943394,0 76.97498337115195,28.99605933303129,0 76.9747852566787,28.99545435497681,0 76.97568874339105,28.99479323069083,0 76.97648517055295,28.99444606965975,0 76.97885276264724,28.99401740655765,0 76.97992687966642,28.99372703758925,0 76.97979994288448,28.98430832861687,0 76.98320655219142,28.98426601505935,0 76.98304446404163,28.97512298379848,0 76.98894679733635,28.97760110949851,0 76.99408257295016,28.97972988108697,0 76.99634592033871,28.97823565782601,0 76.99626250043167,28.97812883409548,0 76.99875714131673,28.9770337605733,0 76.9995799804567,28.97833787580315,0 77.00057764879899,28.97981545788746,0 77.00179487131889,28.981382194713,0 77.00054495610651,28.98223774055121,0 77.00038237687683,28.98226358360417,0 76.999595721904,28.98291167678703,0 76.99876423299982,28.98232321352522,0 76.99735979819303,28.98432515701385,0 76.99737798424883,28.98697132337869,0 76.99051298280688,28.98707084761758,0 76.99053277533521,28.99227401463739,0 76.99604745895634,28.99369368004781,0 76.99997340950732,28.99396739861359,0 77.00088305600693,28.99405864433056,0 77.00261718650299,28.99432379279646,0 77.00266773337958,28.99776326669883,0 77.00273818894438,29.00160606560636,0 77.00132772283509,29.00161972157769,0 76.99882821421654,29.00169228051405,0 76.99883666429182,29.00176889686153,0 76.99613043155659,29.00222237502651,0 76.99270621012411,29.00281141789683,0 76.99215274731138,29.00294457482229,0 76.98835456350425,29.00422553520919,0 76.98740579480466,29.00453602844297,0 76.98678007733788,29.00477880646692,0 76.98618456099562,29.00504665209739,0 76.98447446007665,29.00581706215472,0 76.98233141394327,29.00652160502354,0 76.98172700551788,29.00675490557039,0 76.98038963007478,29.00728899714497,0 76.98026373713452,29.00737685424698,0 76.98006439337716,29.00655639606248,0 76.97968367858351,29.00558260194078,0 
						</coordinates>
					</LinearRing>
				</outerBoundaryIs>
			</Polygon>
		</Placemark>
	</Document>
	<Document>
		<name>Ward No. 22.kml</name>
		<StyleMap id="m_ylw-pushpin20">
			<Pair>
				<key>normal</key>
				<styleUrl>#s_ylw-pushpin20</styleUrl>
			</Pair>
			<Pair>
				<key>highlight</key>
				<styleUrl>#s_ylw-pushpin_hl20</styleUrl>
			</Pair>
		</StyleMap>
		<Style id="s_ylw-pushpin20">
			<IconStyle>
				<scale>1.1</scale>
				<Icon>
					<href>http://maps.google.com/mapfiles/kml/pushpin/ylw-pushpin.png</href>
				</Icon>
				<hotSpot x="20" y="2" xunits="pixels" yunits="pixels"/>
			</IconStyle>
			<LineStyle>
				<color>ffffff00</color>
				<width>3</width>
			</LineStyle>
			<PolyStyle>
				<color>00ffffff</color>
			</PolyStyle>
		</Style>
		<Style id="s_ylw-pushpin_hl20">
			<IconStyle>
				<scale>1.3</scale>
				<Icon>
					<href>http://maps.google.com/mapfiles/kml/pushpin/ylw-pushpin.png</href>
				</Icon>
				<hotSpot x="20" y="2" xunits="pixels" yunits="pixels"/>
			</IconStyle>
			<LineStyle>
				<color>ffffff00</color>
				<width>3</width>
			</LineStyle>
			<PolyStyle>
				<color>00ffffff</color>
			</PolyStyle>
		</Style>
		<Placemark>
			<name>Ward No. 22</name>
			<open>1</open>
			<styleUrl>#m_ylw-pushpin20</styleUrl>
			<Polygon>
				<tessellate>1</tessellate>
				<outerBoundaryIs>
					<LinearRing>
						<coordinates>
							76.97845930799473,29.01711148865865,0 76.97851967337765,29.016715535901,0 76.97877267014223,29.01615278913393,0 76.97906681238,29.01559247473244,0 76.97924367774809,29.01506892482153,0 76.97992887782628,29.01399485813854,0 76.98000174866793,29.01268073102176,0 76.97986533548143,29.0122451501606,0 76.97959632817509,29.01191944636823,0 76.97961511202953,29.01166628536981,0 76.97971874655862,29.01102062496411,0 76.97956376483974,29.01087182072044,0 76.97954810957158,29.00988097095691,0 76.97957486777364,29.00945403593051,0 76.9793407297831,29.00878722782011,0 76.97988125500727,29.00822881377606,0 76.97993570994397,29.00749672641334,0 76.98026373713452,29.00737685424698,0 76.98038963007478,29.00728899714497,0 76.98172700551788,29.00675490557039,0 76.98233141394327,29.00652160502354,0 76.98447446007665,29.00581706215472,0 76.98618456099562,29.00504665209739,0 76.98678007733788,29.00477880646692,0 76.98740579480466,29.00453602844297,0 76.98835456350425,29.00422553520919,0 76.99215274731138,29.00294457482229,0 76.99270621012411,29.00281141789683,0 76.99613043155659,29.00222237502651,0 76.99883666429182,29.00176889686153,0 76.99882821421654,29.00169228051405,0 77.00132772283509,29.00161972157769,0 77.00703894725163,29.00156426308115,0 77.00832799362787,29.00156091377003,0 77.00876426912272,29.00151898017008,0 77.00927382376842,29.00129614287775,0 77.01020932745458,29.00032923078152,0 77.01156701886144,28.99953552432838,0 77.01182629104558,28.99961812971306,0 77.00907109089216,29.00533808558283,0 77.00886992780383,29.00599755879849,0 77.00869362266756,29.00687082519881,0 77.00859822161846,29.00784949025391,0 77.0086782169942,29.00892336772655,0 77.00880027600466,29.00959780296196,0 77.0099053912226,29.01353421143462,0 77.01222689301976,29.02173874451503,0 77.01317740381357,29.02503375976985,0 77.01341008087336,29.0260718126518,0 77.0134884501709,29.02702118918506,0 77.01319334069281,29.02686775893184,0 77.01142671177688,29.02690204585711,0 77.01142546579621,29.02636063018151,0 77.01034497961427,29.02639084285562,0 77.01034232455977,29.02635538037072,0 77.01016988208069,29.02635445858463,0 77.01016574702932,29.02639077975447,0 77.01003698398391,29.02639437436208,0 77.01002024246597,29.02525612414349,0 77.00864998613609,29.02528167708697,0 77.00864735079509,29.024242869035,0 77.0079698563496,29.02425941697985,0 77.00796677707329,29.02385369606011,0 77.00795267358224,29.0237267987682,0 77.00792805936477,29.02309161229948,0 77.00724655828326,29.02312012944183,0 77.00721924284497,29.02221404950412,0 77.00723824917826,29.02149624899806,0 77.00655428164943,29.02149557094324,0 77.00657133007961,29.02066069754756,0 77.00653659391183,29.02039375790839,0 77.00587397343811,29.02039502373009,0 77.00585087328349,29.01985947263283,0 77.00515519393292,29.01986975872983,0 77.00514043140423,29.01932495528634,0 77.00056557429133,29.01942407197701,0 76.9971026754138,29.01941571777913,0 76.9958814848524,29.02039726585886,0 76.99522112889375,29.01984629887075,0 76.99498014041248,29.01965774100906,0 76.99432772354994,29.0188561207886,0 76.99421019355057,29.01867034969123,0 76.99374661671742,29.01814616857453,0 76.99366952716531,29.01792570800771,0 76.99350515513976,29.01766850923103,0 76.99340473196617,29.01746866911883,0 76.99322196584164,29.01744651366714,0 76.99306581005169,29.01740564182388,0 76.99265774103341,29.01735691330848,0 76.99220692339814,29.0175158683412,0 76.99209969784356,29.01753713275623,0 76.99196400958233,29.01732215655232,0 76.99183513392383,29.01683115905696,0 76.99011415705424,29.0173797844263,0 76.98864941577716,29.01804911301142,0 76.98607442993335,29.01949237642109,0 76.98316831539262,29.0216680102275,0 76.9820292092617,29.02254623356351,0 76.98050005523396,29.02350259891654,0 76.97915745346916,29.02460474549641,0 76.97829007937334,29.02334810175966,0 76.97712684372821,29.02204173241264,0 76.97687634546237,29.02153969947756,0 76.9764272208175,29.0203317702877,0 76.97580924318524,29.01902147108776,0 76.97687457900672,29.01862681765716,0 76.97755637415254,29.01846731697301,0 76.97845930799473,29.01711148865865,0 
						</coordinates>
					</LinearRing>
				</outerBoundaryIs>
			</Polygon>
		</Placemark>
	</Document>
	<atom:link rel="app" href="https://www.google.com/earth/about/versions/#earth-pro" title="Google Earth Pro 7.3.7.1155"></atom:link>
</Folder>
</kml>
