<?xml version="1.0" encoding="UTF-8"?>
<kml xmlns="http://www.opengis.net/kml/2.2" xmlns:gx="http://www.google.com/kml/ext/2.2" xmlns:kml="http://www.opengis.net/kml/2.2" xmlns:atom="http://www.w3.org/2005/Atom">
<Folder>
	<name>Temporary Places</name>
	<open>1</open>
	<Document>
		<name>Ward No 1.kml</name>
		<StyleMap id="m_ylw-pushpin">
			<Pair>
				<key>normal</key>
				<styleUrl>#s_ylw-pushpin</styleUrl>
			</Pair>
			<Pair>
				<key>highlight</key>
				<styleUrl>#s_ylw-pushpin_hl</styleUrl>
			</Pair>
		</StyleMap>
		<Style id="s_ylw-pushpin">
			<IconStyle>
				<scale>1.1</scale>
				<Icon>
					<href>http://maps.google.com/mapfiles/kml/pushpin/ylw-pushpin.png</href>
				</Icon>
				<hotSpot x="20" y="2" xunits="pixels" yunits="pixels"/>
			</IconStyle>
			<LineStyle>
				<color>ffffff55</color>
				<width>3</width>
			</LineStyle>
			<PolyStyle>
				<fill>0</fill>
			</PolyStyle>
		</Style>
		<Style id="s_ylw-pushpin_hl">
			<IconStyle>
				<scale>1.3</scale>
				<Icon>
					<href>http://maps.google.com/mapfiles/kml/pushpin/ylw-pushpin.png</href>
				</Icon>
				<hotSpot x="20" y="2" xunits="pixels" yunits="pixels"/>
			</IconStyle>
			<LineStyle>
				<color>ffffff55</color>
				<width>3</width>
			</LineStyle>
			<PolyStyle>
				<fill>0</fill>
			</PolyStyle>
		</Style>
		<Placemark>
			<name>Ward No 1.kml</name>
			<styleUrl>#m_ylw-pushpin</styleUrl>
			<Polygon>
				<tessellate>1</tessellate>
				<outerBoundaryIs>
					<LinearRing>
						<coordinates>
							73.15620202880751,19.66462369646637,0 73.15591985372811,19.66478473862686,0 73.1553336031545,19.66510403747454,0 73.15521530987493,19.66518955294687,0 73.15483706814233,19.66543924811235,0 73.15465925392964,19.66556113008949,0 73.1541438562024,19.66588252066769,0 73.15386441427241,19.66606699037348,0 73.15359243761657,19.66622426582632,0 73.15323369014702,19.66643256643781,0 73.15293526048225,19.66659715472342,0 73.15249350970159,19.66685242331766,0 73.15213193707052,19.66706732580185,0 73.15092352160228,19.66755542761093,0 73.15038679827239,19.66774667608766,0 73.14985232420941,19.66794455323117,0 73.14916783117145,19.66818915508542,0 73.14899023562863,19.66824359811354,0 73.14868795774827,19.66835335016722,0 73.14811949304399,19.66854979472856,0 73.14795605850523,19.66859985910733,0 73.14775404634287,19.66865954547988,0 73.14745787864618,19.66874240489701,0 73.14727625834647,19.66879301551223,0 73.14672424847394,19.66893477913439,0 73.1466622005284,19.66896071223611,0 73.14634758212594,19.66907584288632,0 73.14617324779741,19.66916449953415,0 73.14582230825285,19.66929750719248,0 73.14526096117878,19.66953448995251,0 73.14477573294147,19.66972920934464,0 73.14441803683638,19.66988947128293,0 73.14419800363716,19.66994696117591,0 73.14390168036316,19.67005641461087,0 73.14350470566917,19.67017978541944,0 73.14286564400857,19.67039244320384,0 73.14261793903547,19.6704857998721,0 73.14258201458014,19.6704490983537,0 73.14268791806688,19.67038885191878,0 73.14282337280876,19.67026229003931,0 73.1428307900849,19.67024380448063,0 73.14304122262867,19.66972125540395,0 73.14370121633075,19.66923612624022,0 73.14392167765132,19.66883011518312,0 73.14393752145199,19.66880108773442,0 73.14468217985777,19.66721058435166,0 73.14554943455265,19.66516406952127,0 73.1456072619759,19.66482533213314,0 73.14568608779686,19.66436234542743,0 73.14592470575231,19.66354456501629,0 73.14594798394504,19.66335068128765,0 73.14596354696131,19.66321982511472,0 73.14602558666314,19.66283550783712,0 73.14609921285577,19.66237424985855,0 73.14612839521678,19.66219270016524,0 73.14627955102675,19.66150124608343,0 73.14631573899541,19.66133548819199,0 73.14639068079072,19.6607575055747,0 73.14642328361647,19.66050740163156,0 73.14646536073319,19.66030142661995,0 73.14652515803812,19.66001037123477,0 73.14660641985935,19.6599206635197,0 73.1465140610588,19.65965887895693,0 73.14655487110224,19.65966830660191,0 73.14657842591257,19.65967574186735,0 73.14654453043069,19.65950286486559,0 73.14652764637465,19.65938741127317,0 73.14656280257172,19.65917616641811,0 73.14661094032729,19.65902902669395,0 73.14669906005746,19.65874612655642,0 73.14680351901031,19.65845752001104,0 73.14687298736955,19.65825555065683,0 73.14697254356189,19.65798406461137,0 73.14700983891734,19.6578476999443,0 73.14717132464028,19.65763692877883,0 73.14725494846958,19.65759877834705,0 73.14732799166293,19.65762011221944,0 73.14765238778158,19.65764401493328,0 73.14775997539759,19.65758563415724,0 73.14785050332425,19.65757044574587,0 73.14790596455346,19.65755865913181,0 73.14799375423549,19.65752675162917,0 73.14799389819713,19.65752610983627,0 73.14803038502428,19.65752503583655,0 73.14803536060701,19.65753565331481,0 73.14809789031085,19.65766611911808,0 73.14820361606634,19.65788758501662,0 73.14823683491541,19.65795711904344,0 73.14835528298389,19.65820486126285,0 73.14833466497207,19.65820982684962,0 73.14850432335271,19.65850246317331,0 73.14852316165295,19.65852389115125,0 73.14883459463337,19.65880974184351,0 73.14890841869162,19.65886984998511,0 73.14926188028925,19.6591859701241,0 73.14968570346599,19.65955232127284,0 73.15030821051613,19.66005256463229,0 73.15078689143799,19.66043766006531,0 73.15143414310603,19.66101494702115,0 73.15208896767759,19.66153268456192,0 73.15274020079036,19.66203985071594,0 73.15291323363161,19.66215574491635,0 73.15323572019183,19.66230311793899,0 73.15372087689002,19.6625333104961,0 73.15413203350263,19.66273790889466,0 73.15503932048739,19.66347280431738,0 73.15570070223245,19.66402378572237,0 73.15593540445525,19.6642305255508,0 73.15613731502243,19.66448413295864,0 73.15617691090951,19.66454724269609,0 73.15620202880751,19.66462369646637,0 
						</coordinates>
					</LinearRing>
				</outerBoundaryIs>
			</Polygon>
		</Placemark>
	</Document>
	<Document>
		<name>Ward No 2.kml</name>
		<StyleMap id="m_ylw-pushpin0">
			<Pair>
				<key>normal</key>
				<styleUrl>#s_ylw-pushpin0</styleUrl>
			</Pair>
			<Pair>
				<key>highlight</key>
				<styleUrl>#s_ylw-pushpin_hl0</styleUrl>
			</Pair>
		</StyleMap>
		<Style id="s_ylw-pushpin0">
			<IconStyle>
				<scale>1.1</scale>
				<Icon>
					<href>http://maps.google.com/mapfiles/kml/pushpin/ylw-pushpin.png</href>
				</Icon>
				<hotSpot x="20" y="2" xunits="pixels" yunits="pixels"/>
			</IconStyle>
			<LineStyle>
				<color>ffffff55</color>
				<width>3</width>
			</LineStyle>
			<PolyStyle>
				<fill>0</fill>
			</PolyStyle>
		</Style>
		<Style id="s_ylw-pushpin_hl0">
			<IconStyle>
				<scale>1.3</scale>
				<Icon>
					<href>http://maps.google.com/mapfiles/kml/pushpin/ylw-pushpin.png</href>
				</Icon>
				<hotSpot x="20" y="2" xunits="pixels" yunits="pixels"/>
			</IconStyle>
			<LineStyle>
				<color>ffffff55</color>
				<width>3</width>
			</LineStyle>
			<PolyStyle>
				<fill>0</fill>
			</PolyStyle>
		</Style>
		<Placemark>
			<name>Ward No 2.kml</name>
			<styleUrl>#m_ylw-pushpin0</styleUrl>
			<Polygon>
				<tessellate>1</tessellate>
				<outerBoundaryIs>
					<LinearRing>
						<coordinates>
							73.1561303712662,19.66432057899061,0 73.15605465093492,19.66438031359644,0 73.15593526332678,19.66423049528741,0 73.15571425223267,19.66403573081193,0 73.15570197650368,19.66402498198029,0 73.15569628024508,19.6640201467499,0 73.1550594861849,19.66348951600212,0 73.15503459473949,19.66346913118258,0 73.15413200781403,19.66273786966718,0 73.15399833473059,19.66267132991341,0 73.15374393245929,19.66254487399528,0 73.15362316001006,19.66248700067514,0 73.15333136877021,19.66234820028714,0 73.15321209484824,19.66229228135947,0 73.15291304374173,19.66215565587737,0 73.15274017399786,19.66203990424925,0 73.15243568819267,19.66180271986768,0 73.15210276066801,19.66154336426345,0 73.15188373376915,19.66137038218489,0 73.15144020399347,19.66101975093552,0 73.15143295911108,19.66101407940263,0 73.15102739424457,19.66065210528566,0 73.15083251237918,19.66047833148842,0 73.15078810395147,19.66043869816117,0 73.15075687928029,19.6604135095142,0 73.15056724113118,19.66026100008552,0 73.14987626628955,19.65970549030931,0 73.14968606648146,19.65955266009914,0 73.14951885592612,19.65940803058775,0 73.14948290581873,19.65937697523188,0 73.14933871391457,19.65925247716496,0 73.14924799557356,19.65917365214595,0 73.14912985788553,19.65906786634697,0 73.14891749756529,19.6588777651275,0 73.14890699138081,19.65886864383371,0 73.14888706443837,19.65885239364283,0 73.14883484939357,19.65881001133194,0 73.14864352491401,19.65863435389551,0 73.1485229376112,19.65852370366225,0 73.14850429818944,19.65850248172769,0 73.14833469989657,19.65820987484177,0 73.14835536014215,19.65820494644674,0 73.14853111846264,19.65818402115574,0 73.14861870861753,19.65817358305642,0 73.14867412836414,19.65816745017973,0 73.14868495842641,19.65816629375207,0 73.14874865744419,19.65814885968672,0 73.148847091593,19.65812241895805,0 73.1488487706736,19.65812195390803,0 73.14888693263615,19.65810605436128,0 73.14895379588634,19.65807812318319,0 73.14904370913074,19.65806865886519,0 73.14904442924274,19.65806840712222,0 73.14905707614582,19.65804758607526,0 73.14906515883848,19.65797158325631,0 73.14907704281484,19.65785994130811,0 73.14906003211084,19.65772383890885,0 73.14904785546838,19.65762768741156,0 73.14898974206639,19.65747075939105,0 73.14896518646231,19.65725850159861,0 73.14891916511492,19.65709426308808,0 73.14889870784609,19.65701919220113,0 73.14885527749969,19.65685337790067,0 73.14885478996854,19.65685129532777,0 73.14885381189085,19.65681661197818,0 73.14884576099514,19.65652505753514,0 73.14884403695588,19.65646085592124,0 73.14890490449906,19.65620808080725,0 73.14896096203286,19.65597210682386,0 73.14924317618393,19.65574342330216,0 73.14941131302687,19.655585079958,0 73.14974238499279,19.65519049411424,0 73.15009094846781,19.6549725725667,0 73.15029483259518,19.65493643523942,0 73.15048123725578,19.65477009575328,0 73.15057604803863,19.65478415657871,0 73.15132324852846,19.65489606765892,0 73.15168218266753,19.65515551785746,0 73.15179287189045,19.65535566199652,0 73.15189136173603,19.65553290871681,0 73.15188990949676,19.65565713032506,0 73.15195517955293,19.6558831455057,0 73.1520186269525,19.65610506659216,0 73.15202340235655,19.656121325152,0 73.15202922331736,19.65617699278137,0 73.15203529306189,19.65623812540096,0 73.15211787464848,19.6564449612663,0 73.15211972272158,19.656449702027,0 73.15221022704361,19.65663286842673,0 73.15222700358956,19.65672097534793,0 73.15225052760641,19.65682787772839,0 73.15228627742756,19.65685781428804,0 73.15233788915461,19.65685527589337,0 73.15238082369402,19.65685488732532,0 73.15240674829835,19.65684667245825,0 73.15242198821103,19.65683498888875,0 73.15243481300068,19.65680053310704,0 73.15251176039614,19.65673483898152,0 73.15260106360614,19.6566939019765,0 73.15266535724535,19.65666451999466,0 73.15273501107184,19.65660704545063,0 73.15277936483017,19.65653816522982,0 73.15282259452843,19.65647132801066,0 73.15294057729533,19.65641447977431,0 73.15302587583967,19.65637296542848,0 73.15318468839868,19.65629687740394,0 73.15329144165244,19.65630933017746,0 73.15349327352065,19.65633367582037,0 73.15361070399484,19.65634752590168,0 73.15363725224985,19.65634465299796,0 73.15406575699672,19.65629706952593,0 73.15415161863889,19.65627797793002,0 73.15434670250168,19.65624688962218,0 73.15443738968904,19.65620673911889,0 73.15451035029517,19.65614170563993,0 73.15458471804334,19.65612938031806,0 73.15486767459251,19.65598088814455,0 73.15495755793327,19.65593403497677,0 73.15509135403977,19.65586355456067,0 73.15600436489368,19.65573198345401,0 73.15659901285598,19.65545504948448,0 73.15666488050636,19.65485715642419,0 73.15666557325403,19.65484841246302,0 73.15686970460604,19.6547758296496,0 73.15763458733639,19.65450398038614,0 73.1577011482879,19.65443902712646,0 73.15779945560978,19.65434372223099,0 73.1580679051884,19.65408325985157,0 73.15821778232416,19.65434136546933,0 73.15837642322529,19.65461552823531,0 73.15887625797824,19.65440420821186,0 73.15833145662683,19.65346628844054,0 73.15818096298668,19.65294802531955,0 73.15856249920745,19.65287235189144,0 73.15936633799922,19.65239658027835,0 73.16009275331223,19.65237945298313,0 73.16170749300434,19.65204654873903,0 73.1635712429055,19.65179380883259,0 73.16571041152665,19.65176972894662,0 73.16702860093699,19.65202634779758,0 73.16705018263315,19.65233181600354,0 73.16722697546956,19.65277579899665,0 73.16759046500653,19.6533601500888,0 73.16866038492111,19.6540482418707,0 73.16938079069722,19.65407387238684,0 73.17008559912334,19.65512173194088,0 73.16978135895394,19.65578768745326,0 73.16940604690525,19.65591436977041,0 73.16934026201702,19.65613553785914,0 73.16908167330143,19.65646837115692,0 73.16865370581064,19.656741615494,0 73.16827961546916,19.65720715443721,0 73.16821018530634,19.65750988780185,0 73.16807063529761,19.65793410729236,0 73.16773414393531,19.65835356714721,0 73.16763828996734,19.65853181776979,0 73.16679670376755,19.65905742785147,0 73.16674657694988,19.65912993834506,0 73.1667971111616,19.6595598060544,0 73.16699284042573,19.6602960975568,0 73.16696166411647,19.66173537864849,0 73.16687514088831,19.66289382264592,0 73.1668680389804,19.66332653548009,0 73.16662129268681,19.66355076679735,0 73.166350143204,19.66370320099039,0 73.16614876608662,19.66373361173519,0 73.1659031245823,19.66364638372561,0 73.16560083411538,19.66361159988018,0 73.16536103103685,19.66353553143357,0 73.16508616981832,19.663467105064,0 73.1649535448924,19.66344027053681,0 73.16475746255853,19.66339533266914,0 73.16441792204824,19.66331599683928,0 73.16406218052154,19.66328566671522,0 73.16393535623378,19.6632735459779,0 73.16382791154425,19.66320443823802,0 73.16347497628391,19.66299483092857,0 73.16318775321818,19.66283224398136,0 73.16292604232645,19.66265576517112,0 73.1626675463184,19.66255752851077,0 73.16232074169764,19.66240869151269,0 73.16220124919474,19.66237281202613,0 73.16177015469118,19.66233330172637,0 73.16121107345681,19.66228319968523,0 73.1610434744687,19.66229712203966,0 73.16041301944718,19.66234217382868,0 73.16014268089555,19.66236648635859,0 73.15957168791094,19.66230615663925,0 73.15936614825225,19.66228841387016,0 73.15898395423955,19.66225132956308,0 73.15861742396825,19.66223451082618,0 73.15807474689427,19.66214867984172,0 73.15763308104314,19.66220819615888,0 73.15744587328832,19.66267204941078,0 73.15716508956532,19.66325733187525,0 73.15697147072051,19.66366161417373,0 73.15689472667435,19.66373643326944,0 73.15666519937798,19.66389775349555,0 73.15640064541617,19.66411265571753,0 73.15624467736903,19.66422466347399,0 73.15615716895074,19.66429416877603,0 73.15614222945922,19.66429988903876,0 73.1561303712662,19.66432057899061,0 
						</coordinates>
					</LinearRing>
				</outerBoundaryIs>
			</Polygon>
		</Placemark>
	</Document>
	<Document>
		<name>Ward No 3.kml</name>
		<StyleMap id="m_ylw-pushpin1">
			<Pair>
				<key>normal</key>
				<styleUrl>#s_ylw-pushpin1</styleUrl>
			</Pair>
			<Pair>
				<key>highlight</key>
				<styleUrl>#s_ylw-pushpin_hl1</styleUrl>
			</Pair>
		</StyleMap>
		<Style id="s_ylw-pushpin1">
			<IconStyle>
				<scale>1.1</scale>
				<Icon>
					<href>http://maps.google.com/mapfiles/kml/pushpin/ylw-pushpin.png</href>
				</Icon>
				<hotSpot x="20" y="2" xunits="pixels" yunits="pixels"/>
			</IconStyle>
			<LineStyle>
				<color>ffffff55</color>
				<width>3</width>
			</LineStyle>
			<PolyStyle>
				<fill>0</fill>
			</PolyStyle>
		</Style>
		<Style id="s_ylw-pushpin_hl1">
			<IconStyle>
				<scale>1.3</scale>
				<Icon>
					<href>http://maps.google.com/mapfiles/kml/pushpin/ylw-pushpin.png</href>
				</Icon>
				<hotSpot x="20" y="2" xunits="pixels" yunits="pixels"/>
			</IconStyle>
			<LineStyle>
				<color>ffffff55</color>
				<width>3</width>
			</LineStyle>
			<PolyStyle>
				<fill>0</fill>
			</PolyStyle>
		</Style>
		<Placemark>
			<name>Ward No 3.kml</name>
			<styleUrl>#m_ylw-pushpin1</styleUrl>
			<Polygon>
				<tessellate>1</tessellate>
				<outerBoundaryIs>
					<LinearRing>
						<coordinates>
							73.15186384026688,19.6551319106037,0 73.15201816558647,19.65516088632419,0 73.15209086909394,19.65510157453451,0 73.15219532483412,19.65507708036999,0 73.15235424626809,19.65496235324829,0 73.15248831598258,19.65479530779446,0 73.1525173105601,19.65468467430473,0 73.1526018719352,19.65460944483491,0 73.15264397613745,19.6544517396885,0 73.15262426017685,19.65425076960067,0 73.15285656352214,19.65405918843456,0 73.15323925802339,19.65382225527882,0 73.15339350429238,19.65364607053504,0 73.15351665600416,19.65359440883826,0 73.15376235132261,19.65354639128504,0 73.15396584315857,19.6534671830677,0 73.15411061979631,19.65332286362218,0 73.15437347661273,19.65323621935292,0 73.15517115965656,19.65325599782653,0 73.15571840808374,19.653329721479,0 73.15631487224752,19.65327667541486,0 73.1569803506534,19.65317820382267,0 73.15816380831758,19.65293048957718,0 73.15817505725533,19.65292757904667,0 73.15820221584379,19.65302112110679,0 73.15827776282542,19.65328176488399,0 73.15833132555007,19.6534663220049,0 73.15887624920947,19.65440430929983,0 73.15837661149124,19.65461541425851,0 73.15806816780807,19.65408309956123,0 73.15763462290529,19.65450394437045,0 73.1566657418073,19.65484837665457,0 73.15659909297483,19.65545501604442,0 73.1560050521819,19.6557316009049,0 73.15509298297665,19.65586298603281,0 73.15458536467436,19.65612941125509,0 73.15451019470112,19.65614175908567,0 73.15443747397946,19.65620669548479,0 73.15434685334094,19.65624688335492,0 73.15414862489688,19.65627858306727,0 73.15406602965436,19.65629700241914,0 73.15361058071991,19.65634757600304,0 73.15318474247276,19.65629675217031,0 73.15282242768761,19.65647139895524,0 73.15273495479398,19.65660698570732,0 73.15266540652989,19.65666443370769,0 73.15251170155125,19.65673495741228,0 73.152434833675,19.65680047772766,0 73.15242215347463,19.65683491305624,0 73.15240654448623,19.65684674205371,0 73.15238075095763,19.65685484390111,0 73.15233814277977,19.65685522561078,0 73.15228630567748,19.65685781219654,0 73.15225037184148,19.65682793014449,0 73.15222732968537,19.65672261948207,0 73.15221023624515,19.65663297582241,0 73.15211951748806,19.65644913765649,0 73.1520353773228,19.65623832801908,0 73.15202336962722,19.6561213135287,0 73.1519437554972,19.65584302742262,0 73.15188994444794,19.65565768784923,0 73.15189140456879,19.6555327693042,0 73.15168159074285,19.65515473230223,0 73.15132308132914,19.65489597809673,0 73.15048128473236,19.65477005587609,0 73.15029502644032,19.6549363795807,0 73.15009110183874,19.65497254776337,0 73.14974225685762,19.65519055663163,0 73.1494112900409,19.65558516985206,0 73.14923806943065,19.65574773096381,0 73.14896128394648,19.65597169348494,0 73.14884406119097,19.65646171382461,0 73.14885477012075,19.65685124253657,0 73.14890628817244,19.65704782310945,0 73.14896511848428,19.65725801239127,0 73.14898967014641,19.65747024867917,0 73.14904804687613,19.65762923411152,0 73.14907706287755,19.65785943835299,0 73.14905700844068,19.65804770701136,0 73.14904428783552,19.65806859456538,0 73.14895389530176,19.65807811248041,0 73.14884894106135,19.65812192287508,0 73.14873475682859,19.65815266470275,0 73.14868463118243,19.65816633785747,0 73.14861870415741,19.65817355883421,0 73.14835541160471,19.65820495095004,0 73.14803030148894,19.65752483230901,0 73.14799375595689,19.65752611761099,0 73.14783646484688,19.65724445745298,0 73.14769593908652,19.65699243044752,0 73.14758285048562,19.65679006365932,0 73.14752479257052,19.65668593773179,0 73.14752406637918,19.65667945108757,0 73.14750841672671,19.65652147930161,0 73.14752586823134,19.65633517798796,0 73.14757539411646,19.65608703660447,0 73.14765181855188,19.65571861533742,0 73.14766075647026,19.6556481725907,0 73.14770066989774,19.65527686842126,0 73.1476772619081,19.65512160088885,0 73.14763617141824,19.65489289403037,0 73.14758743989421,19.65473078749146,0 73.14768353794099,19.65472213033131,0 73.14816992639769,19.65464263719127,0 73.14823375878912,19.65494765678254,0 73.1482978875699,19.65495995596602,0 73.14850270089154,19.65499567657409,0 73.14859357044257,19.65503096695083,0 73.14884194219957,19.65513672312907,0 73.14890292552955,19.65519891944696,0 73.14899002427961,19.65530557019006,0 73.14918749035759,19.65519155240986,0 73.14927920172832,19.65511441575584,0 73.14944830364344,19.65495916134162,0 73.1495349854688,19.65490088925588,0 73.14961836384818,19.65484660065355,0 73.14974834983741,19.65476511421031,0 73.14983917307741,19.6547140240355,0 73.15011251992235,19.65467210013859,0 73.15020549692262,19.65466627078078,0 73.15051908412147,19.65466341778676,0 73.15084086112812,19.65471418164881,0 73.15102656237349,19.65474478865054,0 73.15138037356873,19.65480100744089,0 73.15146253828017,19.65482061151343,0 73.15163471001659,19.65487916390059,0 73.15175183225794,19.65493467051627,0 73.15178169555286,19.65494664089032,0 73.15180686863913,19.65511856433017,0 73.15186384026688,19.6551319106037,0 
						</coordinates>
					</LinearRing>
				</outerBoundaryIs>
			</Polygon>
		</Placemark>
	</Document>
	<Document>
		<name>Ward No 4.kml</name>
		<StyleMap id="m_ylw-pushpin2">
			<Pair>
				<key>normal</key>
				<styleUrl>#s_ylw-pushpin2</styleUrl>
			</Pair>
			<Pair>
				<key>highlight</key>
				<styleUrl>#s_ylw-pushpin_hl2</styleUrl>
			</Pair>
		</StyleMap>
		<Style id="s_ylw-pushpin2">
			<IconStyle>
				<scale>1.1</scale>
				<Icon>
					<href>http://maps.google.com/mapfiles/kml/pushpin/ylw-pushpin.png</href>
				</Icon>
				<hotSpot x="20" y="2" xunits="pixels" yunits="pixels"/>
			</IconStyle>
			<LineStyle>
				<color>ffffff55</color>
				<width>3</width>
			</LineStyle>
			<PolyStyle>
				<fill>0</fill>
			</PolyStyle>
		</Style>
		<Style id="s_ylw-pushpin_hl2">
			<IconStyle>
				<scale>1.3</scale>
				<Icon>
					<href>http://maps.google.com/mapfiles/kml/pushpin/ylw-pushpin.png</href>
				</Icon>
				<hotSpot x="20" y="2" xunits="pixels" yunits="pixels"/>
			</IconStyle>
			<LineStyle>
				<color>ffffff55</color>
				<width>3</width>
			</LineStyle>
			<PolyStyle>
				<fill>0</fill>
			</PolyStyle>
		</Style>
		<Placemark>
			<name>Ward No 4.kml</name>
			<styleUrl>#m_ylw-pushpin2</styleUrl>
			<Polygon>
				<tessellate>1</tessellate>
				<outerBoundaryIs>
					<LinearRing>
						<coordinates>
							73.15532097760612,19.64470777030986,0 73.15581104020208,19.64490923210379,0 73.15618170530117,19.64521073236606,0 73.15681531167694,19.64541500503428,0 73.15694378126764,19.64546710551148,0 73.15742507397644,19.64575416001323,0 73.15821517582997,19.64619511426646,0 73.15871751882132,19.64647749502482,0 73.15954207772386,19.64694089724824,0 73.15995318176699,19.64712889101225,0 73.16033864551252,19.64730085035006,0 73.16070426928466,19.64746595816085,0 73.16150936830591,19.64794788981262,0 73.16213850963291,19.64832613339661,0 73.16238654746141,19.64847297858787,0 73.16272392094704,19.64868954435519,0 73.16320299297604,19.64902111993075,0 73.16362577951388,19.64932832903841,0 73.16411830258764,19.64971508987194,0 73.16430965055375,19.64985762167026,0 73.16435640515131,19.6498968754608,0 73.16446031753175,19.65007090491012,0 73.16463990036885,19.65037835520519,0 73.16476009833193,19.65057991179718,0 73.16493471165407,19.65081644570205,0 73.16522367076536,19.65118201036481,0 73.16542500013681,19.6514378748478,0 73.16556937798129,19.65161837217086,0 73.16564972077825,19.65171178909769,0 73.16570977040892,19.65176963405167,0 73.16357959093618,19.65179358768742,0 73.16356928413227,19.65179405394455,0 73.16355923276276,19.65179530848694,0 73.16192587444012,19.65201709359614,0 73.16170789718663,19.65204649621252,0 73.16144100128986,19.65210186198613,0 73.16009207377824,19.65237938009311,0 73.15936552187189,19.65239656985711,0 73.1585623927073,19.65287248260474,0 73.15820081687976,19.65294411994134,0 73.15818108186345,19.65294800077637,0 73.15817494935807,19.65292755012536,0 73.15816483879291,19.65293036839744,0 73.15697031634609,19.65318017152529,0 73.15631489430265,19.65327653251636,0 73.15571874707648,19.65332972034582,0 73.15570764416326,19.65332829308628,0 73.15559428260055,19.65331301793696,0 73.1554092060954,19.65328819824045,0 73.1551732060793,19.65325620983939,0 73.15437384524517,19.65323620139955,0 73.15437485901502,19.65321925749336,0 73.15427293718635,19.65308840454308,0 73.15424503091023,19.65301841313955,0 73.15421463089501,19.65293991216498,0 73.15417646655176,19.65279863758724,0 73.15416072054802,19.65277960512078,0 73.15406110500214,19.65275040819911,0 73.15401298150896,19.65275702767736,0 73.15375543369308,19.6528337147628,0 73.15363232757831,19.65286233446292,0 73.15349907505329,19.6528760380225,0 73.15336066851415,19.65287778389938,0 73.15318545600817,19.65285026074584,0 73.15311415869604,19.65282884900205,0 73.15297689307957,19.65277256684245,0 73.15294098992052,19.65275122619036,0 73.15281825394786,19.65256946278591,0 73.1527095783558,19.65250073811204,0 73.15253108979223,19.65250776604512,0 73.15237211891524,19.65252593989619,0 73.15228645189423,19.65264150175748,0 73.15225442770313,19.65273005845672,0 73.15226381047988,19.65299174969062,0 73.15212858376293,19.65310126733376,0 73.15207105610611,19.65327462853467,0 73.15181924911494,19.65337749014408,0 73.15170716042388,19.65337548813805,0 73.15160811842523,19.65322406223383,0 73.15157056687174,19.65313858118691,0 73.15148181967429,19.65305154176917,0 73.151334334742,19.65298589207498,0 73.15125953288373,19.65299771079353,0 73.15109259651615,19.65305790393669,0 73.15102430083753,19.65315080020112,0 73.15110473157304,19.65337990728889,0 73.15107752323566,19.65358269157351,0 73.15091319064065,19.6534996572144,0 73.15089540627058,19.65346129351822,0 73.15080994913575,19.65330564403684,0 73.150482804566,19.65325621608115,0 73.15037585745475,19.65330320946148,0 73.1502610626962,19.65355532973135,0 73.15023671873891,19.65377043462281,0 73.15023857108359,19.65378638328082,0 73.15018112131301,19.65380067544633,0 73.14987060281047,19.6538781420219,0 73.14977484967534,19.65380656143689,0 73.14948994389981,19.6536116139655,0 73.1494035807433,19.6536423021648,0 73.14934778014144,19.65363757077768,0 73.14930386524405,19.65369143431271,0 73.14936529371479,19.65375725024865,0 73.14940215537294,19.65381206629817,0 73.14944271411096,19.65387239850345,0 73.14930080944654,19.65391503111637,0 73.14916945368506,19.65378252264186,0 73.14902335005112,19.65394113915488,0 73.1492273489832,19.65427473840861,0 73.14929908560258,19.65442999023562,0 73.14930698313545,19.65463219157428,0 73.14932198685935,19.65477040293091,0 73.14927774106827,19.6548015124662,0 73.14908914140517,19.65474977714269,0 73.14893283018036,19.65459484237802,0 73.14869323853311,19.65433903726906,0 73.14857083301769,19.65420911307233,0 73.14854268664088,19.65417903658354,0 73.14842623649899,19.6540601026949,0 73.14846939728321,19.65406671049804,0 73.14855383736436,19.65400149330898,0 73.14859479101501,19.65381042573741,0 73.1485914967209,19.65365072710897,0 73.14868660097289,19.65353622998402,0 73.14872099332004,19.65342566867941,0 73.14879037974723,19.65315463468396,0 73.14878149361626,19.65310982024716,0 73.1488746253961,19.65305840919169,0 73.14927396001229,19.65285497642989,0 73.14938125790299,19.65256254252765,0 73.1495953459483,19.6520528419344,0 73.14974583848135,19.65176745982532,0 73.15003308421052,19.65143446540127,0 73.15075926175699,19.6507505405619,0 73.1507947043378,19.65066956844853,0 73.15083782478565,19.65067823279744,0 73.15105364081911,19.65041250434261,0 73.15135358761522,19.65024520948001,0 73.15168304965447,19.64991624812586,0 73.15198450592564,19.64947122297336,0 73.15217847536627,19.64899188301855,0 73.15228288631909,19.64875179032716,0 73.15235918765445,19.64850757945511,0 73.15254571132526,19.64814550033778,0 73.15287743550155,19.64742896733121,0 73.15370696364988,19.64668328956146,0 73.15463714280139,19.64641449559218,0 73.15509976251447,19.64599505134435,0 73.15532097760612,19.64470777030986,0 
						</coordinates>
					</LinearRing>
				</outerBoundaryIs>
			</Polygon>
		</Placemark>
	</Document>
	<Document>
		<name>Ward No 5.kml</name>
		<StyleMap id="m_ylw-pushpin3">
			<Pair>
				<key>normal</key>
				<styleUrl>#s_ylw-pushpin3</styleUrl>
			</Pair>
			<Pair>
				<key>highlight</key>
				<styleUrl>#s_ylw-pushpin_hl3</styleUrl>
			</Pair>
		</StyleMap>
		<Style id="s_ylw-pushpin3">
			<IconStyle>
				<scale>1.1</scale>
				<Icon>
					<href>http://maps.google.com/mapfiles/kml/pushpin/ylw-pushpin.png</href>
				</Icon>
				<hotSpot x="20" y="2" xunits="pixels" yunits="pixels"/>
			</IconStyle>
			<LineStyle>
				<color>ffffff55</color>
				<width>3</width>
			</LineStyle>
			<PolyStyle>
				<fill>0</fill>
			</PolyStyle>
		</Style>
		<Style id="s_ylw-pushpin_hl3">
			<IconStyle>
				<scale>1.3</scale>
				<Icon>
					<href>http://maps.google.com/mapfiles/kml/pushpin/ylw-pushpin.png</href>
				</Icon>
				<hotSpot x="20" y="2" xunits="pixels" yunits="pixels"/>
			</IconStyle>
			<LineStyle>
				<color>ffffff55</color>
				<width>3</width>
			</LineStyle>
			<PolyStyle>
				<fill>0</fill>
			</PolyStyle>
		</Style>
		<Placemark>
			<name>Ward No 5.kml</name>
			<styleUrl>#m_ylw-pushpin3</styleUrl>
			<Polygon>
				<tessellate>1</tessellate>
				<outerBoundaryIs>
					<LinearRing>
						<coordinates>
							73.15135344504451,19.65428505005096,0 73.1512957758224,19.6543054257809,0 73.15110391379993,19.65437453868484,0 73.15107130173406,19.65438627072045,0 73.15095904235037,19.65442256449786,0 73.15095600528832,19.65442352134552,0 73.1509150290249,19.6543508298384,0 73.15078517897626,19.65412000925225,0 73.15075870978261,19.65407900660566,0 73.15073711971027,19.65406180212371,0 73.15043429818378,19.65414588146821,0 73.15041137341504,19.65414847065636,0 73.15040523927486,19.65416011390907,0 73.15034474321131,19.65421409058736,0 73.15028587030959,19.6542633851535,0 73.15025257924128,19.65429695023654,0 73.15019005167622,19.65435254297501,0 73.15014490523745,19.65439269123191,0 73.15011371618213,19.65441823022321,0 73.15006296772115,19.6544600958135,0 73.1500195534521,19.65449590268889,0 73.14996804779618,19.65453823669273,0 73.14991288365525,19.6545657517851,0 73.14983148066121,19.65443911048221,0 73.14973628106334,19.65430815402617,0 73.14969086342732,19.65424345025413,0 73.14965530355832,19.65418972979975,0 73.14960453726088,19.65411231352713,0 73.14955807676911,19.65404833247792,0 73.14952798015476,19.65399751858948,0 73.149491909818,19.65394566013504,0 73.14936500672043,19.65375684811336,0 73.14930392511637,19.65369149560576,0 73.14934790426896,19.65363749561822,0 73.14940356192989,19.65364230029854,0 73.1494901089727,19.65361158959143,0 73.14977540893324,19.65380686626617,0 73.14987065490921,19.65387810534416,0 73.15023868113681,19.65378635200584,0 73.15023663939151,19.65377070389667,0 73.1502610027698,19.6535551061815,0 73.15028881182585,19.65349427786936,0 73.15032469154211,19.65341542547228,0 73.15036987865014,19.65331646196196,0 73.1503759857481,19.65330319442806,0 73.15048278992526,19.65325614408716,0 73.15063147811165,19.65327849714674,0 73.15081041945317,19.65330583068603,0 73.15085764953683,19.65339219907173,0 73.15089605071287,19.65346303552957,0 73.15091336822523,19.65349962702706,0 73.15102516484377,19.6535563664751,0 73.15107760802394,19.65358248748039,0 73.1511047167655,19.65337977225735,0 73.15102424259041,19.65315062100282,0 73.1510925104389,19.65305787232356,0 73.15126087715014,19.65299699715428,0 73.15133394515678,19.65298557369617,0 73.1514817323458,19.65305155165284,0 73.15157214994871,19.65313973111023,0 73.15161013070539,19.65322662611199,0 73.15170741748538,19.65337555033697,0 73.15181937237747,19.65337736231876,0 73.15207121720387,19.65327487735668,0 73.15211681170494,19.6531375929301,0 73.15212832656169,19.6531011712411,0 73.15226388187827,19.6529916173835,0 73.15225444792284,19.65272955260709,0 73.15228701703155,19.65264048360245,0 73.15232465203725,19.65258930756234,0 73.15237228860376,19.65252575537143,0 73.15253047433082,19.65250785642091,0 73.15270977021889,19.65250065550637,0 73.15281866006107,19.65256986470023,0 73.15294125068625,19.65275179495172,0 73.15297902444982,19.65277334637804,0 73.15311391006058,19.65282878938014,0 73.15318692437894,19.65285060910976,0 73.15335857623441,19.65287753739482,0 73.15349089890653,19.65287629682358,0 73.15350289979885,19.6528755793439,0 73.15351604452246,19.65287406924706,0 73.1536333766649,19.65286241297975,0 73.15375924623848,19.65283267294939,0 73.15401290332589,19.65275700348682,0 73.15406110248703,19.65275035274468,0 73.15416066141972,19.65277957321731,0 73.15417700754699,19.65279920622728,0 73.15421278993718,19.65293395276736,0 73.1542301234954,19.65298004475178,0 73.15427309061678,19.65308895881193,0 73.15437465673561,19.65321944659327,0 73.15437378050662,19.65323609275255,0 73.15429457478535,19.65326214954355,0 73.15411041916492,19.65332303627,0 73.15396543569587,19.65346756478852,0 73.15375754439567,19.65354851813366,0 73.1535186340419,19.65359431621794,0 73.15339314368052,19.65364709198922,0 73.1532387399687,19.65382315379357,0 73.15305995769224,19.65393278023166,0 73.15285627518739,19.65405961301313,0 73.15262420975728,19.65425121445536,0 73.15264391831512,19.654451083966,0 73.15260179407287,19.65460967163907,0 73.15251740974163,19.6546843776801,0 73.15248832731869,19.65479540032414,0 73.15244862976822,19.65484464238547,0 73.1523916472855,19.65491585011128,0 73.15235452640661,19.65496213602363,0 73.15233692750519,19.65497508760103,0 73.15219575137341,19.65507686257741,0 73.15215795991557,19.65508592685173,0 73.15209075370505,19.65510157459158,0 73.1520181717018,19.65516099783953,0 73.15188703557621,19.65513634472261,0 73.15186381402656,19.65513203466283,0 73.15180696229559,19.65511856260724,0 73.15178868304102,19.65499483165513,0 73.15178166357184,19.65494656475876,0 73.15179932405074,19.65493810850223,0 73.15180926473238,19.65491644952937,0 73.15182190843336,19.65488899359599,0 73.15182146715138,19.65487332956175,0 73.15181689875182,19.65473957992871,0 73.15184029005309,19.65452391628087,0 73.1518289613516,19.65435381000504,0 73.15175753615476,19.6542613720205,0 73.15177614134798,19.65417626248817,0 73.15164010399532,19.65410582892698,0 73.1515349318143,19.65405133648539,0 73.15139200039569,19.65416065181003,0 73.15144085931415,19.65428445694664,0 73.15135344504451,19.65428505005096,0 
						</coordinates>
					</LinearRing>
				</outerBoundaryIs>
			</Polygon>
		</Placemark>
	</Document>
	<Document>
		<name>Ward No 6.kml</name>
		<StyleMap id="m_ylw-pushpin4">
			<Pair>
				<key>normal</key>
				<styleUrl>#s_ylw-pushpin4</styleUrl>
			</Pair>
			<Pair>
				<key>highlight</key>
				<styleUrl>#s_ylw-pushpin_hl4</styleUrl>
			</Pair>
		</StyleMap>
		<Style id="s_ylw-pushpin4">
			<IconStyle>
				<scale>1.1</scale>
				<Icon>
					<href>http://maps.google.com/mapfiles/kml/pushpin/ylw-pushpin.png</href>
				</Icon>
				<hotSpot x="20" y="2" xunits="pixels" yunits="pixels"/>
			</IconStyle>
			<LineStyle>
				<color>ffffff55</color>
				<width>3</width>
			</LineStyle>
			<PolyStyle>
				<fill>0</fill>
			</PolyStyle>
		</Style>
		<Style id="s_ylw-pushpin_hl4">
			<IconStyle>
				<scale>1.3</scale>
				<Icon>
					<href>http://maps.google.com/mapfiles/kml/pushpin/ylw-pushpin.png</href>
				</Icon>
				<hotSpot x="20" y="2" xunits="pixels" yunits="pixels"/>
			</IconStyle>
			<LineStyle>
				<color>ffffff55</color>
				<width>3</width>
			</LineStyle>
			<PolyStyle>
				<fill>0</fill>
			</PolyStyle>
		</Style>
		<Placemark>
			<name>Ward No 6.kml</name>
			<styleUrl>#m_ylw-pushpin4</styleUrl>
			<Polygon>
				<tessellate>1</tessellate>
				<outerBoundaryIs>
					<LinearRing>
						<coordinates>
							73.14825706046221,19.65458725045083,0 73.14826766136322,19.65446188455751,0 73.14827903002927,19.654329461554,0 73.14838693105321,19.65408507102331,0 73.14842590395459,19.65405976789945,0 73.14853404595803,19.65416989045832,0 73.14878612632735,19.65443792942565,0 73.1489322915819,19.65459415542211,0 73.14908883131793,19.65474945416841,0 73.14927767798733,19.65480156070268,0 73.14932198665296,19.65477036424988,0 73.14930678344258,19.65462866545909,0 73.14929901677911,19.65442945047174,0 73.14922729335234,19.65427466778331,0 73.1490232321096,19.65394138674314,0 73.14916960221203,19.65378251777814,0 73.14930080120996,19.65391506841467,0 73.14944258445873,19.65387244139076,0 73.14949218973079,19.65394597086124,0 73.14952785363528,19.65399723968184,0 73.1495582368677,19.65404864835858,0 73.1495993101305,19.65410466604482,0 73.14969277725112,19.6542461373454,0 73.14974002624314,19.65431343057754,0 73.14983158688337,19.65443926660492,0 73.14991291234487,19.65456581691718,0 73.14996802393946,19.65453826893248,0 73.15014610414113,19.65439174009092,0 73.15025318814712,19.65429636861193,0 73.15028558807579,19.65426368555842,0 73.15034759283439,19.65421164927969,0 73.15040523438384,19.65416009447475,0 73.15041116506809,19.65414861331088,0 73.15043351738403,19.65414596366466,0 73.15073707885139,19.65406157763015,0 73.15075901071737,19.65407933253956,0 73.15078582752314,19.6541211792139,0 73.15095593632458,19.65442356314215,0 73.15107070361194,19.6543865310748,0 73.15122902414845,19.65432948107844,0 73.15135366656988,19.65428497833313,0 73.15144086261694,19.65428477762073,0 73.15139204614339,19.65416046198626,0 73.15153490789091,19.65405134883005,0 73.15177619623945,19.65417631675806,0 73.15175754797944,19.65426135372838,0 73.15182888352066,19.65435411380944,0 73.15184030009961,19.65452262223767,0 73.15181691968137,19.65473923175261,0 73.15182195141273,19.65488889547708,0 73.15179925428257,19.65493821071447,0 73.15178153038524,19.65494653115883,0 73.15175199895492,19.6549347437616,0 73.15163324684107,19.6548785912713,0 73.15146042670364,19.65481996558282,0 73.15141677354997,19.65480968317866,0 73.15137870811321,19.65480077804507,0 73.15106527389196,19.65475098649201,0 73.15052053202317,19.65466357487411,0 73.15021982542051,19.65466621112496,0 73.15020495892917,19.65466611975396,0 73.15011273764081,19.65467212698271,0 73.14983849235799,19.65471404496323,0 73.14974457493922,19.65476729839969,0 73.14961744691885,19.65484743395242,0 73.14952065660214,19.65491039878439,0 73.14944667429711,19.65496015667333,0 73.14940310769927,19.65500041370017,0 73.14928569503235,19.65510815341452,0 73.14918796174531,19.65519124096849,0 73.14899017051631,19.65530551447909,0 73.14890285589512,19.65519892168177,0 73.14884214673566,19.6551368650027,0 73.14869715314164,19.65507498191424,0 73.14858653019525,19.6550280647758,0 73.14850214729537,19.65499548300833,0 73.14830993768221,19.65496187215784,0 73.14823372691795,19.65494766442241,0 73.1481698916412,19.65464163109295,0 73.14816482817471,19.65462383885903,0 73.14825706046221,19.65458725045083,0 
						</coordinates>
					</LinearRing>
				</outerBoundaryIs>
			</Polygon>
		</Placemark>
	</Document>
	<Document>
		<name>Ward No 7.kml</name>
		<StyleMap id="m_ylw-pushpin5">
			<Pair>
				<key>normal</key>
				<styleUrl>#s_ylw-pushpin5</styleUrl>
			</Pair>
			<Pair>
				<key>highlight</key>
				<styleUrl>#s_ylw-pushpin_hl5</styleUrl>
			</Pair>
		</StyleMap>
		<Style id="s_ylw-pushpin5">
			<IconStyle>
				<scale>1.1</scale>
				<Icon>
					<href>http://maps.google.com/mapfiles/kml/pushpin/ylw-pushpin.png</href>
				</Icon>
				<hotSpot x="20" y="2" xunits="pixels" yunits="pixels"/>
			</IconStyle>
			<LineStyle>
				<color>ffffff55</color>
				<width>3</width>
			</LineStyle>
			<PolyStyle>
				<fill>0</fill>
			</PolyStyle>
		</Style>
		<Style id="s_ylw-pushpin_hl5">
			<IconStyle>
				<scale>1.3</scale>
				<Icon>
					<href>http://maps.google.com/mapfiles/kml/pushpin/ylw-pushpin.png</href>
				</Icon>
				<hotSpot x="20" y="2" xunits="pixels" yunits="pixels"/>
			</IconStyle>
			<LineStyle>
				<color>ffffff55</color>
				<width>3</width>
			</LineStyle>
			<PolyStyle>
				<fill>0</fill>
			</PolyStyle>
		</Style>
		<Placemark>
			<name>Ward No 7.kml</name>
			<styleUrl>#m_ylw-pushpin5</styleUrl>
			<Polygon>
				<tessellate>1</tessellate>
				<outerBoundaryIs>
					<LinearRing>
						<coordinates>
							73.14483479401554,19.65952871414003,0 73.14473115494961,19.65928728863392,0 73.14475078443553,19.65903784017712,0 73.14489436940106,19.65873286210817,0 73.14490908529704,19.65828620611368,0 73.14505478374672,19.65826574189589,0 73.14517417917172,19.65825566624643,0 73.14519164568303,19.65825479122434,0 73.14530092515155,19.65825195250573,0 73.14543082515637,19.65823951421717,0 73.14552603950615,19.65823811425914,0 73.14566334760455,19.65822355648598,0 73.14585728024049,19.65818378870029,0 73.14608305821062,19.65813656212411,0 73.14634231255228,19.65806732528782,0 73.1464069645133,19.65804806462667,0 73.14643708926594,19.65803539308263,0 73.14660295932468,19.65791533223604,0 73.14670910114639,19.65782328096828,0 73.14705373434536,19.65764180127727,0 73.14712721488873,19.65731937561492,0 73.14708754010186,19.65678525136707,0 73.14714197403048,19.65641266620785,0 73.14706038682117,19.65603601676762,0 73.14678942530774,19.65599435529382,0 73.14656488499826,19.65565221303171,0 73.14645098782694,19.65526642184008,0 73.14655482729421,19.65523757334482,0 73.14663937794832,19.65523330682133,0 73.1467683240834,19.65521990726323,0 73.14687884558133,19.65520348308587,0 73.14693969637837,19.65519429404924,0 73.14698454015773,19.65519284819441,0 73.14711545686815,19.65518842516432,0 73.14720939822362,19.65515294003871,0 73.14726548818125,19.65515180386284,0 73.14735840664537,19.65513316654396,0 73.14741719713616,19.65511677112759,0 73.14750180977212,19.6551125530725,0 73.14766741274813,19.65506708243836,0 73.14767707646054,19.65512009385433,0 73.14770075288426,19.65527683936807,0 73.14767507899323,19.65551377525798,0 73.14766290759181,19.65562860303656,0 73.14765272777996,19.65571367457844,0 73.14762703225274,19.65583778588918,0 73.14757890907708,19.65607069049545,0 73.14752782413396,19.65632393084512,0 73.14750911521527,19.65652440804577,0 73.1475247543363,19.65668617013043,0 73.14799394632939,19.65752653385458,0 73.1479081084633,19.65755799774411,0 73.14785285812091,19.65757001160548,0 73.1477599291874,19.65758566599979,0 73.14765206393251,19.65764397943166,0 73.1473281653268,19.65762005228545,0 73.14725480718793,19.65759871577105,0 73.14717128144889,19.65763695556753,0 73.14712426191369,19.6576982659648,0 73.14700943829548,19.65784818775964,0 73.14697261808423,19.65798401378245,0 73.14694287711325,19.65806490565671,0 73.1468641557618,19.6582806383252,0 73.14679194569973,19.65848961954442,0 73.1467190635402,19.65868947941056,0 73.14668476680346,19.65878941323983,0 73.14662282498853,19.65898916007882,0 73.14656233580401,19.65917835694473,0 73.14652788671408,19.6593874227602,0 73.14654481288203,19.6595041211739,0 73.14657840213225,19.65967576537779,0 73.14655439831419,19.65966812929091,0 73.14653138822526,19.65966285309317,0 73.14651227013972,19.65965837225699,0 73.146450963649,19.65965636582803,0 73.14642345160634,19.65964705946794,0 73.14639787424875,19.65961837905617,0 73.14638211279915,19.65961267136031,0 73.14633053318227,19.65960602695312,0 73.14630420352429,19.65961064904511,0 73.14627066985396,19.65961753333967,0 73.14624432563706,19.65962097341275,0 73.14621147996817,19.65961681044917,0 73.14615069144077,19.65961172968161,0 73.14608652233925,19.65954965674949,0 73.14574200350555,19.65956645493533,0 73.14561495617986,19.65965023105863,0 73.14530607905549,19.65966909574971,0 73.14516615515441,19.65967662845894,0 73.14510338809662,19.65968226800593,0 73.14497940597481,19.6597101656195,0 73.14487258318258,19.65971546039478,0 73.14483479401554,19.65952871414003,0 
						</coordinates>
					</LinearRing>
				</outerBoundaryIs>
			</Polygon>
		</Placemark>
	</Document>
	<Document>
		<name>Ward No 8.kml</name>
		<StyleMap id="m_ylw-pushpin6">
			<Pair>
				<key>normal</key>
				<styleUrl>#s_ylw-pushpin6</styleUrl>
			</Pair>
			<Pair>
				<key>highlight</key>
				<styleUrl>#s_ylw-pushpin_hl6</styleUrl>
			</Pair>
		</StyleMap>
		<Style id="s_ylw-pushpin6">
			<IconStyle>
				<scale>1.1</scale>
				<Icon>
					<href>http://maps.google.com/mapfiles/kml/pushpin/ylw-pushpin.png</href>
				</Icon>
				<hotSpot x="20" y="2" xunits="pixels" yunits="pixels"/>
			</IconStyle>
			<LineStyle>
				<color>ffffff55</color>
				<width>3</width>
			</LineStyle>
			<PolyStyle>
				<fill>0</fill>
			</PolyStyle>
		</Style>
		<Style id="s_ylw-pushpin_hl6">
			<IconStyle>
				<scale>1.3</scale>
				<Icon>
					<href>http://maps.google.com/mapfiles/kml/pushpin/ylw-pushpin.png</href>
				</Icon>
				<hotSpot x="20" y="2" xunits="pixels" yunits="pixels"/>
			</IconStyle>
			<LineStyle>
				<color>ffffff55</color>
				<width>3</width>
			</LineStyle>
			<PolyStyle>
				<fill>0</fill>
			</PolyStyle>
		</Style>
		<Placemark>
			<name>Ward No 8.kml</name>
			<styleUrl>#m_ylw-pushpin6</styleUrl>
			<Polygon>
				<tessellate>1</tessellate>
				<outerBoundaryIs>
					<LinearRing>
						<coordinates>
							73.13635070681444,19.67246594201366,0 73.13633338277842,19.67244833637791,0 73.13630010173698,19.67240033243502,0 73.13623523645275,19.67232286543439,0 73.13606857577764,19.67210324884752,0 73.13598654336455,19.67199458784382,0 73.13572263039359,19.67164847858514,0 73.13562501728701,19.67149506850199,0 73.13497448526014,19.67022175910554,0 73.13500048958279,19.66931863512683,0 73.13502187400258,19.66861288875266,0 73.13502127648459,19.66845217652691,0 73.13424915683635,19.66756313501489,0 73.13402686653077,19.66712407575513,0 73.1338423890282,19.6667096919582,0 73.13358855721292,19.66601131715574,0 73.13339218968048,19.66580679070512,0 73.13280123422847,19.6652217391802,0 73.13280136487623,19.66520061901505,0 73.13246827534087,19.66432104413882,0 73.13187332828392,19.66297709572256,0 73.13146261266424,19.66173822320976,0 73.13104420578532,19.6612611905049,0 73.13019013018501,19.66039042140376,0 73.12966581064724,19.6592088805337,0 73.12960840933965,19.65917694058021,0 73.12873908511996,19.65861138393057,0 73.12651906176175,19.65880227245286,0 73.12575090974507,19.65876429627297,0 73.12446865288551,19.65871112435377,0 73.12440180781088,19.65800913245196,0 73.12469295771194,19.65714272119785,0 73.12507712770062,19.65627499609736,0 73.12500269307394,19.65586159842652,0 73.12387894039119,19.65543232974614,0 73.1230229220315,19.6547948685204,0 73.12274615092394,19.65441438635365,0 73.12264258489341,19.65427712432879,0 73.12295336900638,19.65420696773075,0 73.12386899000266,19.65403416697472,0 73.12392626969464,19.65403440383323,0 73.12401214394464,19.65402147551809,0 73.12437669591044,19.65396142287618,0 73.12497782914532,19.6538801059299,0 73.12521543787092,19.65383978705887,0 73.1254177434337,19.65380743897316,0 73.12639854518916,19.65366945379472,0 73.1267147974924,19.65362651883166,0 73.12728990956836,19.65359063541114,0 73.12763852218943,19.65356180459068,0 73.12819132170252,19.6535039689996,0 73.12896831109217,19.65343106684355,0 73.12981831299075,19.65335900121349,0 73.13053239058573,19.6533055316192,0 73.13140913227532,19.65322104815292,0 73.13192804213102,19.65320027496893,0 73.13204860481032,19.65319608207905,0 73.1320606993075,19.65306111865628,0 73.13235639875343,19.65303180909743,0 73.13241191570573,19.65302642341728,0 73.13267628416374,19.65300545985668,0 73.13419865525216,19.65288678367955,0 73.1345383144816,19.65286037606139,0 73.13484035044755,19.65283936371432,0 73.13526483168324,19.65281093271915,0 73.1357101866685,19.65278067929835,0 73.13586816227084,19.65277001725869,0 73.13643654520456,19.65273198299955,0 73.1367834218523,19.65270827576715,0 73.13717210657471,19.65268268573286,0 73.13768781374866,19.65265116042171,0 73.138537528901,19.65259902250105,0 73.13905276690588,19.65256804776598,0 73.13934362195306,19.65255051780481,0 73.1400783373799,19.65251305978186,0 73.1401112657623,19.6525114544782,0 73.14048028249297,19.6525148847093,0 73.140481681626,19.65343389173092,0 73.14039562443793,19.65431861968214,0 73.1403245964933,19.65449223038904,0 73.1403848443537,19.65471762750812,0 73.14021341932381,19.65520444472771,0 73.14020296956969,19.65551259945775,0 73.13993038566812,19.65563030479438,0 73.13867711020667,19.65570010345029,0 73.13864036939846,19.65539340339793,0 73.13682023032969,19.65550155581318,0 73.13610403345982,19.65644335051673,0 73.13615800038176,19.65677268765137,0 73.13648192297882,19.65672246735248,0 73.13666260164287,19.65676111932106,0 73.1367980637911,19.65694132649087,0 73.13643425219669,19.65740931526347,0 73.13658965728098,19.65761275338565,0 73.13717193693658,19.65763214448254,0 73.13749043764901,19.65785630778915,0 73.13715591046787,19.65856943019451,0 73.13746988897677,19.658619805477,0 73.13763767599909,19.6591171612749,0 73.13812051308703,19.65945078729284,0 73.13865777510733,19.65955959594117,0 73.13956552540981,19.6594101548245,0 73.13960027957533,19.65914654442531,0 73.14056876669792,19.65926249212686,0 73.14062464353208,19.65996084338278,0 73.14144930062344,19.6604674274455,0 73.14417064041844,19.66028349309203,0 73.14493063204317,19.66017297876203,0 73.14485775408386,19.65971635684182,0 73.14497963547753,19.65971017983177,0 73.14501669638386,19.6597018253992,0 73.14510374903466,19.65968214104857,0 73.1451678305087,19.65967644564477,0 73.1452376664673,19.65967265118372,0 73.14531474324134,19.65966852925203,0 73.14547751328958,19.65965868630526,0 73.14561509900842,19.65965025033832,0 73.14564493157492,19.6596304241039,0 73.14574221417526,19.65956626755627,0 73.14584829426454,19.65956128389824,0 73.1460861299377,19.65954979132256,0 73.14615095854684,19.65961173545513,0 73.14621100242749,19.65961660666502,0 73.14624555102256,19.6596210742117,0 73.14627292308597,19.65961694313798,0 73.14633075086212,19.65960604316579,0 73.1463821135082,19.65961261377556,0 73.14639778799705,19.65961833336455,0 73.14642353043553,19.65964711722477,0 73.14645086652133,19.65965631858014,0 73.14651225987892,19.65965834616082,0 73.14651402445475,19.6596587537351,0 73.14660639751372,19.65992074953406,0 73.14652492902766,19.66001106099189,0 73.14642282429658,19.66050921349087,0 73.14631549628979,19.6613348961898,0 73.14612848245042,19.66219230472127,0 73.14596279839334,19.66322560928116,0 73.14592473701705,19.6635447485038,0 73.14568600439398,19.66436347554235,0 73.14554930385685,19.66516428158518,0 73.14468275536044,19.66720897236995,0 73.14394101474309,19.66879535424455,0 73.14370139604466,19.66923572960355,0 73.14304109887337,19.66972127273497,0 73.14282322483567,19.67026236811119,0 73.14268825882269,19.67038865685783,0 73.14244043645907,19.67052975418024,0 73.14239307607862,19.67055568954788,0 73.1416129570719,19.67089815331867,0 73.14077224263441,19.67103028041134,0 73.14067220347158,19.67106503515954,0 73.14056708828372,19.67109911628769,0 73.14046708956488,19.67113117240514,0 73.14040968122713,19.67114881172706,0 73.14031182600483,19.67117368910874,0 73.14021753791842,19.6712039192058,0 73.14015189176499,19.67122935320105,0 73.14012467136517,19.67123403928855,0 73.14010063835393,19.67124255787627,0 73.13979256295833,19.67132981104029,0 73.13934128295769,19.67147648789995,0 73.13906571468644,19.67156168043538,0 73.13897793188086,19.67159378768105,0 73.13874032423752,19.67166116300296,0 73.13830162909078,19.6718082069579,0 73.1380174176506,19.67189531557589,0 73.13745392871681,19.67207990138047,0 73.13713284246658,19.67219488802021,0 73.13657147749946,19.6723806903368,0 73.13637102393551,19.6724547004326,0 73.13635070681444,19.67246594201366,0 
						</coordinates>
					</LinearRing>
				</outerBoundaryIs>
			</Polygon>
		</Placemark>
	</Document>
	<Document>
		<name>Ward No 9.kml</name>
		<StyleMap id="m_ylw-pushpin7">
			<Pair>
				<key>normal</key>
				<styleUrl>#s_ylw-pushpin7</styleUrl>
			</Pair>
			<Pair>
				<key>highlight</key>
				<styleUrl>#s_ylw-pushpin_hl7</styleUrl>
			</Pair>
		</StyleMap>
		<Style id="s_ylw-pushpin7">
			<IconStyle>
				<scale>1.1</scale>
				<Icon>
					<href>http://maps.google.com/mapfiles/kml/pushpin/ylw-pushpin.png</href>
				</Icon>
				<hotSpot x="20" y="2" xunits="pixels" yunits="pixels"/>
			</IconStyle>
			<LineStyle>
				<color>ffffff55</color>
				<width>3</width>
			</LineStyle>
			<PolyStyle>
				<fill>0</fill>
			</PolyStyle>
		</Style>
		<Style id="s_ylw-pushpin_hl7">
			<IconStyle>
				<scale>1.3</scale>
				<Icon>
					<href>http://maps.google.com/mapfiles/kml/pushpin/ylw-pushpin.png</href>
				</Icon>
				<hotSpot x="20" y="2" xunits="pixels" yunits="pixels"/>
			</IconStyle>
			<LineStyle>
				<color>ffffff55</color>
				<width>3</width>
			</LineStyle>
			<PolyStyle>
				<fill>0</fill>
			</PolyStyle>
		</Style>
		<Placemark>
			<name>Ward No 9.kml</name>
			<styleUrl>#m_ylw-pushpin7</styleUrl>
			<Polygon>
				<tessellate>1</tessellate>
				<outerBoundaryIs>
					<LinearRing>
						<coordinates>
							73.13750750340262,19.65873233363122,0 73.13746917521547,19.65861973488573,0 73.13715602996027,19.65856924389778,0 73.13749050099007,19.65785615227121,0 73.13773830812076,19.65771345181347,0 73.13775557062229,19.65769185241377,0 73.13793749688624,19.65746181562553,0 73.13795059888045,19.65735016407644,0 73.13796566169323,19.65722463570686,0 73.13855935865416,19.65692172986779,0 73.13937449640081,19.6569745694899,0 73.13985647449026,19.65751724813941,0 73.14013683833998,19.65737545471727,0 73.14092065770718,19.65706549340953,0 73.14101309192179,19.6570528277265,0 73.1425173008423,19.65684553844802,0 73.14261125476951,19.65681446908847,0 73.14375908937795,19.65643124886698,0 73.14390185749052,19.65632494044534,0 73.14413384285345,19.65615145079,0 73.14478684003328,19.65578612359849,0 73.1453734361489,19.65554187647977,0 73.14579435584811,19.65536710569349,0 73.14616623103873,19.65529883601402,0 73.14624992636051,19.65529193386918,0 73.14645090665567,19.65526642773229,0 73.14656511228162,19.65565287780165,0 73.14678952330866,19.65599444070705,0 73.14706038263701,19.65603600608419,0 73.14714196766269,19.65641268000618,0 73.14708760868183,19.65678650785389,0 73.14712736969088,19.65731923596979,0 73.14705358200413,19.65764189620399,0 73.14670772023099,19.65782374176077,0 73.14669651486903,19.65783505965679,0 73.1466020238564,19.65791666165696,0 73.14643620909696,19.65803576290024,0 73.14640393264364,19.65804887729507,0 73.14634444387266,19.65806672112554,0 73.14621279157798,19.65810189316799,0 73.14608192095125,19.65813689895081,0 73.14590282790053,19.65817416089461,0 73.1458032328058,19.65819462438294,0 73.14566258706658,19.65822371517001,0 73.14552593403862,19.65823816652237,0 73.14542818522681,19.65823958231514,0 73.14530370047243,19.65825185877994,0 73.1451754637489,19.65825539431478,0 73.14505479879999,19.65826608161185,0 73.14490912046965,19.65828648511381,0 73.14490649623085,19.6583659928943,0 73.14489438321344,19.65873287528564,0 73.1447506691494,19.65903834751817,0 73.14473121373179,19.65928658083267,0 73.14483447755325,19.65952765434637,0 73.14487250707656,19.65971566260345,0 73.14485790468676,19.65971633414043,0 73.14489642647897,19.65995480145889,0 73.14493055116749,19.66017312585704,0 73.14420521169922,19.66027849410835,0 73.14417078603562,19.66028358249174,0 73.14399483254472,19.66029556358235,0 73.14144946025762,19.6604675108834,0 73.14141209887059,19.66044462932641,0 73.14062625995496,19.65996152423649,0 73.14056830054795,19.65926192867815,0 73.13960064553176,19.65914661588114,0 73.13956554783377,19.65941027656647,0 73.13945603201073,19.65942810891649,0 73.13865751242277,19.6595596259003,0 73.13812057553518,19.65945083945875,0 73.13763746447604,19.65911718190244,0 73.13750750340262,19.65873233363122,0 
						</coordinates>
					</LinearRing>
				</outerBoundaryIs>
			</Polygon>
		</Placemark>
	</Document>
	<Document>
		<name>Ward No 10.kml</name>
		<StyleMap id="m_ylw-pushpin8">
			<Pair>
				<key>normal</key>
				<styleUrl>#s_ylw-pushpin8</styleUrl>
			</Pair>
			<Pair>
				<key>highlight</key>
				<styleUrl>#s_ylw-pushpin_hl8</styleUrl>
			</Pair>
		</StyleMap>
		<Style id="s_ylw-pushpin8">
			<IconStyle>
				<scale>1.1</scale>
				<Icon>
					<href>http://maps.google.com/mapfiles/kml/pushpin/ylw-pushpin.png</href>
				</Icon>
				<hotSpot x="20" y="2" xunits="pixels" yunits="pixels"/>
			</IconStyle>
			<LineStyle>
				<color>ffffff55</color>
				<width>3</width>
			</LineStyle>
			<PolyStyle>
				<fill>0</fill>
			</PolyStyle>
		</Style>
		<Style id="s_ylw-pushpin_hl8">
			<IconStyle>
				<scale>1.3</scale>
				<Icon>
					<href>http://maps.google.com/mapfiles/kml/pushpin/ylw-pushpin.png</href>
				</Icon>
				<hotSpot x="20" y="2" xunits="pixels" yunits="pixels"/>
			</IconStyle>
			<LineStyle>
				<color>ffffff55</color>
				<width>3</width>
			</LineStyle>
			<PolyStyle>
				<fill>0</fill>
			</PolyStyle>
		</Style>
		<Placemark>
			<name>Ward No 10.kml</name>
			<styleUrl>#m_ylw-pushpin8</styleUrl>
			<Polygon>
				<tessellate>1</tessellate>
				<outerBoundaryIs>
					<LinearRing>
						<coordinates>
							73.13749023066566,19.65785633099776,0 73.13717198856565,19.65763218053698,0 73.13658976549617,19.65761285463197,0 73.13643407257545,19.65740917526398,0 73.13679817879139,19.65694143530824,0 73.13666250184608,19.65676094489086,0 73.13648162937703,19.65672232860432,0 73.13615801121928,19.6567725193356,0 73.1361040316109,19.65644323326152,0 73.13682042259597,19.65550155813454,0 73.13864031689437,19.65539345409458,0 73.13867645066225,19.65570004450943,0 73.13993073817144,19.65563032694564,0 73.14020293682846,19.65551289295295,0 73.14021335741371,19.65520423417242,0 73.14038490627577,19.65471714106825,0 73.14032463529351,19.65449214112243,0 73.14039558371948,19.65431865153163,0 73.14046413651718,19.65361056850286,0 73.14048174282671,19.65343323317184,0 73.14048101835034,19.65300030773866,0 73.1404802573651,19.65251518057545,0 73.14055938886231,19.65251579601365,0 73.14056816469433,19.65251574919369,0 73.14099972002856,19.65248799878304,0 73.14106695785486,19.65248360594997,0 73.14114862823206,19.65247592737967,0 73.14146364691341,19.65244664510255,0 73.14149841918665,19.65244342015474,0 73.14158456382741,19.65243662096832,0 73.14195953802316,19.65241006674376,0 73.14228268350084,19.65239426240417,0 73.14230041845968,19.65239314088724,0 73.14245860703397,19.65237161347452,0 73.14274475164891,19.6523225905868,0 73.14290983511368,19.6522588720279,0 73.14300878568235,19.65222105730507,0 73.14306320169285,19.65220123686258,0 73.14318586252682,19.65215720107895,0 73.14330323083416,19.6521163471405,0 73.14334609080994,19.65210529592553,0 73.1433736174444,19.65209820893951,0 73.14349482172473,19.65206717191512,0 73.14350734565512,19.65208519126084,0 73.14353632573557,19.65207975838621,0 73.14362606264393,19.65206279973152,0 73.14427010895844,19.65210051047843,0 73.14427387873657,19.65215239568618,0 73.14426686221489,19.6523398265308,0 73.14426073048607,19.65244734442488,0 73.14425149148981,19.65256707588732,0 73.14425126001538,19.65267902369635,0 73.14423615653624,19.65281590862645,0 73.14423733334549,19.65289600689365,0 73.14441818923376,19.65291697437054,0 73.14445341719947,19.65299475271335,0 73.1444455794979,19.65311237867272,0 73.14444696698459,19.65340241983775,0 73.14444173169449,19.6535507707338,0 73.14445008110474,19.65390305028356,0 73.14443702913185,19.65402535043875,0 73.14446372451825,19.65409994857261,0 73.14449995941428,19.65414306262173,0 73.14451915536071,19.6541635382987,0 73.14457067992288,19.65417366570523,0 73.14467381016281,19.65418243127877,0 73.14484214584802,19.65419638761479,0 73.14499651946619,19.65421674358656,0 73.14507732633278,19.65424545005357,0 73.14514620702163,19.65430163877395,0 73.14519565713708,19.65446271159656,0 73.14521669880607,19.6545137658345,0 73.14524813309912,19.65461960890717,0 73.14525394633459,19.65465210814151,0 73.14532790541993,19.65471355642815,0 73.14547035386052,19.65482348064441,0 73.14557298026558,19.65492786644592,0 73.1456224891149,19.65498165353635,0 73.14567372174686,19.65501322278715,0 73.14578111013594,19.65504830622542,0 73.14587011193998,19.65507698297958,0 73.1459195148941,19.65512074970371,0 73.14597592687404,19.65515926511693,0 73.14599306751185,19.65517712917074,0 73.1460292241065,19.65519828392064,0 73.14609895868199,19.65523092932293,0 73.14616552153869,19.65524956356038,0 73.14616666281479,19.65529864020092,0 73.14579367989452,19.65536703511102,0 73.14478664716424,19.65578632412286,0 73.14413469087002,19.65615106578232,0 73.14376002679573,19.65643094155695,0 73.1425162200717,19.65684578736681,0 73.14092063306384,19.65706556208945,0 73.14013713275142,19.65737538363277,0 73.1398564204739,19.65751709282936,0 73.13937445415566,19.65697438766176,0 73.13855962706357,19.65692162952244,0 73.13796559596042,19.65722496113938,0 73.13793749220238,19.65746172238124,0 73.13773846495936,19.65771333894224,0 73.13749023066566,19.65785633099776,0 
						</coordinates>
					</LinearRing>
				</outerBoundaryIs>
			</Polygon>
		</Placemark>
	</Document>
	<Document>
		<name>Ward No 11.kml</name>
		<StyleMap id="m_ylw-pushpin9">
			<Pair>
				<key>normal</key>
				<styleUrl>#s_ylw-pushpin9</styleUrl>
			</Pair>
			<Pair>
				<key>highlight</key>
				<styleUrl>#s_ylw-pushpin_hl9</styleUrl>
			</Pair>
		</StyleMap>
		<Style id="s_ylw-pushpin9">
			<IconStyle>
				<scale>1.1</scale>
				<Icon>
					<href>http://maps.google.com/mapfiles/kml/pushpin/ylw-pushpin.png</href>
				</Icon>
				<hotSpot x="20" y="2" xunits="pixels" yunits="pixels"/>
			</IconStyle>
			<LineStyle>
				<color>ffffff55</color>
				<width>3</width>
			</LineStyle>
			<PolyStyle>
				<fill>0</fill>
			</PolyStyle>
		</Style>
		<Style id="s_ylw-pushpin_hl9">
			<IconStyle>
				<scale>1.3</scale>
				<Icon>
					<href>http://maps.google.com/mapfiles/kml/pushpin/ylw-pushpin.png</href>
				</Icon>
				<hotSpot x="20" y="2" xunits="pixels" yunits="pixels"/>
			</IconStyle>
			<LineStyle>
				<color>ffffff55</color>
				<width>3</width>
			</LineStyle>
			<PolyStyle>
				<fill>0</fill>
			</PolyStyle>
		</Style>
		<Placemark>
			<name>Ward No 11.kml</name>
			<styleUrl>#m_ylw-pushpin9</styleUrl>
			<Polygon>
				<tessellate>1</tessellate>
				<outerBoundaryIs>
					<LinearRing>
						<coordinates>
							73.13183891803844,19.65179125184591,0 73.13160555136217,19.65048049439722,0 73.13293708377162,19.64974006864849,0 73.1337483187304,19.64925962036244,0 73.13407726486517,19.64911907146795,0 73.13532996919406,19.64860163498368,0 73.13626605438026,19.64828865717219,0 73.13703000294251,19.64805455294,0 73.13727209390868,19.64795197671095,0 73.13753405165662,19.64787689007132,0 73.13768839243659,19.64781885113934,0 73.13781124284836,19.64777974791877,0 73.13803070191594,19.64770659770234,0 73.13814173773289,19.64766869494213,0 73.13821832829215,19.6476351866117,0 73.13837827598816,19.6475643812691,0 73.13863569494058,19.64746842406715,0 73.13901334590339,19.64732728249437,0 73.13933016314775,19.64720600483721,0 73.13949081958476,19.6471480111289,0 73.14046744356634,19.64664310436423,0 73.14022504401784,19.64629493163123,0 73.14010788976877,19.64610872550766,0 73.13987407379918,19.64572030755205,0 73.13976941732426,19.64555259926539,0 73.14000034417019,19.64541967241514,0 73.14035025120624,19.64543097990531,0 73.14053481849324,19.64558405330669,0 73.14086275459806,19.64549337809798,0 73.14101473925587,19.64557377499872,0 73.14127977529651,19.64556737591897,0 73.14140259096813,19.64553088943868,0 73.14153965446344,19.64549207193046,0 73.14166944168369,19.64545408535654,0 73.14196985378561,19.64534561584295,0 73.142344147654,19.64506622680301,0 73.14273379778346,19.64518944723866,0 73.14313400045801,19.64509280908999,0 73.14329527020961,19.64487456876198,0 73.1433715069813,19.64508312630295,0 73.14362327005303,19.64541871880598,0 73.14398886860113,19.64571658880277,0 73.14405130458697,19.64573551645061,0 73.14442987666439,19.64584981027756,0 73.14460541785209,19.64590293600972,0 73.14508645821552,19.64612014593713,0 73.14530323257114,19.64630442343761,0 73.14505786783928,19.64638720485491,0 73.14461800822544,19.64656212347542,0 73.1440872215063,19.6469060202058,0 73.14377354209466,19.64716942035215,0 73.143291794801,19.64768448208901,0 73.14288866663951,19.64784559328703,0 73.14252282919117,19.64827916052729,0 73.14196221262024,19.64864176683183,0 73.14161121903871,19.64890388270732,0 73.14147279353469,19.64916290523204,0 73.1417055562131,19.64957164134811,0 73.14202183101017,19.65012710300208,0 73.14233358895822,19.65062155035527,0 73.14271545954688,19.65113421884134,0 73.1430189687832,19.65146966271726,0 73.14341306543855,19.65195475321427,0 73.14349431045797,19.65206740911915,0 73.14341978753895,19.6520867580365,0 73.14337196904437,19.65209860857922,0 73.14330329533213,19.65211632477342,0 73.14318633638138,19.65215693569509,0 73.14301265040837,19.65221947194149,0 73.14274442416942,19.65232254950243,0 73.14245702115004,19.65237180182544,0 73.14229742230218,19.65239361280363,0 73.14196346905277,19.65240974085086,0 73.14151241707071,19.65244220332321,0 73.14106389745335,19.65248386447824,0 73.1405668660921,19.65251583962122,0 73.14010708552786,19.65251140159319,0 73.13930992015774,19.65255212371153,0 73.13711475020898,19.65268593310464,0 73.13452662196667,19.65286074538402,0 73.13240977786792,19.65302650710925,0 73.13206052017182,19.65306116264053,0 73.13183891803844,19.65179125184591,0 
						</coordinates>
					</LinearRing>
				</outerBoundaryIs>
			</Polygon>
		</Placemark>
	</Document>
	<Document>
		<name>Ward No 12.kml</name>
		<StyleMap id="m_ylw-pushpin10">
			<Pair>
				<key>normal</key>
				<styleUrl>#s_ylw-pushpin10</styleUrl>
			</Pair>
			<Pair>
				<key>highlight</key>
				<styleUrl>#s_ylw-pushpin_hl10</styleUrl>
			</Pair>
		</StyleMap>
		<Style id="s_ylw-pushpin10">
			<IconStyle>
				<scale>1.1</scale>
				<Icon>
					<href>http://maps.google.com/mapfiles/kml/pushpin/ylw-pushpin.png</href>
				</Icon>
				<hotSpot x="20" y="2" xunits="pixels" yunits="pixels"/>
			</IconStyle>
			<LineStyle>
				<color>ffffff55</color>
				<width>3</width>
			</LineStyle>
			<PolyStyle>
				<fill>0</fill>
			</PolyStyle>
		</Style>
		<Style id="s_ylw-pushpin_hl10">
			<IconStyle>
				<scale>1.3</scale>
				<Icon>
					<href>http://maps.google.com/mapfiles/kml/pushpin/ylw-pushpin.png</href>
				</Icon>
				<hotSpot x="20" y="2" xunits="pixels" yunits="pixels"/>
			</IconStyle>
			<LineStyle>
				<color>ffffff55</color>
				<width>3</width>
			</LineStyle>
			<PolyStyle>
				<fill>0</fill>
			</PolyStyle>
		</Style>
		<Placemark>
			<name>Ward No 12.kml</name>
			<styleUrl>#m_ylw-pushpin10</styleUrl>
			<Polygon>
				<tessellate>1</tessellate>
				<outerBoundaryIs>
					<LinearRing>
						<coordinates>
							73.14664881255757,19.64986102598028,0 73.14664671937381,19.65002220959254,0 73.14665637257082,19.65010104579396,0 73.14667695809347,19.65030367114298,0 73.14662131993208,19.65072254912122,0 73.14660430476388,19.65092621714226,0 73.14656857459148,19.6512639021322,0 73.14657336539958,19.65161024970998,0 73.14653690891794,19.65201320156192,0 73.14653778724032,19.65213191085834,0 73.14650820571526,19.65229790273466,0 73.1464540720514,19.65232806426444,0 73.14631517199027,19.65222929707466,0 73.14604179674248,19.65216935073988,0 73.14581556385416,19.65215095149509,0 73.14546605465559,19.65218287756948,0 73.14526917118847,19.65220018813675,0 73.14510334944077,19.65218355275939,0 73.14459288065423,19.65213272078948,0 73.14427756307825,19.65210060354271,0 73.14427012375772,19.65210006153282,0 73.14427008107047,19.6521007284876,0 73.14362548100233,19.65206278868962,0 73.1435074713705,19.65208519407634,0 73.14349490717089,19.65206733849773,0 73.14349437543115,19.65206743790744,0 73.1434144817718,19.65195633224942,0 73.14322938397035,19.65172865470391,0 73.14302846678336,19.6514810087559,0 73.14287050438323,19.651305511968,0 73.14271467359799,19.65113339507664,0 73.14233508209676,19.65062338910067,0 73.1420295024236,19.650139176558,0 73.14194498343007,19.64999224270694,0 73.14177210652031,19.64968841778198,0 73.14159689696815,19.64938014113094,0 73.14147292151812,19.64916374348444,0 73.14161139460479,19.64890370980251,0 73.14179126878808,19.64876947503931,0 73.14195977439974,19.64864350610957,0 73.14203554974675,19.64859440866907,0 73.14252295362327,19.64827907160571,0 73.14288879578116,19.64784560454094,0 73.1432918795884,19.64768447760533,0 73.14377400838787,19.64716897502971,0 73.14408923969177,19.64690482056016,0 73.14461713408815,19.64656304206279,0 73.1450506389815,19.64639004731323,0 73.14528644875232,19.64631005563539,0 73.14545371482772,19.64649750253856,0 73.14584638963723,19.64673006858808,0 73.14601164342376,19.64680076543738,0 73.14643905106063,19.64707739626192,0 73.14716226245997,19.64801891432656,0 73.14730445352416,19.64827907468617,0 73.14738868329277,19.64859755067918,0 73.14746117679408,19.64875545264678,0 73.1475716006284,19.64920835631267,0 73.14759572565229,19.64929058355028,0 73.14763179098965,19.6495408029918,0 73.14765863164938,19.64974449426522,0 73.1476895254969,19.64991381972208,0 73.14759871199604,19.64990999740728,0 73.14750228159167,19.64990322425204,0 73.14740615287174,19.64989268690187,0 73.14722938886621,19.64987132570943,0 73.14710418994316,19.64985883058914,0 73.1470168176934,19.64984680511457,0 73.14687448316135,19.64984297865163,0 73.14676057506048,19.64983437859689,0 73.14664881255757,19.64986102598028,0 
						</coordinates>
					</LinearRing>
				</outerBoundaryIs>
			</Polygon>
		</Placemark>
	</Document>
	<Document>
		<name>Ward No 13.kml</name>
		<StyleMap id="m_ylw-pushpin11">
			<Pair>
				<key>normal</key>
				<styleUrl>#s_ylw-pushpin11</styleUrl>
			</Pair>
			<Pair>
				<key>highlight</key>
				<styleUrl>#s_ylw-pushpin_hl11</styleUrl>
			</Pair>
		</StyleMap>
		<Style id="s_ylw-pushpin11">
			<IconStyle>
				<scale>1.1</scale>
				<Icon>
					<href>http://maps.google.com/mapfiles/kml/pushpin/ylw-pushpin.png</href>
				</Icon>
				<hotSpot x="20" y="2" xunits="pixels" yunits="pixels"/>
			</IconStyle>
			<LineStyle>
				<color>ffffff55</color>
				<width>3</width>
			</LineStyle>
			<PolyStyle>
				<fill>0</fill>
			</PolyStyle>
		</Style>
		<Style id="s_ylw-pushpin_hl11">
			<IconStyle>
				<scale>1.3</scale>
				<Icon>
					<href>http://maps.google.com/mapfiles/kml/pushpin/ylw-pushpin.png</href>
				</Icon>
				<hotSpot x="20" y="2" xunits="pixels" yunits="pixels"/>
			</IconStyle>
			<LineStyle>
				<color>ffffff55</color>
				<width>3</width>
			</LineStyle>
			<PolyStyle>
				<fill>0</fill>
			</PolyStyle>
		</Style>
		<Placemark>
			<name>Ward No 13.kml</name>
			<styleUrl>#m_ylw-pushpin11</styleUrl>
			<Polygon>
				<tessellate>1</tessellate>
				<outerBoundaryIs>
					<LinearRing>
						<coordinates>
							73.14636432827258,19.65527746410916,0 73.14625037644328,19.65529194345566,0 73.14616660934645,19.65529888628414,0 73.14616545875705,19.65524956424596,0 73.14609861971992,19.65523073644367,0 73.14602900474132,19.65519822936338,0 73.14599323413992,19.65517722847592,0 73.1459755782703,19.6551588910637,0 73.14591974526127,19.6551208781768,0 73.14587013330197,19.65507696863662,0 73.14585438754051,19.65507174001205,0 73.14575841817879,19.65504081890134,0 73.14567373547865,19.65501321912594,0 73.14562260234229,19.65498173837066,0 73.14561721298429,19.65497605879648,0 73.14556953821348,19.6549242303124,0 73.14547456899236,19.65482765465233,0 73.14547016163004,19.65482331117014,0 73.14541057620403,19.65477738585461,0 73.14532758736307,19.65471333530521,0 73.14525413301428,19.65465234969583,0 73.14524794924796,19.65461892285802,0 73.14521680484731,19.65451398775515,0 73.14519524562577,19.65446148278705,0 73.14514689675275,19.65430396001726,0 73.14514615846826,19.65430142202296,0 73.14507735441124,19.65424556162808,0 73.14499679990764,19.65421674397069,0 73.14492724008279,19.65420755976788,0 73.14484197459737,19.65419635265784,0 73.1445706867493,19.65417377580048,0 73.14451909547795,19.65416363652394,0 73.14450011622783,19.65414331272976,0 73.14446396624994,19.65410017701234,0 73.14443673944423,19.6540248897813,0 73.14445011521674,19.65390310801405,0 73.14444167702706,19.65355337222281,0 73.14444632148872,19.65342831877449,0 73.14444687320631,19.65339231945535,0 73.14444648313057,19.65328352649516,0 73.14444550061802,19.65311316726016,0 73.14445355701704,19.65299465555819,0 73.1444181744663,19.6529169898372,0 73.14423730873918,19.65289603670472,0 73.14423612398677,19.65281546498505,0 73.14425109975251,19.65267922862787,0 73.14425158875329,19.65256575048338,0 73.14426042035872,19.65245161488174,0 73.14426691580702,19.65233918865743,0 73.14427377970853,19.6521543265847,0 73.14427016202735,19.65210004430375,0 73.14527058881536,19.65220028262043,0 73.14581692162102,19.65215101001445,0 73.14604204774243,19.65216928913221,0 73.14631573046972,19.65222953389182,0 73.14645394127716,19.65232805907601,0 73.14645814356736,19.65233158175201,0 73.14649794158497,19.65236592669962,0 73.1465410436053,19.65240491332735,0 73.14657556301438,19.65243625288915,0 73.1467344872117,19.65255054142711,0 73.14687933952639,19.65261587289289,0 73.14703409512647,19.65282695417166,0 73.14725764576802,19.65321896148708,0 73.14735806293774,19.65359165374861,0 73.14742079839537,19.65380827080712,0 73.14742233297352,19.65381399630065,0 73.14744265119872,19.65390759585172,0 73.14745322949008,19.65395654671706,0 73.14746161137992,19.65399477357616,0 73.14747224959662,19.65404365046879,0 73.14748602878325,19.65410713246034,0 73.14749145412827,19.65413198871325,0 73.14751071189707,19.65422019646679,0 73.14756244128017,19.65446625966526,0 73.14758707369703,19.65472996497532,0 73.14763621754058,19.65489317395241,0 73.14766758357936,19.65506709485859,0 73.14750179635931,19.65511251856971,0 73.14741724918277,19.65511676235708,0 73.14735842858366,19.65513315965817,0 73.14726546426016,19.65515182280756,0 73.14720947419795,19.65515291686408,0 73.14711490315493,19.6551885422429,0 73.1469398016188,19.65519428447795,0 73.14677188591244,19.6552193058058,0 73.14664065865735,19.65523322974621,0 73.14655525307312,19.65523753575997,0 73.14649647481212,19.65525375735968,0 73.14645089184108,19.65526641917207,0 73.14636432827258,19.65527746410916,0 
						</coordinates>
					</LinearRing>
				</outerBoundaryIs>
			</Polygon>
		</Placemark>
	</Document>
	<Document>
		<name>Ward No 14.kml</name>
		<StyleMap id="m_ylw-pushpin12">
			<Pair>
				<key>normal</key>
				<styleUrl>#s_ylw-pushpin12</styleUrl>
			</Pair>
			<Pair>
				<key>highlight</key>
				<styleUrl>#s_ylw-pushpin_hl12</styleUrl>
			</Pair>
		</StyleMap>
		<Style id="s_ylw-pushpin12">
			<IconStyle>
				<scale>1.1</scale>
				<Icon>
					<href>http://maps.google.com/mapfiles/kml/pushpin/ylw-pushpin.png</href>
				</Icon>
				<hotSpot x="20" y="2" xunits="pixels" yunits="pixels"/>
			</IconStyle>
			<LineStyle>
				<color>ffffff55</color>
				<width>3</width>
			</LineStyle>
			<PolyStyle>
				<fill>0</fill>
			</PolyStyle>
		</Style>
		<Style id="s_ylw-pushpin_hl12">
			<IconStyle>
				<scale>1.3</scale>
				<Icon>
					<href>http://maps.google.com/mapfiles/kml/pushpin/ylw-pushpin.png</href>
				</Icon>
				<hotSpot x="20" y="2" xunits="pixels" yunits="pixels"/>
			</IconStyle>
			<LineStyle>
				<color>ffffff55</color>
				<width>3</width>
			</LineStyle>
			<PolyStyle>
				<fill>0</fill>
			</PolyStyle>
		</Style>
		<Placemark>
			<name>Ward No 14.kml</name>
			<styleUrl>#m_ylw-pushpin12</styleUrl>
			<Polygon>
				<tessellate>1</tessellate>
				<outerBoundaryIs>
					<LinearRing>
						<coordinates>
							73.14879044302162,19.65315538162837,0 73.14872406658841,19.65341289352431,0 73.14872110746755,19.65342501489569,0 73.14868660932737,19.65353616348542,0 73.14859145332039,19.65365085058022,0 73.14859470663743,19.65381085602445,0 73.14855373302321,19.65400150073512,0 73.1484692810601,19.6540667273707,0 73.1484253674685,19.65405994898799,0 73.14838686122627,19.65408500387197,0 73.14827890367515,19.65432933073796,0 73.14825701268619,19.65458727940604,0 73.14816542529879,19.65462349944916,0 73.148169425247,19.6546428517687,0 73.14768189315609,19.65472217060581,0 73.14758771633797,19.65473082511568,0 73.14758637126205,19.65472178459121,0 73.14756223755332,19.65446546537627,0 73.14751886301579,19.65425790851415,0 73.14742208529634,19.65381300800933,0 73.14735782535887,19.6535914591434,0 73.14725740580931,19.65321866988278,0 73.14703356970013,19.6528261108925,0 73.14687921879286,19.65261579596743,0 73.14697378715515,19.65257429239542,0 73.14708890580175,19.65252377437912,0 73.14732858884688,19.65241857581726,0 73.1479196823032,19.6521575486817,0 73.14808539353325,19.65197695653383,0 73.14830400490801,19.65202245969684,0 73.14837154588989,19.65203465136223,0 73.14844052131316,19.65218813373433,0 73.14849216511415,19.65230571389643,0 73.14854103570535,19.65241852865685,0 73.14860317608706,19.65256108216045,0 73.14871829619167,19.65284021625854,0 73.14870730114025,19.65295970615285,0 73.14878210433757,19.65311175201075,0 73.14878457365725,19.65312418979227,0 73.14879044302162,19.65315538162837,0 
						</coordinates>
					</LinearRing>
				</outerBoundaryIs>
			</Polygon>
		</Placemark>
	</Document>
	<Document>
		<name>Ward No 15.kml</name>
		<StyleMap id="m_ylw-pushpin13">
			<Pair>
				<key>normal</key>
				<styleUrl>#s_ylw-pushpin13</styleUrl>
			</Pair>
			<Pair>
				<key>highlight</key>
				<styleUrl>#s_ylw-pushpin_hl13</styleUrl>
			</Pair>
		</StyleMap>
		<Style id="s_ylw-pushpin13">
			<IconStyle>
				<scale>1.1</scale>
				<Icon>
					<href>http://maps.google.com/mapfiles/kml/pushpin/ylw-pushpin.png</href>
				</Icon>
				<hotSpot x="20" y="2" xunits="pixels" yunits="pixels"/>
			</IconStyle>
			<LineStyle>
				<color>ffffff55</color>
				<width>3</width>
			</LineStyle>
			<PolyStyle>
				<fill>0</fill>
			</PolyStyle>
		</Style>
		<Style id="s_ylw-pushpin_hl13">
			<IconStyle>
				<scale>1.3</scale>
				<Icon>
					<href>http://maps.google.com/mapfiles/kml/pushpin/ylw-pushpin.png</href>
				</Icon>
				<hotSpot x="20" y="2" xunits="pixels" yunits="pixels"/>
			</IconStyle>
			<LineStyle>
				<color>ffffff55</color>
				<width>3</width>
			</LineStyle>
			<PolyStyle>
				<fill>0</fill>
			</PolyStyle>
		</Style>
		<Placemark>
			<name>Ward No 15.kml</name>
			<styleUrl>#m_ylw-pushpin13</styleUrl>
			<Polygon>
				<tessellate>1</tessellate>
				<outerBoundaryIs>
					<LinearRing>
						<coordinates>
							73.14687916596742,19.65261579670434,0 73.1467345281702,19.6525506662481,0 73.14657569146418,19.65243628466403,0 73.14650058672458,19.65236839508984,0 73.14645397891734,19.6523281111732,0 73.14650827962167,19.65229782751192,0 73.14653789623172,19.65213188875338,0 73.14653686990081,19.6520131411555,0 73.14657343993858,19.651609003932,0 73.14656839561273,19.65126188190287,0 73.14659073435115,19.65105233213108,0 73.14660708760996,19.65089105126625,0 73.14661927424176,19.65074881868133,0 73.14662294021021,19.65070960133839,0 73.14667696746129,19.65030289568947,0 73.14665608808302,19.6501007307122,0 73.1466467631891,19.65002195053855,0 73.14664860468031,19.64986076032445,0 73.14676095660126,19.64983446298542,0 73.14687766463905,19.64984314023394,0 73.14701745764911,19.64984679711605,0 73.14710229476815,19.64985870629493,0 73.14712723275454,19.64986116409496,0 73.14722199758052,19.64987067004602,0 73.14727760778709,19.64987719873637,0 73.14739565769337,19.6498914706148,0 73.14749466068361,19.64990242272312,0 73.14757022325328,19.64990803080793,0 73.14760468029313,19.6499102550504,0 73.14768956954038,19.64991386824108,0 73.14769607842879,19.64991955195181,0 73.14772981757862,19.64993977053022,0 73.14776587011963,19.6499614011145,0 73.1478257605725,19.64999723658879,0 73.14788726312482,19.65005437533972,0 73.14791067157937,19.65009624737608,0 73.14794799802496,19.65016432066498,0 73.14799308611481,19.6502123007906,0 73.14800715031009,19.65015029981795,0 73.14803959920617,19.65008725338223,0 73.14808826710478,19.64999243695145,0 73.14821951787371,19.64987937757876,0 73.14843454268208,19.64989706925964,0 73.14857607133497,19.64988397081351,0 73.14864405275161,19.64988503762753,0 73.14873476544923,19.64985727952908,0 73.14938052259807,19.64958347643945,0 73.14988226560985,19.6493015188932,0 73.14993342266784,19.64938088657608,0 73.14996817561254,19.64943485195629,0 73.15002350576616,19.64952372020155,0 73.15008744027745,19.64962737798478,0 73.15012785648976,19.64969346954042,0 73.15016286274937,19.64974758686243,0 73.15020246996922,19.64981189584618,0 73.15025317588146,19.64989005683447,0 73.15030047929285,19.64996388947991,0 73.15032717638388,19.64998000654234,0 73.15051765095009,19.64990964819524,0 73.15064917409084,19.6501665134447,0 73.15076755510921,19.65045293838886,0 73.1507917216906,19.65045972485353,0 73.15079058638372,19.6504882904759,0 73.15079006393556,19.65050055959454,0 73.15079030130906,19.65054081396082,0 73.15079028025913,19.65056751865794,0 73.15079014937811,19.65062068661542,0 73.15078997818891,19.65064418503269,0 73.150790935853,19.65066265035532,0 73.15079468962332,19.65066965306101,0 73.15075975830277,19.65074988637353,0 73.15003174724633,19.65143606295825,0 73.14974631035939,19.65176668696906,0 73.14959593136594,19.6520527975156,0 73.14938440373446,19.65255434898607,0 73.14927396010937,19.6528553561693,0 73.14889474723664,19.65304810610568,0 73.14878137430625,19.65311004401544,0 73.14870707776943,19.65295922374585,0 73.14871842526415,19.65284041876971,0 73.14866081118302,19.65270301062368,0 73.14860380417565,19.65256198053938,0 73.14846419107435,19.65224085792331,0 73.1483717161676,19.65203453619456,0 73.14832115384652,19.65202588101843,0 73.14808512463493,19.65197688989172,0 73.14791933724386,19.65215753267134,0 73.14740637970893,19.65238452587474,0 73.14687916596742,19.65261579670434,0 
						</coordinates>
					</LinearRing>
				</outerBoundaryIs>
			</Polygon>
		</Placemark>
	</Document>
	<Document>
		<name>Ward No 16.kml</name>
		<StyleMap id="m_ylw-pushpin14">
			<Pair>
				<key>normal</key>
				<styleUrl>#s_ylw-pushpin14</styleUrl>
			</Pair>
			<Pair>
				<key>highlight</key>
				<styleUrl>#s_ylw-pushpin_hl14</styleUrl>
			</Pair>
		</StyleMap>
		<Style id="s_ylw-pushpin14">
			<IconStyle>
				<scale>1.1</scale>
				<Icon>
					<href>http://maps.google.com/mapfiles/kml/pushpin/ylw-pushpin.png</href>
				</Icon>
				<hotSpot x="20" y="2" xunits="pixels" yunits="pixels"/>
			</IconStyle>
			<LineStyle>
				<color>ffffff55</color>
				<width>3</width>
			</LineStyle>
			<PolyStyle>
				<fill>0</fill>
			</PolyStyle>
		</Style>
		<Style id="s_ylw-pushpin_hl14">
			<IconStyle>
				<scale>1.3</scale>
				<Icon>
					<href>http://maps.google.com/mapfiles/kml/pushpin/ylw-pushpin.png</href>
				</Icon>
				<hotSpot x="20" y="2" xunits="pixels" yunits="pixels"/>
			</IconStyle>
			<LineStyle>
				<color>ffffff55</color>
				<width>3</width>
			</LineStyle>
			<PolyStyle>
				<fill>0</fill>
			</PolyStyle>
		</Style>
		<Placemark>
			<name>Ward No 16.kml</name>
			<styleUrl>#m_ylw-pushpin14</styleUrl>
			<Polygon>
				<tessellate>1</tessellate>
				<outerBoundaryIs>
					<LinearRing>
						<coordinates>
							73.15079095551127,19.65066270112258,0 73.15078992603499,19.65064256106333,0 73.15079024328722,19.65060992415638,0 73.15079026956268,19.65056299277158,0 73.15079009978301,19.65049884768806,0 73.1507917131882,19.65045981974161,0 73.15076764108566,19.65045294931044,0 73.15064901075704,19.65016619106986,0 73.15051720012833,19.64990983295831,0 73.15032698501892,19.64997987524585,0 73.15029959597018,19.64996283712448,0 73.15025215501565,19.64988836414211,0 73.15019860170167,19.64980584984993,0 73.15016597974011,19.64975223653514,0 73.15011868486272,19.6496788853662,0 73.1500525208014,19.64957036668317,0 73.14996192094344,19.64942510922765,0 73.14988215550611,19.6493014015167,0 73.14937933443217,19.64958378336684,0 73.14873533984519,19.64985721289509,0 73.14864413430058,19.64988510906297,0 73.14857628523789,19.64988397428021,0 73.14843548265499,19.64989710043284,0 73.14821967823066,19.64987936745182,0 73.14808810197643,19.64999267724842,0 73.14800719563388,19.6501503390203,0 73.14799313869841,19.65021255310998,0 73.14794812434681,19.65016454239354,0 73.14788741168248,19.65005439196595,0 73.14782538209336,19.64999698319469,0 73.14769424820309,19.64991812749775,0 73.1476895254969,19.64991381972208,0 73.14768890808523,19.64991024022186,0 73.14765876749975,19.64974546339534,0 73.14764064414076,19.64960718928327,0 73.14763201943012,19.64954214957639,0 73.14761763722748,19.64944218562056,0 73.1475959839987,19.64929159864973,0 73.14757150362148,19.64920808192677,0 73.14756848276097,19.64919570896587,0 73.14746110580973,19.64875535502134,0 73.14775990906624,19.6485132884492,0 73.14794908667569,19.64829053104243,0 73.14802803651192,19.64822045161028,0 73.14803575510003,19.64816169318767,0 73.1485239647467,19.64829630394646,0 73.14889060595799,19.64837244860403,0 73.14902345218702,19.64832143500873,0 73.14943754311678,19.64817652367444,0 73.14964419963685,19.64813146193065,0 73.15020304837292,19.64820675914859,0 73.15054092591413,19.64817614964572,0 73.15083850450591,19.64785988119955,0 73.15166032683526,19.64757485329749,0 73.1518820623963,19.64768717058806,0 73.15206375347405,19.64797032668264,0 73.152339317665,19.64808676557034,0 73.1525457793324,19.64814507881854,0 73.15246277666887,19.64830674078502,0 73.15240222107175,19.64842397353267,0 73.15235799917005,19.64850965746098,0 73.15228304510475,19.64875216919173,0 73.15218275854835,19.64898108657835,0 73.15198433315433,19.64947180183865,0 73.15168294164825,19.64991629193277,0 73.15135309262901,19.65024543221589,0 73.1510543943328,19.65041181521135,0 73.15083780856335,19.6506783556495,0 73.15079463372197,19.65066977026184,0 73.15079095551127,19.65066270112258,0 
						</coordinates>
					</LinearRing>
				</outerBoundaryIs>
			</Polygon>
		</Placemark>
	</Document>
	<Document>
		<name>Ward No 17.kml</name>
		<StyleMap id="m_ylw-pushpin15">
			<Pair>
				<key>normal</key>
				<styleUrl>#s_ylw-pushpin15</styleUrl>
			</Pair>
			<Pair>
				<key>highlight</key>
				<styleUrl>#s_ylw-pushpin_hl15</styleUrl>
			</Pair>
		</StyleMap>
		<Style id="s_ylw-pushpin15">
			<IconStyle>
				<scale>1.1</scale>
				<Icon>
					<href>http://maps.google.com/mapfiles/kml/pushpin/ylw-pushpin.png</href>
				</Icon>
				<hotSpot x="20" y="2" xunits="pixels" yunits="pixels"/>
			</IconStyle>
			<LineStyle>
				<color>ffffff55</color>
				<width>3</width>
			</LineStyle>
			<PolyStyle>
				<fill>0</fill>
			</PolyStyle>
		</Style>
		<Style id="s_ylw-pushpin_hl15">
			<IconStyle>
				<scale>1.3</scale>
				<Icon>
					<href>http://maps.google.com/mapfiles/kml/pushpin/ylw-pushpin.png</href>
				</Icon>
				<hotSpot x="20" y="2" xunits="pixels" yunits="pixels"/>
			</IconStyle>
			<LineStyle>
				<color>ffffff55</color>
				<width>3</width>
			</LineStyle>
			<PolyStyle>
				<fill>0</fill>
			</PolyStyle>
		</Style>
		<Placemark>
			<name>Ward No 17.kml</name>
			<styleUrl>#m_ylw-pushpin15</styleUrl>
			<Polygon>
				<tessellate>1</tessellate>
				<outerBoundaryIs>
					<LinearRing>
						<coordinates>
							73.14703122907795,19.64460051426927,0 73.14719600836268,19.64450830587887,0 73.14722572611994,19.64424365904004,0 73.1472573045874,19.64396687731361,0 73.14730502834789,19.64382789334019,0 73.14747022727794,19.64375542488406,0 73.14770425535545,19.64380734161528,0 73.14798306068822,19.64402501271195,0 73.1480363126129,19.64406900442572,0 73.14842589080425,19.64438927675681,0 73.14883708024001,19.64468163594401,0 73.14976381723027,19.64363705530457,0 73.15047166814161,19.64298007729379,0 73.15072254190019,19.64322110920286,0 73.15175455463688,19.64322977345466,0 73.15235187475771,19.6433023796476,0 73.15312177800725,19.64338472612924,0 73.15391311241942,19.64347203195612,0 73.15451903622392,19.64353893737593,0 73.15458731574039,19.64358083870636,0 73.15540130948592,19.64403867914783,0 73.15540201507349,19.64407540033772,0 73.15538356546527,19.64420167106152,0 73.15536275827152,19.64433964943403,0 73.15533963706665,19.64447258365423,0 73.15530713722333,19.6446313490792,0 73.15532127585581,19.64471161458968,0 73.15524224568205,19.64516560015626,0 73.15511679581724,19.64589526380145,0 73.1550996082281,19.64599514974113,0 73.15481738332528,19.64625100272823,0 73.15469504373759,19.64636201122746,0 73.15463733170635,19.64641437669516,0 73.15416384577621,19.64655150291313,0 73.1538112482465,19.64665291461183,0 73.15370779351734,19.6466827393712,0 73.15357267274787,19.64680407779325,0 73.15308725767639,19.64724035925681,0 73.15287784805504,19.64742884284028,0 73.15285151775612,19.64748513488014,0 73.15258810568557,19.64805372548021,0 73.15254561905037,19.64814523114282,0 73.15246598336512,19.64812262765699,0 73.15233846144572,19.64808654765874,0 73.15206352917374,19.64797013221214,0 73.15188207868613,19.6476871674043,0 73.15184671672378,19.64766928096955,0 73.15166028885614,19.64757482191872,0 73.15149167592735,19.64763342409937,0 73.15121080123158,19.64773067637439,0 73.15083823658036,19.64786005061078,0 73.15070009680008,19.64800716099963,0 73.15054097111501,19.64817616273354,0 73.15020272644728,19.64820663717145,0 73.14964425243225,19.64813150572821,0 73.14943774179035,19.6481765956236,0 73.14940654291183,19.64818747114476,0 73.14934209303156,19.64820966502646,0 73.14904608570426,19.64831327941244,0 73.14889046346879,19.64837236619444,0 73.14852513050531,19.64829665097622,0 73.14803578317202,19.64816182112873,0 73.14802797741176,19.6482204434216,0 73.14795028810971,19.64828924466154,0 73.14775994690825,19.64851318910117,0 73.14746118449642,19.6487552833343,0 73.14738864664177,19.64859732183928,0 73.14730442018552,19.6482792436873,0 73.14716168155911,19.64801784723306,0 73.14643905094513,19.64707757121743,0 73.14601143835969,19.64680069680426,0 73.14584609618153,19.64672943950027,0 73.14545533204044,19.64649875053443,0 73.14528648222542,19.64631006120164,0 73.1453031969736,19.64630441657372,0 73.1452621625527,19.64626943891497,0 73.14508674138716,19.64612021831179,0 73.14460629257589,19.64590325195867,0 73.14398893799947,19.64571653715376,0 73.14362386469337,19.64541931565962,0 73.14337171283474,19.6450833576067,0 73.14329544463595,19.64487442713754,0 73.143675705237,19.64492670169622,0 73.14385116133877,19.64499639819741,0 73.14386245985381,19.64499782720451,0 73.14401072344133,19.64486570932209,0 73.14422600795527,19.64441541327394,0 73.14444825453144,19.64418201331742,0 73.14466433722815,19.64402862868845,0 73.14482271475616,19.64409003275937,0 73.14485400461088,19.64415730544594,0 73.1449344030904,19.64432354198889,0 73.14516305198781,19.6444785503165,0 73.14538425743341,19.64436856120726,0 73.14541431367921,19.64405797213443,0 73.14558595132478,19.64399902640243,0 73.14583099866545,19.64408257304342,0 73.1460214240187,19.644295461099,0 73.14615317075122,19.64449387157703,0 73.14634608467462,19.64457392748944,0 73.14666787528775,19.64466953108438,0 73.14691552630934,19.64462701103353,0 73.14696433639466,19.6446158512515,0 73.14703122907795,19.64460051426927,0 
						</coordinates>
					</LinearRing>
				</outerBoundaryIs>
			</Polygon>
		</Placemark>
	</Document>
	<atom:link rel="app" href="https://www.google.com/earth/about/versions/#earth-pro" title="Google Earth Pro 7.3.6.10201"></atom:link>
</Folder>
</kml>
